STATION,STATION_NAME,ELEVATION,LATITUDE,LONGITUDE,DATE,REPORTTPYE,HOURLYSKYCONDITIONS,HOURLYVISIBILITY,HOURLYPRSENTWEATHERTYPE,HOURLYDRYBULBTEMPF,HOURLYDRYBULBTEMPC,HOURLYWETBULBTEMPF,HOURLYWETBULBTEMPC,HOURLYDewPointTempF,HOURLYDewPointTempC,HOURLYRelativeHumidity,HOURLYWindSpeed,HOURLYWindDirection,HOURLYWindGustSpeed,HOURLYStationPressure,HOURLYPressureTendency,HOURLYPressureChange,HOURLYSeaLevelPressure,HOURLYPrecip,HOURLYAltimeterSetting,DAILYMaximumDryBulbTemp,DAILYMinimumDryBulbTemp,DAILYAverageDryBulbTemp,DAILYDeptFromNormalAverageTemp,DAILYAverageRelativeHumidity,DAILYAverageDewPointTemp,DAILYAverageWetBulbTemp,DAILYHeatingDegreeDays,DAILYCoolingDegreeDays,DAILYSunrise,DAILYSunset,DAILYWeather,DAILYPrecip,DAILYSnowfall,DAILYSnowDepth,DAILYAverageStationPressure,DAILYAverageSeaLevelPressure,DAILYAverageWindSpeed,DAILYPeakWindSpeed,PeakWindDirection,DAILYSustainedWindSpeed,DAILYSustainedWindDirection,MonthlyMaximumTemp,MonthlyMinimumTemp,MonthlyMeanTemp,MonthlyAverageRH,MonthlyDewpointTemp,MonthlyWetBulbTemp,MonthlyAvgHeatingDegreeDays,MonthlyAvgCoolingDegreeDays,MonthlyStationPressure,MonthlySeaLevelPressure,MonthlyAverageWindSpeed,MonthlyTotalSnowfall,MonthlyDeptFromNormalMaximumTemp,MonthlyDeptFromNormalMinimumTemp,MonthlyDeptFromNormalAverageTemp,MonthlyDeptFromNormalPrecip,MonthlyTotalLiquidPrecip,MonthlyGreatestPrecip,MonthlyGreatestPrecipDate,MonthlyGreatestSnowfall,MonthlyGreatestSnowfallDate,MonthlyGreatestSnowDepth,MonthlyGreatestSnowDepthDate,MonthlyDaysWithGT90Temp,MonthlyDaysWithLT32Temp,MonthlyDaysWithGT32Temp,MonthlyDaysWithLT0Temp,MonthlyDaysWithGT001Precip,MonthlyDaysWithGT010Precip,MonthlyDaysWithGT1Snow,MonthlyMaxSeaLevelPressureValue,MonthlyMaxSeaLevelPressureDate,MonthlyMaxSeaLevelPressureTime,MonthlyMinSeaLevelPressureValue,MonthlyMinSeaLevelPressureDate,MonthlyMinSeaLevelPressureTime,MonthlyTotalHeatingDegreeDays,MonthlyTotalCoolingDegreeDays,MonthlyDeptFromNormalHeatingDD,MonthlyDeptFromNormalCoolingDD,MonthlyTotalSeasonToDateHeatingDD,MonthlyTotalSeasonToDateCoolingDD,TweetDate,IsVisible
WBAN:24234,SEATTLE BOEING FIELD WA US,6.1,47.53028,-122.30083,2016-01-15 12:53,FM-15,BKN:07 34 OVC:08 47,10.00,,47,8.3,46,7.5,44,6.7,90,7,120,,29.96,8,,29.99,T,29.99,,,,,,,,,,0753,1645,,,,,,,,,,,,,,,,,,,,,,,,,,,,,,,,,,,,,,,,,,,-9999,-9999,,-9999,-9999,,,,,,,1/15/16 21:21,False
WBAN:24234,SEATTLE BOEING FIELD WA US,6.1,47.53028,-122.30083,2017-02-14 10:53,FM-15,CLR:00,10.00,,49,9.4,44,6.6,38,3.3,66,0,000,,30.04,,,30.07,0.00,30.07,,,,,,,,,,0717,1731,,,,,,,,,,,,,,,,,,,,,,,,,,,,,,,,,,,,,,,,,,,-9999,-9999,,-9999,-9999,,,,,,,2/14/17 18:50,True
WBAN:24234,SEATTLE BOEING FIELD WA US,6.1,47.53028,-122.30083,2015-01-05 12:53,FM-15,SCT:04 7 OVC:08 12,10.00,,57,13.9,54,12.1,51,10.6,81,15,170,22,30.22,3,,30.25,0.00,30.25,,,,,,,,,,0757,1633,,,,,,,,,,,,,,,,,,,,,,,,,,,,,,,,,,,,,,,,,,,-9999,-9999,,-9999,-9999,,,,,,,1/5/15 21:02,False
WBAN:24234,SEATTLE BOEING FIELD WA US,6.1,47.53028,-122.30083,2015-01-14 08:19,FM-16,SCT:04 3,3.00,BR:1 ||,37,3.0,36,2.1,34,1.0,87,0,000,,30.21,,,,,30.24,,,,,,,,,,0753,1644,,,,,,,,,,,,,,,,,,,,,,,,,,,,,,,,,,,,,,,,,,,-9999,-9999,,-9999,-9999,,,,,,,1/14/15 16:09,True
WBAN:24234,SEATTLE BOEING FIELD WA US,6.1,47.53028,-122.30083,2014-07-27 07:53,FM-15,CLR:00,10.00,,66,18.9,59,14.8,53,11.7,63,6,300,,30.16,,,30.19,0.00,30.19,,,,,,,,,,0441,1950,,,,,,,,,,,,,,,,,,,,,,,,,,,,,,,,,,,,,,,,,,,-9999,-9999,,-9999,-9999,,,,,,,7/27/14 16:30,True
WBAN:24234,SEATTLE BOEING FIELD WA US,6.1,47.53028,-122.30083,2017-02-28 17:53,FM-15,SCT:04 45 OVC:08 90,10.00,,46,7.8,40,4.5,32,0.0,58,10,190,,30.14,,,30.17,0.00,30.17,,,,,,,,,,0650,1754,,,,,,,,,,,,,,,,,,,,,,,,,,,,,,,,,,,,,,,,,,,-9999,-9999,,-9999,-9999,,,,,,,3/1/17 1:45,False
WBAN:24234,SEATTLE BOEING FIELD WA US,6.1,47.53028,-122.30083,2016-01-19 14:53,FM-15,BKN:07 44 OVC:08 55,8.00,-RA:02 |RA:61 |,46,7.8,45,7.0,43,6.1,89,0,000,,29.56,,,29.59,0.03,29.59,,,,,,,,,,0750,1651,,,,,,,,,,,,,,,,,,,,,,,,,,,,,,,,,,,,,,,,,,,-9999,-9999,,-9999,-9999,,,,,,,1/19/16 22:12,False
WBAN:24234,SEATTLE BOEING FIELD WA US,6.1,47.53028,-122.30083,2017-06-22 19:53,FM-15,CLR:00,10.00,,67,19.4,57,13.7,48,8.9,51,7,320,,30.18,,,30.22,0.00,30.21,,,,,,,,,,0412,2011,,,,,,,,,,,,,,,,,,,,,,,,,,,,,,,,,,,,,,,,,,,-9999,-9999,,-9999,-9999,,,,,,,6/23/17 4:22,True
WBAN:24234,SEATTLE BOEING FIELD WA US,6.1,47.53028,-122.30083,2017-12-21 13:53,FM-15,BKN:07 34,10.00,,40,4.4,36,2.4,31,-0.6,70,0,000,,30.34,,,30.37,0.00,30.37,,,,,,,,,,0754,1620,,,,,,,,,,,,,,,,,,,,,,,,,,,,,,,,,,,,,,,,,,,-9999,-9999,,-9999,-9999,,,,,,,12/21/17 22:03,True
WBAN:24234,SEATTLE BOEING FIELD WA US,6.1,47.53028,-122.30083,2016-05-24 14:53,FM-15,SCT:04 33 OVC:08 75,10.00,,64,17.8,57,13.8,51,10.6,63,3,320,,29.97,,,30.00,0.00,30.00,,,,,,,,,,0421,1951,,,,,,,,,,,,,,,,,,,,,,,,,,,,,,,,,,,,,,,,,,,-9999,-9999,,-9999,-9999,,,,,,,5/24/16 22:49,False
WBAN:24234,SEATTLE BOEING FIELD WA US,6.1,47.53028,-122.30083,2016-10-21 12:53,FM-15,SCT:04 49 BKN:07 70,10.00,,59,15.0,54,12.1,49,9.4,69,6,200,,29.92,8,,29.96,0.00,29.95,,,,,,,,,,0638,1709,,,,,,,,,,,,,,,,,,,,,,,,,,,,,,,,,,,,,,,,,,,-9999,-9999,,-9999,-9999,,,,,,,10/21/16 21:17,False
WBAN:24234,SEATTLE BOEING FIELD WA US,6.1,47.53028,-122.30083,2015-02-15 10:53,FM-15,FEW:02 10,10.00,,49,9.4,45,7.1,40,4.4,71,6,020,,30.40,,,30.43,0.00,30.43,,,,,,,,,,0715,1733,,,,,,,,,,,,,,,,,,,,,,,,,,,,,,,,,,,,,,,,,,,-9999,-9999,,-9999,-9999,,,,,,,2/15/15 19:09,True
WBAN:24234,SEATTLE BOEING FIELD WA US,6.1,47.53028,-122.30083,2014-12-03 10:53,FM-15,CLR:00,10.00,,45,7.2,37,3.0,26,-3.3,48,0,000,,29.80,,,29.83,0.00,29.83,,,,,,,,,,0738,1619,,,,,,,,,,,,,,,,,,,,,,,,,,,,,,,,,,,,,,,,,,,-9999,-9999,,-9999,-9999,,,,,,,12/3/14 19:14,True
WBAN:24234,SEATTLE BOEING FIELD WA US,6.1,47.53028,-122.30083,2017-12-08 16:53,FM-15,FEW:02 2 SCT:04 200,5.00,BR:1 ||,34,1.1,34,1.1,34,1.1,100,6,150,,30.44,,,30.47,0.00,30.47,,,,,,,,,,0745,1618,,,,,,,,,,,,,,,,,,,,,,,,,,,,,,,,,,,,,,,,,,,-9999,-9999,,-9999,-9999,,,,,,,12/9/17 0:36,True
WBAN:24234,SEATTLE BOEING FIELD WA US,6.1,47.53028,-122.30083,2014-12-30 09:53,FM-15,CLR:00,10.00,,36,2.2,29,-1.7,14,-10.0,40,3,020,,30.83,3,,30.86,0.00,30.86,,,,,,,,,,0757,1627,,,,,,,,,,,,,,,,,,,,,,,,,,,,,,,,,,,,,,,,,,,-9999,-9999,,-9999,-9999,,,,,,,12/30/14 17:57,True
WBAN:24234,SEATTLE BOEING FIELD WA US,6.1,47.53028,-122.30083,2014-06-16 13:53,FM-15,BKN:07 44,10.00,,62,16.7,52,11.3,43,6.1,50,0,000,,29.87,,,29.90,0.00,29.90,,,,,,,,,,0411,2009,,,,,,,,,,,,,,,,,,,,,,,,,,,,,,,,,,,,,,,,,,,-9999,-9999,,-9999,-9999,,,,,,,6/16/14 22:08,False
WBAN:24234,SEATTLE BOEING FIELD WA US,6.1,47.53028,-122.30083,2016-02-03 08:53,FM-15,FEW:02 48 BKN:07 60 BKN:07 100,10.00,,43,6.1,40,4.7,37,2.8,80,5,140,,30.09,,,30.12,0.00,30.12,,,,,,,,,,0733,1714,,,,,,,,,,,,,,,,,,,,,,,,,,,,,,,,,,,,,,,,,,,-9999,-9999,,-9999,-9999,,,,,,,2/3/16 16:41,False
WBAN:24234,SEATTLE BOEING FIELD WA US,6.1,47.53028,-122.30083,2016-09-20 14:53,FM-15,SCT:04 40,10.00,,66,18.9,56,13.2,47,8.3,50,11,300,,30.06,,,30.09,0.00,30.09,,,,,,,,,,0554,1809,,,,,,,,,,,,,,,,,,,,,,,,,,,,,,,,,,,,,,,,,,,-9999,-9999,,-9999,-9999,,,,,,,9/20/16 22:43,False
WBAN:24234,SEATTLE BOEING FIELD WA US,6.1,47.53028,-122.30083,2016-12-16 08:53,FM-15,SCT:04 38 BKN:07 200,10.00,,31,-0.6,28,-2.3,22,-5.6,69,6,010,,30.04,,,30.07,0.00,30.07,,,,,,,,,,0752,1619,,,,,,,,,,,,,,,,,,,,,,,,,,,,,,,,,,,,,,,,,,,-9999,-9999,,-9999,-9999,,,,,,,12/16/16 16:55,True
WBAN:24234,SEATTLE BOEING FIELD WA US,6.1,47.53028,-122.30083,2015-01-08 11:49,FM-16,OVC:08 10,10.00,,45,7.0,41,5.3,37,3.0,76,6,020,,30.15,,,,,30.18,,,,,,,,,,0756,1636,,,,,,,,,,,,,,,,,,,,,,,,,,,,,,,,,,,,,,,,,,,-9999,-9999,,-9999,-9999,,,,,,,1/8/15 19:12,False
WBAN:24234,SEATTLE BOEING FIELD WA US,6.1,47.53028,-122.30083,2017-09-02 08:53,FM-15,CLR:00,10.00,,71,21.7,62,16.5,55,12.8,57,7,300,,29.99,,,30.02,0.00,30.02,,,,,,,,,,0529,1848,,,,,,,,,,,,,,,,,,,,,,,,,,,,,,,,,,,,,,,,,,,-9999,-9999,,-9999,-9999,,,,,,,9/2/17 17:45,True
WBAN:24234,SEATTLE BOEING FIELD WA US,6.1,47.53028,-122.30083,2017-07-09 12:53,FM-15,SCT:04 200,10.00,,77,25.0,65,18.3,57,13.9,50,6,320,,30.06,8,,30.09,0.00,30.09,,,,,,,,,,0422,2007,,,,,,,,,,,,,,,,,,,,,,,,,,,,,,,,,,,,,,,,,,,-9999,-9999,,-9999,-9999,,,,,,,7/9/17 20:49,True
WBAN:24234,SEATTLE BOEING FIELD WA US,6.1,47.53028,-122.30083,2014-05-14 11:53,FM-15,CLR:00,10.00,,77,25.0,60,15.7,47,8.3,35,6,320,,30.22,,,30.25,0.00,30.25,,,,,,,,,,0433,1938,,,,,,,,,,,,,,,,,,,,,,,,,,,,,,,,,,,,,,,,,,,-9999,-9999,,-9999,-9999,,,,,,,5/14/14 19:48,True
WBAN:24234,SEATTLE BOEING FIELD WA US,6.1,47.53028,-122.30083,2016-11-09 11:53,FM-15,SCT:04 13 SCT:04 48 BKN:07 100,10.00,,63,17.2,61,15.9,59,15.0,87,7,170,,30.15,,,30.18,0.00,30.18,,,,,,,,,,0707,1639,,,,,,,,,,,,,,,,,,,,,,,,,,,,,,,,,,,,,,,,,,,-9999,-9999,,-9999,-9999,,,,,,,11/9/16 20:23,False
WBAN:24234,SEATTLE BOEING FIELD WA US,6.1,47.53028,-122.30083,2014-06-02 10:53,FM-15,FEW:02 23,10.00,,65,18.3,59,14.9,54,12.2,68,3,260,,29.91,,,29.94,0.00,29.94,,,,,,,,,,0415,1959,,,,,,,,,,,,,,,,,,,,,,,,,,,,,,,,,,,,,,,,,,,-9999,-9999,,-9999,-9999,,,,,,,6/2/14 19:03,False
WBAN:24234,SEATTLE BOEING FIELD WA US,6.1,47.53028,-122.30083,2014-06-20 08:53,FM-15,SCT:04 25 BKN:07 29 OVC:08 46,10.00,,59,15.0,52,11.3,46,7.8,62,0,000,,30.13,,,30.16,0.00,30.16,,,,,,,,,,0411,2010,,,,,,,,,,,,,,,,,,,,,,,,,,,,,,,,,,,,,,,,,,,-9999,-9999,,-9999,-9999,,,,,,,6/20/14 17:17,False
WBAN:24234,SEATTLE BOEING FIELD WA US,6.1,47.53028,-122.30083,2016-04-22 16:53,FM-15,SCT:04 23 BKN:07 55,10.00,-RA:02 |RA:61 |,59,15.0,55,12.6,51,10.6,75,7,190,,29.79,,,29.83,T,29.82,,,,,,,,,,0504,1911,,,,,,,,,,,,,,,,,,,,,,,,,,,,,,,,,,,,,,,,,,,-9999,-9999,,-9999,-9999,,,,,,,4/23/16 0:40,False
WBAN:24234,SEATTLE BOEING FIELD WA US,6.1,47.53028,-122.30083,2014-08-20 14:53,FM-15,SCT:04 30 SCT:04 250,10.00,,71,21.7,60,15.6,52,11.1,51,7,220,,29.94,,,29.97,0.00,29.97,,,,,,,,,,0512,1913,,,,,,,,,,,,,,,,,,,,,,,,,,,,,,,,,,,,,,,,,,,-9999,-9999,,-9999,-9999,,,,,,,8/20/14 23:13,False
WBAN:24234,SEATTLE BOEING FIELD WA US,6.1,47.53028,-122.30083,2016-06-09 15:53,FM-15,OVC:08 90,10.00,,63,17.2,55,13.0,49,9.4,60,11,140,,29.87,8,,29.90,0.00,29.90,,,,,,,,,,0412,2006,,,,,,,,,,,,,,,,,,,,,,,,,,,,,,,,,,,,,,,,,,,-9999,-9999,,-9999,-9999,,,,,,,6/9/16 23:30,False
WBAN:24234,SEATTLE BOEING FIELD WA US,6.1,47.53028,-122.30083,2016-01-12 13:53,FM-15,OVC:08 60,10.00,-RA:02 |RA:61 |,48,8.9,45,7.1,41,5.0,77,11,120,,29.79,,,29.83,0.03,29.82,,,,,,,,,,0754,1641,,,,,,,,,,,,,,,,,,,,,,,,,,,,,,,,,,,,,,,,,,,-9999,-9999,,-9999,-9999,,,,,,,1/12/16 21:43,False
WBAN:24234,SEATTLE BOEING FIELD WA US,6.1,47.53028,-122.30083,2014-07-30 07:53,FM-15,CLR:00,10.00,,69,20.6,62,16.6,57,13.9,66,3,180,,30.12,,,30.15,0.00,30.15,,,,,,,,,,0444,1946,,,,,,,,,,,,,,,,,,,,,,,,,,,,,,,,,,,,,,,,,,,-9999,-9999,,-9999,-9999,,,,,,,7/30/14 16:05,True
WBAN:24234,SEATTLE BOEING FIELD WA US,6.1,47.53028,-122.30083,2017-10-04 11:53,FM-15,CLR:00,10.00,,62,16.7,51,10.4,39,3.9,43,8,280,,30.14,,,30.17,0.00,30.17,,,,,,,,,,0612,1743,,,,,,,,,,,,,,,,,,,,,,,,,,,,,,,,,,,,,,,,,,,-9999,-9999,,-9999,-9999,,,,,,,10/4/17 20:53,True
WBAN:24234,SEATTLE BOEING FIELD WA US,6.1,47.53028,-122.30083,2017-11-06 16:53,FM-15,CLR:00,10.00,,45,7.2,40,4.6,34,1.1,66,3,300,,30.26,,,30.29,,30.29,,,,,,,,,,0702,1643,,,,,,,,,,,,,,,,,,,,,,,,,,,,,,,,,,,,,,,,,,,-9999,-9999,,-9999,-9999,,,,,,,11/7/17 1:09,True
WBAN:24234,SEATTLE BOEING FIELD WA US,6.1,47.53028,-122.30083,2016-03-29 09:53,FM-15,FEW:02 15,10.00,,51,10.6,46,7.9,41,5.0,69,7,040,,30.16,8,,30.19,0.00,30.19,,,,,,,,,,0552,1836,,,,,,,,,,,,,,,,,,,,,,,,,,,,,,,,,,,,,,,,,,,-9999,-9999,,-9999,-9999,,,,,,,3/29/16 17:33,True
WBAN:24234,SEATTLE BOEING FIELD WA US,6.1,47.53028,-122.30083,2014-05-04 08:53,FM-15,FEW:02 40 BKN:07 54 OVC:08 70,10.00,-RA:02 |RA:61 |,56,13.3,53,11.6,50,10.0,81,8,150,,29.72,,,29.75,0.02,29.75,,,,,,,,,,0448,1925,,,,,,,,,,,,,,,,,,,,,,,,,,,,,,,,,,,,,,,,,,,-9999,-9999,,-9999,-9999,,,,,,,5/4/14 16:31,False
WBAN:24234,SEATTLE BOEING FIELD WA US,6.1,47.53028,-122.30083,2016-02-20 15:53,FM-15,SCT:04 43 SCT:04 250,10.00,,51,10.6,44,6.6,35,1.7,54,5,250,,30.33,6,,30.36,0.00,30.36,,,,,,,,,,0706,1740,,,,,,,,,,,,,,,,,,,,,,,,,,,,,,,,,,,,,,,,,,,-9999,-9999,,-9999,-9999,,,,,,,2/21/16 0:16,False
WBAN:24234,SEATTLE BOEING FIELD WA US,6.1,47.53028,-122.30083,2017-11-21 16:53,FM-15,FEW:02 25 BKN:07 34 OVC:08 47,10.00,,52,11.1,51,10.8,51,10.6,97,0,000,,29.82,,,29.85,0.00,29.85,,,,,,,,,,0724,1626,,,,,,,,,,,,,,,,,,,,,,,,,,,,,,,,,,,,,,,,,,,-9999,-9999,,-9999,-9999,,,,,,,11/22/17 0:55,False
WBAN:24234,SEATTLE BOEING FIELD WA US,6.1,47.53028,-122.30083,2016-01-09 15:53,FM-15,SCT:04 70 BKN:07 90,10.00,,48,8.9,43,6.1,37,2.8,66,0,000,,30.11,3,,30.14,0.00,30.14,,,,,,,,,,0756,1638,,,,,,,,,,,,,,,,,,,,,,,,,,,,,,,,,,,,,,,,,,,-9999,-9999,,-9999,-9999,,,,,,,1/9/16 23:53,False
WBAN:24234,SEATTLE BOEING FIELD WA US,6.1,47.53028,-122.30083,2017-10-09 07:53,FM-15,VV:09 3,0.25,FG:2 |FG:30 |,45,7.2,45,7.2,45,7.2,100,0,000,,30.27,,,30.30,0.00,30.30,,,,,,,,,,0619,1733,,,,,,,,,,,,,,,,,,,,,,,,,,,,,,,,,,,,,,,,,,,-9999,-9999,,-9999,-9999,,,,,,,10/9/17 15:48,True
WBAN:24234,SEATTLE BOEING FIELD WA US,6.1,47.53028,-122.30083,2014-05-06 07:53,FM-15,SCT:04 14 SCT:04 18 BKN:07 45,10.00,,55,12.8,50,10.2,46,7.8,72,8,160,,30.02,,,30.06,0.00,30.05,,,,,,,,,,0445,1928,,,,,,,,,,,,,,,,,,,,,,,,,,,,,,,,,,,,,,,,,,,-9999,-9999,,-9999,-9999,,,,,,,5/6/14 16:07,False
WBAN:24234,SEATTLE BOEING FIELD WA US,6.1,47.53028,-122.30083,2017-07-04 19:53,FM-15,CLR:00,10.00,,71,21.7,57,13.9,45,7.2,39,6,300,,29.94,,,29.97,0.00,29.97,,,,,,,,,,0418,2009,,,,,,,,,,,,,,,,,,,,,,,,,,,,,,,,,,,,,,,,,,,-9999,-9999,,-9999,-9999,,,,,,,7/5/17 4:21,True
WBAN:24234,SEATTLE BOEING FIELD WA US,6.1,47.53028,-122.30083,2014-06-08 15:53,FM-15,FEW:02 70 SCT:04 120,10.00,,75,23.9,63,17.0,54,12.2,48,6,260,,30.08,8,,30.11,0.00,30.11,,,,,,,,,,0412,2004,,,,,,,,,,,,,,,,,,,,,,,,,,,,,,,,,,,,,,,,,,,-9999,-9999,,-9999,-9999,,,,,,,6/9/14 0:46,True
WBAN:24234,SEATTLE BOEING FIELD WA US,6.1,47.53028,-122.30083,2014-08-09 06:53,FM-15,FEW:02 210,10.00,,66,18.9,56,13.5,48,8.9,52,6,050,,30.12,3,,30.15,0.00,30.15,,,,,,,,,,0457,1932,,,,,,,,,,,,,,,,,,,,,,,,,,,,,,,,,,,,,,,,,,,-9999,-9999,,-9999,-9999,,,,,,,8/9/14 16:04,True
WBAN:24234,SEATTLE BOEING FIELD WA US,6.1,47.53028,-122.30083,2014-08-06 07:53,FM-15,OVC:08 10,7.00,,64,17.8,60,15.5,57,13.9,78,0,000,,30.12,,,30.15,0.00,30.15,,,,,,,,,,0453,1936,,,,,,,,,,,,,,,,,,,,,,,,,,,,,,,,,,,,,,,,,,,-9999,-9999,,-9999,-9999,,,,,,,8/6/14 16:03,False
WBAN:24234,SEATTLE BOEING FIELD WA US,6.1,47.53028,-122.30083,2016-01-24 13:53,FM-15,SCT:04 25 BKN:07 50 BKN:07 250,10.00,,50,10.0,44,6.7,37,2.8,61,6,160,,30.08,,,30.11,0.00,30.11,,,,,,,,,,0745,1658,,,,,,,,,,,,,,,,,,,,,,,,,,,,,,,,,,,,,,,,,,,-9999,-9999,,-9999,-9999,,,,,,,1/24/16 22:16,False
WBAN:24234,SEATTLE BOEING FIELD WA US,6.1,47.53028,-122.30083,2017-05-09 12:53,FM-15,FEW:02 60 OVC:08 250,10.00,,65,18.3,54,12.0,43,6.1,45,7,290,,29.99,6,,30.02,0.00,30.02,,,,,,,,,,0440,1932,,,,,,,,,,,,,,,,,,,,,,,,,,,,,,,,,,,,,,,,,,,-9999,-9999,,-9999,-9999,,,,,,,5/9/17 19:37,True
WBAN:24234,SEATTLE BOEING FIELD WA US,6.1,47.53028,-122.30083,2016-11-03 09:53,FM-15,FEW:02 45 FEW:02 200,10.00,,57,13.9,54,12.4,52,11.1,83,0,000,,30.27,0,,30.30,0.00,30.30,,,,,,,,,,0657,1647,,,,,,,,,,,,,,,,,,,,,,,,,,,,,,,,,,,,,,,,,,,-9999,-9999,,-9999,-9999,,,,,,,11/3/16 17:50,True
WBAN:24234,SEATTLE BOEING FIELD WA US,6.1,47.53028,-122.30083,2017-09-28 17:53,FM-15,CLR:00,10.00,,81,27.2,62,16.5,47,8.3,30,0,000,,29.79,,,29.83,0.00,29.82,,,,,,,,,,0605,1753,,,,,,,,,,,,,,,,,,,,,,,,,,,,,,,,,,,,,,,,,,,-9999,-9999,,-9999,-9999,,,,,,,9/29/17 2:12,True
WBAN:24234,SEATTLE BOEING FIELD WA US,6.1,47.53028,-122.30083,2016-09-23 15:29,FM-16,SCT:04 26 SCT:04 47,10.00,,64,17.8,57,13.8,51,10.6,63,18,180,26,29.99,,,,,30.02,,,,,,,,,,0558,1803,,,,,,,,,,,,,,,,,,,,,,,,,,,,,,,,,,,,,,,,,,,-9999,-9999,,-9999,-9999,,,,,,,9/23/16 23:20,False
WBAN:24234,SEATTLE BOEING FIELD WA US,6.1,47.53028,-122.30083,2017-05-22 14:53,FM-15,CLR:00,10.00,,80,26.7,64,18.0,54,12.2,41,7,320,,30.03,,,30.06,0.00,30.06,,,,,,,,,,0424,1948,,,,,,,,,,,,,,,,,,,,,,,,,,,,,,,,,,,,,,,,,,,-9999,-9999,,-9999,-9999,,,,,,,5/22/17 23:12,True
WBAN:24234,SEATTLE BOEING FIELD WA US,6.1,47.53028,-122.30083,2014-05-19 10:53,FM-15,BKN:07 70,10.00,,63,17.2,55,12.5,47,8.3,56,0,000,,29.99,,,30.02,0.00,30.02,,,,,,,,,,0427,1945,,,,,,,,,,,,,,,,,,,,,,,,,,,,,,,,,,,,,,,,,,,-9999,-9999,,-9999,-9999,,,,,,,5/19/14 19:03,False
WBAN:24234,SEATTLE BOEING FIELD WA US,6.1,47.53028,-122.30083,2017-01-05 17:53,FM-15,CLR:00,10.00,,30,-1.1,27,-3.0,20,-6.7,66,3,140,,30.19,,,30.22,0.00,30.22,,,,,,,,,,0757,1634,,,,,,,,,,,,,,,,,,,,,,,,,,,,,,,,,,,,,,,,,,,-9999,-9999,,-9999,-9999,,,,,,,1/6/17 1:10,True
WBAN:24234,SEATTLE BOEING FIELD WA US,6.1,47.53028,-122.30083,2014-07-08 13:53,FM-15,CLR:00,10.00,,83,28.3,66,18.9,55,12.8,38,10,310,16,29.98,,,30.01,0.00,30.01,,,,,,,,,,0421,2007,,,,,,,,,,,,,,,,,,,,,,,,,,,,,,,,,,,,,,,,,,,-9999,-9999,,-9999,-9999,,,,,,,7/8/14 22:05,True
WBAN:24234,SEATTLE BOEING FIELD WA US,6.1,47.53028,-122.30083,2015-01-15 11:53,FM-15,BKN:07 48 OVC:08 60,10.00,,45,7.2,40,4.4,33,0.6,63,0,000,,30.05,,,30.08,0.00,30.08,,,,,,,,,,0753,1645,,,,,,,,,,,,,,,,,,,,,,,,,,,,,,,,,,,,,,,,,,,-9999,-9999,,-9999,-9999,,,,,,,1/15/15 19:54,False
WBAN:24234,SEATTLE BOEING FIELD WA US,6.1,47.53028,-122.30083,2015-01-30 15:51,FM-16,FEW:02 3,10.00,,48,9.0,44,6.6,39,4.0,71,0,000,,30.25,,,,,30.28,,,,,,,,,,0738,1707,,,,,,,,,,,,,,,,,,,,,,,,,,,,,,,,,,,,,,,,,,,-9999,-9999,,-9999,-9999,,,,,,,1/30/15 23:10,True
WBAN:24234,SEATTLE BOEING FIELD WA US,6.1,47.53028,-122.30083,2016-01-01 15:53,FM-15,CLR:00,10.00,,43,6.1,38,3.2,30,-1.1,60,5,310,,30.29,6,,30.32,0.00,30.32,,,,,,,,,,0757,1629,,,,,,,,,,,,,,,,,,,,,,,,,,,,,,,,,,,,,,,,,,,-9999,-9999,,-9999,-9999,,,,,,,1/1/16 23:33,True
WBAN:24234,SEATTLE BOEING FIELD WA US,6.1,47.53028,-122.30083,2016-06-07 20:53,FM-15,FEW:02 80 OVC:08 180,10.00,,71,21.7,58,14.3,47,8.3,42,6,340,,29.74,,,29.77,0.00,29.77,,,,,,,,,,0412,2005,,,,,,,,,,,,,,,,,,,,,,,,,,,,,,,,,,,,,,,,,,,-9999,-9999,,-9999,-9999,,,,,,,6/8/16 4:43,True
WBAN:24234,SEATTLE BOEING FIELD WA US,6.1,47.53028,-122.30083,2017-10-03 17:53,FM-15,CLR:00,10.00,,62,16.7,51,10.8,41,5.0,46,5,350,,30.15,,,30.19,0.00,30.18,,,,,,,,,,0612,1743,,,,,,,,,,,,,,,,,,,,,,,,,,,,,,,,,,,,,,,,,,,-9999,-9999,,-9999,-9999,,,,,,,10/4/17 2:19,True
WBAN:24234,SEATTLE BOEING FIELD WA US,6.1,47.53028,-122.30083,2014-05-24 07:53,FM-15,BKN:07 20,10.00,,58,14.4,53,11.8,49,9.4,72,7,180,,30.16,,,30.19,0.00,30.19,,,,,,,,,,0422,1950,,,,,,,,,,,,,,,,,,,,,,,,,,,,,,,,,,,,,,,,,,,-9999,-9999,,-9999,-9999,,,,,,,5/24/14 16:05,False
WBAN:24234,SEATTLE BOEING FIELD WA US,6.1,47.53028,-122.30083,2014-05-22 13:53,FM-15,FEW:02 80 SCT:04 150 BKN:07 210,10.00,,75,23.9,62,16.8,53,11.7,46,6,320,,30.01,,,30.04,0.00,30.04,,,,,,,,,,0424,1948,,,,,,,,,,,,,,,,,,,,,,,,,,,,,,,,,,,,,,,,,,,-9999,-9999,,-9999,-9999,,,,,,,5/22/14 22:06,True
WBAN:24234,SEATTLE BOEING FIELD WA US,6.1,47.53028,-122.30083,2016-08-31 09:53,FM-15,SCT:04 19 BKN:07 42 OVC:08 80,10.00,,66,18.9,59,15.1,54,12.2,65,8,180,,29.95,3,,29.98,0.00,29.98,,,,,,,,,,0528,1850,,,,,,,,,,,,,,,,,,,,,,,,,,,,,,,,,,,,,,,,,,,-9999,-9999,,-9999,-9999,,,,,,,8/31/16 17:52,False
WBAN:24234,SEATTLE BOEING FIELD WA US,6.1,47.53028,-122.30083,2014-09-02 10:53,FM-15,BKN:07 30 OVC:08 35,10.00,,69,20.6,61,16.3,56,13.3,63,10,160,,29.86,,,29.89,0.00,29.89,,,,,,,,,,0529,1848,,,,,,,,,,,,,,,,,,,,,,,,,,,,,,,,,,,,,,,,,,,-9999,-9999,,-9999,-9999,,,,,,,9/2/14 19:08,False
WBAN:24234,SEATTLE BOEING FIELD WA US,6.1,47.53028,-122.30083,2014-06-24 07:53,FM-15,SCT:04 14 OVC:08 21,10.00,,61,16.1,57,13.9,54,12.2,78,3,190,,30.08,,,30.12,0.00,30.11,,,,,,,,,,0412,2011,,,,,,,,,,,,,,,,,,,,,,,,,,,,,,,,,,,,,,,,,,,-9999,-9999,,-9999,-9999,,,,,,,6/24/14 16:05,False
WBAN:24234,SEATTLE BOEING FIELD WA US,6.1,47.53028,-122.30083,2014-05-15 06:53,FM-15,BKN:07 220,10.00,,65,18.3,57,14.0,51,10.6,61,0,000,,30.03,8,,30.06,0.00,30.06,,,,,,,,,,0432,1940,,,,,,,,,,,,,,,,,,,,,,,,,,,,,,,,,,,,,,,,,,,-9999,-9999,,-9999,-9999,,,,,,,5/15/14 16:02,True
WBAN:24234,SEATTLE BOEING FIELD WA US,6.1,47.53028,-122.30083,2016-11-11 07:53,FM-15,BKN:07 140,10.00,,53,11.7,52,11.1,51,10.6,93,5,190,,29.94,,,29.97,0.00,29.97,,,,,,,,,,0710,1637,,,,,,,,,,,,,,,,,,,,,,,,,,,,,,,,,,,,,,,,,,,-9999,-9999,,-9999,-9999,,,,,,,11/11/16 16:17,True
WBAN:24234,SEATTLE BOEING FIELD WA US,6.1,47.53028,-122.30083,2014-11-02 07:53,FM-15,SCT:04 11,10.00,,50,10.0,48,8.6,45,7.2,83,7,130,,30.11,,,30.14,0.00,30.14,,,,,,,,,,0654,1650,,,,,,,,,,,,,,,,,,,,,,,,,,,,,,,,,,,,,,,,,,,-9999,-9999,,-9999,-9999,,,,,,,11/2/14 16:06,False
WBAN:24234,SEATTLE BOEING FIELD WA US,6.1,47.53028,-122.30083,2017-06-21 19:53,FM-15,CLR:00,10.00,,62,16.7,54,12.0,46,7.8,56,5,360,,30.24,,,30.27,0.00,30.27,,,,,,,,,,0412,2010,,,,,,,,,,,,,,,,,,,,,,,,,,,,,,,,,,,,,,,,,,,-9999,-9999,,-9999,-9999,,,,,,,6/22/17 2:31,True
WBAN:24234,SEATTLE BOEING FIELD WA US,6.1,47.53028,-122.30083,2016-09-19 11:53,FM-15,SCT:04 25 SCT:04 150,10.00,,66,18.9,58,14.3,51,10.6,59,16,170,28,30.05,,,30.09,0.00,30.08,,,,,,,,,,0553,1811,,,,,,,,,,,,,,,,,,,,,,,,,,,,,,,,,,,,,,,,,,,-9999,-9999,,-9999,-9999,,,,,,,9/19/16 19:25,False
WBAN:24234,SEATTLE BOEING FIELD WA US,6.1,47.53028,-122.30083,2017-04-29 10:53,FM-15,BKN:07 100,10.00,,52,11.1,48,8.7,43,6.1,72,8,200,,30.22,,,30.25,0.00,30.25,,,,,,,,,,0456,1918,,,,,,,,,,,,,,,,,,,,,,,,,,,,,,,,,,,,,,,,,,,-9999,-9999,,-9999,-9999,,,,,,,4/29/17 18:53,True
WBAN:24234,SEATTLE BOEING FIELD WA US,6.1,47.53028,-122.30083,2016-12-22 07:53,FM-15,SCT:04 140 OVC:08 200,10.00,,36,2.2,35,1.5,33,0.6,89,0,000,,29.87,,,29.90,0.00,29.90,,,,,,,,,,0755,1621,,,,,,,,,,,,,,,,,,,,,,,,,,,,,,,,,,,,,,,,,,,-9999,-9999,,-9999,-9999,,,,,,,12/22/16 16:08,True
WBAN:24234,SEATTLE BOEING FIELD WA US,6.1,47.53028,-122.30083,2017-08-29 13:53,FM-15,CLR:00,10.00,,85,29.4,68,20.0,58,14.4,40,8,220,,29.81,,,29.85,0.00,29.84,,,,,,,,,,0524,1856,,,,,,,,,,,,,,,,,,,,,,,,,,,,,,,,,,,,,,,,,,,-9999,-9999,,-9999,-9999,,,,,,,8/29/17 21:52,False
WBAN:24234,SEATTLE BOEING FIELD WA US,6.1,47.53028,-122.30083,2016-03-22 14:53,FM-15,FEW:02 25 SCT:04 55 BKN:07 75,8.00,-RA:02 |RA:61 |,53,11.7,49,9.7,46,7.8,77,8,190,,30.08,,,30.11,0.01,30.11,,,,,,,,,,0606,1826,,,,,,,,,,,,,,,,,,,,,,,,,,,,,,,,,,,,,,,,,,,-9999,-9999,,-9999,-9999,,,,,,,3/22/16 22:32,False
WBAN:24234,SEATTLE BOEING FIELD WA US,6.1,47.53028,-122.30083,2016-01-29 13:53,FM-15,FEW:02 12 SCT:04 27 BKN:07 120,10.00,,50,10.0,45,7.4,40,4.4,68,13,190,21,29.69,,,29.72,0.00,29.72,,,,,,,,,,0740,1706,,,,,,,,,,,,,,,,,,,,,,,,,,,,,,,,,,,,,,,,,,,-9999,-9999,,-9999,-9999,,,,,,,1/29/16 21:33,False
WBAN:24234,SEATTLE BOEING FIELD WA US,6.1,47.53028,-122.30083,2017-06-30 16:53,FM-15,SCT:04 250,10.00,,82,27.8,65,18.1,53,11.7,37,8,310,,29.91,,,29.94,0.00,29.94,,,,,,,,,,0416,2010,,,,,,,,,,,,,,,,,,,,,,,,,,,,,,,,,,,,,,,,,,,-9999,-9999,,-9999,-9999,,,,,,,7/1/17 1:04,False
WBAN:24234,SEATTLE BOEING FIELD WA US,6.1,47.53028,-122.30083,2016-02-22 12:53,FM-15,SCT:04 22 BKN:07 28,10.00,,48,8.9,44,6.6,39,3.9,71,5,220,,30.40,0,,30.43,0.00,30.43,,,,,,,,,,0703,1743,,,,,,,,,,,,,,,,,,,,,,,,,,,,,,,,,,,,,,,,,,,-9999,-9999,,-9999,-9999,,,,,,,2/22/16 21:22,False
WBAN:24234,SEATTLE BOEING FIELD WA US,6.1,47.53028,-122.30083,2014-09-09 07:53,FM-15,SCT:04 15 OVC:08 22,10.00,,59,15.0,55,12.6,51,10.6,75,6,190,,30.06,,,30.09,0.00,30.09,,,,,,,,,,0538,1834,,,,,,,,,,,,,,,,,,,,,,,,,,,,,,,,,,,,,,,,,,,-9999,-9999,,-9999,-9999,,,,,,,9/9/14 16:07,False
WBAN:24234,SEATTLE BOEING FIELD WA US,6.1,47.53028,-122.30083,2016-06-03 15:53,FM-15,FEW:02 80,10.00,,80,26.7,64,17.5,52,11.1,38,9,300,,30.16,8,,30.19,0.00,30.19,,,,,,,,,,0414,2001,,,,,,,,,,,,,,,,,,,,,,,,,,,,,,,,,,,,,,,,,,,-9999,-9999,,-9999,-9999,,,,,,,6/3/16 23:46,True
WBAN:24234,SEATTLE BOEING FIELD WA US,6.1,47.53028,-122.30083,2016-02-18 15:53,FM-15,SCT:04 40 BKN:07 60,10.00,,51,10.6,45,7.4,39,3.9,64,9,210,,29.44,3,,29.47,0.00,29.47,,,,,,,,,,0710,1737,,,,,,,,,,,,,,,,,,,,,,,,,,,,,,,,,,,,,,,,,,,-9999,-9999,,-9999,-9999,,,,,,,2/18/16 23:02,False
WBAN:24234,SEATTLE BOEING FIELD WA US,6.1,47.53028,-122.30083,2014-08-21 14:53,FM-15,SCT:04 100,10.00,,71,21.7,60,15.4,51,10.6,49,6,170,,29.96,,,29.99,0.00,29.99,,,,,,,,,,0513,1911,,,,,,,,,,,,,,,,,,,,,,,,,,,,,,,,,,,,,,,,,,,-9999,-9999,,-9999,-9999,,,,,,,8/21/14 23:11,True
WBAN:24234,SEATTLE BOEING FIELD WA US,6.1,47.53028,-122.30083,2015-03-11 16:53,FM-15,SCT:04 40 OVC:08 50,10.00,,60,15.6,54,12.0,48,8.9,65,8,170,,29.98,,,30.01,T,30.01,,,,,,,,,,0629,1810,,,,,,,,,,,,,,,,,,,,,,,,,,,,,,,,,,,,,,,,,,,-9999,-9999,,-9999,-9999,,,,,,,3/12/15 1:10,False
WBAN:24234,SEATTLE BOEING FIELD WA US,6.1,47.53028,-122.30083,2014-12-11 13:53,FM-15,OVC:08 60,6.00,-RA:02 BR:1 |RA:61 |,51,10.6,49,9.7,48,8.9,89,6,170,,29.16,,,29.19,0.13,29.19,,,,,,,,,,0747,1618,,,,,,,,,,,,,,,,,,,,,,,,,,,,,,,,,,,,,,,,,,,-9999,-9999,,-9999,-9999,,,,,,,12/11/14 21:46,False
WBAN:24234,SEATTLE BOEING FIELD WA US,6.1,47.53028,-122.30083,2016-07-31 19:53,FM-15,CLR:00,10.00,,69,20.6,59,15.2,52,11.1,55,0,000,,30.00,,,30.03,0.00,30.03,,,,,,,,,,0448,1942,,,,,,,,,,,,,,,,,,,,,,,,,,,,,,,,,,,,,,,,,,,-9999,-9999,,-9999,-9999,,,,,,,8/1/16 3:18,True
WBAN:24234,SEATTLE BOEING FIELD WA US,6.1,47.53028,-122.30083,2017-10-27 09:53,FM-15,CLR:00,10.00,,54,12.2,51,10.5,48,8.9,80,0,000,,30.18,0,,30.21,0.00,30.21,,,,,,,,,,0645,1700,,,,,,,,,,,,,,,,,,,,,,,,,,,,,,,,,,,,,,,,,,,-9999,-9999,,-9999,-9999,,,,,,,10/27/17 16:41,True
WBAN:24234,SEATTLE BOEING FIELD WA US,6.1,47.53028,-122.30083,2014-06-19 14:53,FM-15,FEW:02 30,10.00,,77,25.0,62,16.4,50,10.0,39,9,200,,29.93,,,29.96,0.00,29.96,,,,,,,,,,0411,2010,,,,,,,,,,,,,,,,,,,,,,,,,,,,,,,,,,,,,,,,,,,-9999,-9999,,-9999,-9999,,,,,,,6/19/14 22:30,True
WBAN:24234,SEATTLE BOEING FIELD WA US,6.1,47.53028,-122.30083,2016-04-06 14:53,FM-15,BKN:07 250,10.00,,66,18.9,53,11.6,40,4.4,39,9,310,,30.27,,,30.30,0.00,30.30,,,,,,,,,,0536,1847,,,,,,,,,,,,,,,,,,,,,,,,,,,,,,,,,,,,,,,,,,,-9999,-9999,,-9999,-9999,,,,,,,4/6/16 22:43,True
WBAN:24234,SEATTLE BOEING FIELD WA US,6.1,47.53028,-122.30083,2014-05-27 13:53,FM-15,SCT:04 55,10.00,,66,18.9,52,11.2,38,3.3,36,7,240,,30.09,,,30.12,0.00,30.12,,,,,,,,,,0420,1954,,,,,,,,,,,,,,,,,,,,,,,,,,,,,,,,,,,,,,,,,,,-9999,-9999,,-9999,-9999,,,,,,,5/27/14 22:05,False
WBAN:24234,SEATTLE BOEING FIELD WA US,6.1,47.53028,-122.30083,2016-06-06 13:53,FM-15,FEW:02 200,10.00,,84,28.9,65,18.3,52,11.1,33,8,320,,29.86,,,29.89,0.00,29.89,,,,,,,,,,0413,2004,,,,,,,,,,,,,,,,,,,,,,,,,,,,,,,,,,,,,,,,,,,-9999,-9999,,-9999,-9999,,,,,,,6/6/16 21:43,True
WBAN:24234,SEATTLE BOEING FIELD WA US,6.1,47.53028,-122.30083,2014-05-03 07:53,FM-15,SCT:04 47 BKN:07 65 OVC:08 95,10.00,-RA:02 |RA:61 |,56,13.3,50,10.2,45,7.2,67,8,210,16,29.86,,,29.88,T,29.89,,,,,,,,,,0449,1924,,,,,,,,,,,,,,,,,,,,,,,,,,,,,,,,,,,,,,,,,,,-9999,-9999,,-9999,-9999,,,,,,,5/3/14 16:15,False
WBAN:24234,SEATTLE BOEING FIELD WA US,6.1,47.53028,-122.30083,2014-08-08 07:53,FM-15,SCT:04 20,10.00,,65,18.3,58,14.3,52,11.1,63,6,130,,30.08,,,30.12,0.00,30.11,,,,,,,,,,0456,1933,,,,,,,,,,,,,,,,,,,,,,,,,,,,,,,,,,,,,,,,,,,-9999,-9999,,-9999,-9999,,,,,,,8/8/14 16:04,False
WBAN:24234,SEATTLE BOEING FIELD WA US,6.1,47.53028,-122.30083,2016-03-18 07:53,FM-15,SCT:04 250,10.00,,49,9.4,39,4.1,25,-3.9,39,3,360,,30.05,,,30.09,0.00,30.08,,,,,,,,,,0614,1820,,,,,,,,,,,,,,,,,,,,,,,,,,,,,,,,,,,,,,,,,,,-9999,-9999,,-9999,-9999,,,,,,,3/18/16 15:46,True
WBAN:24234,SEATTLE BOEING FIELD WA US,6.1,47.53028,-122.30083,2016-02-23 09:53,FM-15,CLR:00,10.00,,49,9.4,42,5.8,34,1.1,56,6,020,,30.22,8,,30.25,0.00,30.25,,,,,,,,,,0701,1745,,,,,,,,,,,,,,,,,,,,,,,,,,,,,,,,,,,,,,,,,,,-9999,-9999,,-9999,-9999,,,,,,,2/23/16 16:33,True
WBAN:24234,SEATTLE BOEING FIELD WA US,6.1,47.53028,-122.30083,2014-06-09 13:53,FM-15,FEW:02 40 BKN:07 65,10.00,,68,20.0,56,13.4,46,7.8,45,9,290,,30.10,,,30.13,0.00,30.13,,,,,,,,,,0412,2005,,,,,,,,,,,,,,,,,,,,,,,,,,,,,,,,,,,,,,,,,,,-9999,-9999,,-9999,-9999,,,,,,,6/9/14 22:05,False
WBAN:24234,SEATTLE BOEING FIELD WA US,6.1,47.53028,-122.30083,2014-06-01 07:53,FM-15,OVC:08 19,10.00,,59,15.0,54,12.1,49,9.4,69,5,190,,30.09,,,30.12,0.00,30.12,,,,,,,,,,0416,1959,,,,,,,,,,,,,,,,,,,,,,,,,,,,,,,,,,,,,,,,,,,-9999,-9999,,-9999,-9999,,,,,,,6/1/14 16:05,False
WBAN:24234,SEATTLE BOEING FIELD WA US,6.1,47.53028,-122.30083,2017-09-27 14:53,FM-15,CLR:00,10.00,,76,24.4,63,17.2,54,12.2,47,8,310,,29.98,,,30.01,0.00,30.01,,,,,,,,,,0603,1757,,,,,,,,,,,,,,,,,,,,,,,,,,,,,,,,,,,,,,,,,,,-9999,-9999,,-9999,-9999,,,,,,,9/27/17 22:41,True
WBAN:24234,SEATTLE BOEING FIELD WA US,6.1,47.53028,-122.30083,2017-10-18 11:53,FM-15,FEW:02 35 BKN:07 46 OVC:08 85,9.00,-RA:02 |RA:61 |,55,12.8,54,12.2,53,11.7,93,17,150,,29.70,,,29.73,0.04,29.73,,,,,,,,,,0632,1716,,,,,,,,,,,,,,,,,,,,,,,,,,,,,,,,,,,,,,,,,,,-9999,-9999,,-9999,-9999,,,,,,,10/18/17 19:36,False
WBAN:24234,SEATTLE BOEING FIELD WA US,6.1,47.53028,-122.30083,2014-10-18 10:53,FM-15,BKN:07 22 OVC:08 29,10.00,,62,16.7,59,15.1,57,13.9,84,8,170,,29.93,,,29.96,0.01,29.96,,,,,,,,,,0632,1716,,,,,,,,,,,,,,,,,,,,,,,,,,,,,,,,,,,,,,,,,,,-9999,-9999,,-9999,-9999,,,,,,,10/18/14 19:03,False
WBAN:24234,SEATTLE BOEING FIELD WA US,6.1,47.53028,-122.30083,2018-01-03 16:53,FM-15,CLR:00,10.00,,44,6.7,41,5.0,37,2.8,76,5,320,,30.06,,,30.09,0.00,30.09,,,,,,,,,,0757,1632,,,,,,,,,,,,,,,,,,,,,,,,,,,,,,,,,,,,,,,,,,,-9999,-9999,,-9999,-9999,,,,,,,1/4/18 0:37,True
WBAN:24234,SEATTLE BOEING FIELD WA US,6.1,47.53028,-122.30083,2016-06-26 12:53,FM-15,FEW:02 70,10.00,,74,23.3,64,17.7,57,13.9,56,8,300,,30.13,8,,30.16,0.00,30.16,,,,,,,,,,0414,2011,,,,,,,,,,,,,,,,,,,,,,,,,,,,,,,,,,,,,,,,,,,-9999,-9999,,-9999,-9999,,,,,,,6/26/16 21:31,True
WBAN:24234,SEATTLE BOEING FIELD WA US,6.1,47.53028,-122.30083,2016-01-22 13:53,FM-15,BKN:07 19 BKN:07 32,10.00,,56,13.3,50,10.2,45,7.2,67,13,180,,29.87,,,29.90,T,29.90,,,,,,,,,,0747,1655,,,,,,,,,,,,,,,,,,,,,,,,,,,,,,,,,,,,,,,,,,,-9999,-9999,,-9999,-9999,,,,,,,1/22/16 21:54,False
WBAN:24234,SEATTLE BOEING FIELD WA US,6.1,47.53028,-122.30083,2014-05-06 15:53,FM-15,SCT:04 40 BKN:07 90,10.00,,63,17.2,53,11.8,44,6.7,50,9,260,,29.97,8,,30.00,0.00,30.00,,,,,,,,,,0445,1928,,,,,,,,,,,,,,,,,,,,,,,,,,,,,,,,,,,,,,,,,,,-9999,-9999,,-9999,-9999,,,,,,,5/7/14 0:36,False
WBAN:24234,SEATTLE BOEING FIELD WA US,6.1,47.53028,-122.30083,2015-02-23 09:53,FM-15,FEW:02 200,10.00,,46,7.8,40,4.7,33,0.6,61,0,000,,30.41,1,,30.44,0.00,30.44,,,,,,,,,,0701,1745,,,,,,,,,,,,,,,,,,,,,,,,,,,,,,,,,,,,,,,,,,,-9999,-9999,,-9999,-9999,,,,,,,2/23/15 17:47,True
WBAN:24234,SEATTLE BOEING FIELD WA US,6.1,47.53028,-122.30083,2014-07-05 14:53,FM-15,OVC:08 65,10.00,,73,22.8,60,15.3,49,9.4,43,5,350,,30.11,,,30.14,T,30.14,,,,,,,,,,0418,2009,,,,,,,,,,,,,,,,,,,,,,,,,,,,,,,,,,,,,,,,,,,-9999,-9999,,-9999,-9999,,,,,,,7/5/14 22:57,False
WBAN:24234,SEATTLE BOEING FIELD WA US,6.1,47.53028,-122.30083,2016-12-31 09:53,FM-15,SCT:04 7 BKN:07 22 OVC:08 40,10.00,,32,0.0,31,-0.4,30,-1.1,92,9,140,,30.10,6,,30.13,0.00,30.13,,,,,,,,,,0757,1628,,,,,,,,,,,,,,,,,,,,,,,,,,,,,,,,,,,,,,,,,,,-9999,-9999,,-9999,-9999,,,,,,,12/31/16 17:32,False
WBAN:24234,SEATTLE BOEING FIELD WA US,6.1,47.53028,-122.30083,2014-12-01 14:53,FM-15,SCT:04 250,10.00,,41,5.0,34,1.1,22,-5.6,47,0,000,,30.13,,,30.17,0.00,30.16,,,,,,,,,,0736,1620,,,,,,,,,,,,,,,,,,,,,,,,,,,,,,,,,,,,,,,,,,,-9999,-9999,,-9999,-9999,,,,,,,12/1/14 22:39,True
WBAN:24234,SEATTLE BOEING FIELD WA US,6.1,47.53028,-122.30083,2014-06-23 11:53,FM-15,FEW:02 120 BKN:07 230,10.00,,77,25.0,61,16.1,49,9.4,37,5,290,,29.97,,,30.00,0.00,30.00,,,,,,,,,,0412,2011,,,,,,,,,,,,,,,,,,,,,,,,,,,,,,,,,,,,,,,,,,,-9999,-9999,,-9999,-9999,,,,,,,6/23/14 19:50,True
WBAN:24234,SEATTLE BOEING FIELD WA US,6.1,47.53028,-122.30083,2017-06-24 08:53,FM-15,CLR:00,10.00,,75,23.9,62,16.5,52,11.1,45,9,340,,30.10,,,30.13,0.00,30.13,,,,,,,,,,0412,2011,,,,,,,,,,,,,,,,,,,,,,,,,,,,,,,,,,,,,,,,,,,-9999,-9999,,-9999,-9999,,,,,,,6/24/17 16:43,True
WBAN:24234,SEATTLE BOEING FIELD WA US,6.1,47.53028,-122.30083,2014-06-30 16:53,FM-15,CLR:00,10.00,,76,24.4,62,16.4,51,10.6,42,8,320,,30.05,,,30.08,0.00,30.08,,,,,,,,,,0416,2010,,,,,,,,,,,,,,,,,,,,,,,,,,,,,,,,,,,,,,,,,,,-9999,-9999,,-9999,-9999,,,,,,,7/1/14 1:10,True
WBAN:24234,SEATTLE BOEING FIELD WA US,6.1,47.53028,-122.30083,2017-08-19 16:53,FM-15,SCT:04 200,10.00,,75,23.9,62,16.5,52,11.1,45,6,290,,30.11,,,30.14,0.00,30.14,,,,,,,,,,0512,1913,,,,,,,,,,,,,,,,,,,,,,,,,,,,,,,,,,,,,,,,,,,-9999,-9999,,-9999,-9999,,,,,,,8/20/17 0:41,True
WBAN:24234,SEATTLE BOEING FIELD WA US,6.1,47.53028,-122.30083,2016-02-12 10:56,FM-16,FEW:02 4 BKN:07 41 BKN:07 70,10.00,,55,12.8,54,12.5,54,12.2,96,9,170,,30.06,,,,T,30.09,,,,,,,,,,0720,1728,,,,,,,,,,,,,,,,,,,,,,,,,,,,,,,,,,,,,,,,,,,-9999,-9999,,-9999,-9999,,,,,,,2/12/16 19:23,False
WBAN:24234,SEATTLE BOEING FIELD WA US,6.1,47.53028,-122.30083,2014-06-02 14:53,FM-15,FEW:02 40,10.00,,76,24.4,63,17.2,54,12.2,47,0,000,,29.84,,,29.87,0.00,29.87,,,,,,,,,,0415,1959,,,,,,,,,,,,,,,,,,,,,,,,,,,,,,,,,,,,,,,,,,,-9999,-9999,,-9999,-9999,,,,,,,6/2/14 23:04,True
WBAN:24234,SEATTLE BOEING FIELD WA US,6.1,47.53028,-122.30083,2016-05-10 09:53,FM-15,CLR:00,10.00,,63,17.2,54,12.3,46,7.8,54,5,310,,30.23,8,,30.26,0.00,30.26,,,,,,,,,,0437,1934,,,,,,,,,,,,,,,,,,,,,,,,,,,,,,,,,,,,,,,,,,,-9999,-9999,,-9999,-9999,,,,,,,5/10/16 18:10,True
WBAN:24234,SEATTLE BOEING FIELD WA US,6.1,47.53028,-122.30083,2014-07-16 13:53,FM-15,CLR:00,10.00,,85,29.4,67,19.2,55,12.8,36,8,300,,29.93,,,29.96,0.00,29.96,,,,,,,,,,0428,2002,,,,,,,,,,,,,,,,,,,,,,,,,,,,,,,,,,,,,,,,,,,-9999,-9999,,-9999,-9999,,,,,,,7/16/14 22:05,True
WBAN:24234,SEATTLE BOEING FIELD WA US,6.1,47.53028,-122.30083,2017-02-23 09:53,FM-15,SCT:04 17 OVC:08 24,10.00,,39,3.9,38,3.2,36,2.2,89,3,080,,30.25,1,,30.28,0.00,30.28,,,,,,,,,,0701,1745,,,,,,,,,,,,,,,,,,,,,,,,,,,,,,,,,,,,,,,,,,,-9999,-9999,,-9999,-9999,,,,,,,2/23/17 18:19,False
WBAN:24234,SEATTLE BOEING FIELD WA US,6.1,47.53028,-122.30083,2014-12-29 15:53,FM-15,CLR:00,10.00,,44,6.7,36,2.2,23,-5.0,43,7,350,,30.49,3,,30.52,0.00,30.52,,,,,,,,,,0757,1626,,,,,,,,,,,,,,,,,,,,,,,,,,,,,,,,,,,,,,,,,,,-9999,-9999,,-9999,-9999,,,,,,,12/30/14 0:16,False
WBAN:24234,SEATTLE BOEING FIELD WA US,6.1,47.53028,-122.30083,2014-08-25 11:53,FM-15,CLR:00,10.00,,78,25.6,64,17.9,55,12.8,45,7,310,,29.97,,,30.01,0.00,30.00,,,,,,,,,,0518,1903,,,,,,,,,,,,,,,,,,,,,,,,,,,,,,,,,,,,,,,,,,,-9999,-9999,,-9999,-9999,,,,,,,8/25/14 19:15,False
WBAN:24234,SEATTLE BOEING FIELD WA US,6.1,47.53028,-122.30083,2014-10-12 11:53,FM-15,SCT:04 20 BKN:07 32,10.00,,64,17.8,58,14.4,53,11.7,68,7,170,,30.19,,,30.22,0.00,30.22,,,,,,,,,,0623,1727,,,,,,,,,,,,,,,,,,,,,,,,,,,,,,,,,,,,,,,,,,,-9999,-9999,,-9999,-9999,,,,,,,10/12/14 19:37,False
WBAN:24234,SEATTLE BOEING FIELD WA US,6.1,47.53028,-122.30083,2014-05-23 11:00,FM-16,SCT:04 12 BKN:07 60 BKN:07 70,10.00,,63,17.0,60,15.3,57,14.0,83,9,160,,30.03,,,,T,30.06,,,,,,,,,,0423,1949,,,,,,,,,,,,,,,,,,,,,,,,,,,,,,,,,,,,,,,,,,,-9999,-9999,,-9999,-9999,,,,,,,5/23/14 19:05,False
WBAN:24234,SEATTLE BOEING FIELD WA US,6.1,47.53028,-122.30083,2014-10-02 13:53,FM-15,FEW:02 30 SCT:04 120,10.00,,67,19.4,55,12.7,44,6.7,44,8,300,,30.25,,,30.28,0.00,30.28,,,,,,,,,,0609,1747,,,,,,,,,,,,,,,,,,,,,,,,,,,,,,,,,,,,,,,,,,,-9999,-9999,,-9999,-9999,,,,,,,10/2/14 21:45,False
WBAN:24234,SEATTLE BOEING FIELD WA US,6.1,47.53028,-122.30083,2017-07-31 20:53,FM-15,CLR:00,10.00,,75,23.9,64,17.6,56,13.3,52,0,000,,30.12,,,30.15,0.00,30.15,,,,,,,,,,0447,1944,,,,,,,,,,,,,,,,,,,,,,,,,,,,,,,,,,,,,,,,,,,-9999,-9999,,-9999,-9999,,,,,,,8/1/17 4:33,True
WBAN:24234,SEATTLE BOEING FIELD WA US,6.1,47.53028,-122.30083,2016-07-24 08:53,FM-15,CLR:00,10.00,,67,19.4,60,15.3,54,12.2,63,7,300,,30.10,,,30.13,0.00,30.13,,,,,,,,,,0438,1953,,,,,,,,,,,,,,,,,,,,,,,,,,,,,,,,,,,,,,,,,,,-9999,-9999,,-9999,-9999,,,,,,,7/24/16 17:15,True
WBAN:24234,SEATTLE BOEING FIELD WA US,6.1,47.53028,-122.30083,2014-07-09 17:53,FM-15,CLR:00,10.00,,81,27.2,66,18.8,56,13.3,42,6,280,,29.89,,,29.92,0.00,29.92,,,,,,,,,,0422,2006,,,,,,,,,,,,,,,,,,,,,,,,,,,,,,,,,,,,,,,,,,,-9999,-9999,,-9999,-9999,,,,,,,7/10/14 1:39,True
WBAN:24234,SEATTLE BOEING FIELD WA US,6.1,47.53028,-122.30083,2014-07-01 11:53,FM-15,FEW:02 250,10.00,,84,28.9,66,18.8,54,12.2,36,7,320,,29.81,,,29.84,0.00,29.84,,,,,,,,,,0416,2010,,,,,,,,,,,,,,,,,,,,,,,,,,,,,,,,,,,,,,,,,,,-9999,-9999,,-9999,-9999,,,,,,,7/1/14 19:39,True
WBAN:24234,SEATTLE BOEING FIELD WA US,6.1,47.53028,-122.30083,2014-12-12 10:53,FM-15,SCT:04 35,10.00,,53,11.7,49,9.4,45,7.2,74,6,160,,29.78,,,29.81,0.00,29.81,,,,,,,,,,0748,1618,,,,,,,,,,,,,,,,,,,,,,,,,,,,,,,,,,,,,,,,,,,-9999,-9999,,-9999,-9999,,,,,,,12/12/14 19:43,False
WBAN:24234,SEATTLE BOEING FIELD WA US,6.1,47.53028,-122.30083,2014-07-07 13:53,FM-15,FEW:02 30,10.00,,79,26.1,67,19.5,60,15.6,52,8,280,,30.05,,,30.08,0.00,30.08,,,,,,,,,,0420,2008,,,,,,,,,,,,,,,,,,,,,,,,,,,,,,,,,,,,,,,,,,,-9999,-9999,,-9999,-9999,,,,,,,7/7/14 18:56,False
WBAN:24234,SEATTLE BOEING FIELD WA US,6.1,47.53028,-122.30083,2017-12-08 06:53,FM-15,VV:09 1,0.25,FG:2 |FG:30 |,32,0.0,32,0.0,32,0.0,100,5,150,,30.50,8,,30.53,0.00,30.53,,,,,,,,,,0744,1618,,,,,,,,,,,,,,,,,,,,,,,,,,,,,,,,,,,,,,,,,,,-9999,-9999,,-9999,-9999,,,,,,,12/8/17 16:22,True
WBAN:24234,SEATTLE BOEING FIELD WA US,6.1,47.53028,-122.30083,2016-11-02 12:53,FM-15,FEW:02 15 BKN:07 50 OVC:08 100,10.00,-RA:02 |RA:61 |,55,12.8,54,12.5,54,12.2,96,5,160,,29.97,8,,30.00,0.01,30.00,,,,,,,,,,0656,1649,,,,,,,,,,,,,,,,,,,,,,,,,,,,,,,,,,,,,,,,,,,-9999,-9999,,-9999,-9999,,,,,,,11/2/16 20:34,False
WBAN:24234,SEATTLE BOEING FIELD WA US,6.1,47.53028,-122.30083,2015-01-03 11:53,FM-15,BKN:07 8 BKN:07 60 OVC:08 150,3.00,HZ:7 |FU:05 |HZ:05,41,5.0,39,3.8,36,2.2,82,6,160,,30.25,,,30.28,0.00,30.28,,,,,,,,,,0757,1631,,,,,,,,,,,,,,,,,,,,,,,,,,,,,,,,,,,,,,,,,,,-9999,-9999,,-9999,-9999,,,,,,,1/3/15 20:05,False
WBAN:24234,SEATTLE BOEING FIELD WA US,6.1,47.53028,-122.30083,2014-06-29 11:53,FM-15,SCT:04 31 BKN:07 44 BKN:07 110,10.00,,68,20.0,59,14.7,51,10.6,55,7,170,,30.15,,,30.19,0.00,30.18,,,,,,,,,,0415,2010,,,,,,,,,,,,,,,,,,,,,,,,,,,,,,,,,,,,,,,,,,,-9999,-9999,,-9999,-9999,,,,,,,6/29/14 20:16,False
WBAN:24234,SEATTLE BOEING FIELD WA US,6.1,47.53028,-122.30083,2016-05-08 10:53,FM-15,SCT:04 28 OVC:08 35,10.00,,54,12.2,49,9.7,45,7.2,72,6,170,,29.96,,,29.99,0.00,29.99,,,,,,,,,,0440,1932,,,,,,,,,,,,,,,,,,,,,,,,,,,,,,,,,,,,,,,,,,,-9999,-9999,,-9999,-9999,,,,,,,5/8/16 19:06,True
WBAN:24234,SEATTLE BOEING FIELD WA US,6.1,47.53028,-122.30083,2017-10-24 09:53,FM-15,CLR:00,10.00,,54,12.2,51,10.5,48,8.9,80,7,320,,30.44,8,,30.47,0.00,30.47,,,,,,,,,,0641,1705,,,,,,,,,,,,,,,,,,,,,,,,,,,,,,,,,,,,,,,,,,,-9999,-9999,,-9999,-9999,,,,,,,10/24/17 17:14,True
WBAN:24234,SEATTLE BOEING FIELD WA US,6.1,47.53028,-122.30083,2015-01-04 10:53,FM-15,SCT:04 10 OVC:08 26,10.00,,43,6.1,41,5.1,39,3.9,86,8,150,,30.17,,,30.20,0.01,30.20,,,,,,,,,,0757,1632,,,,,,,,,,,,,,,,,,,,,,,,,,,,,,,,,,,,,,,,,,,-9999,-9999,,-9999,-9999,,,,,,,1/4/15 18:33,False
WBAN:24234,SEATTLE BOEING FIELD WA US,6.1,47.53028,-122.30083,2014-10-09 13:53,FM-15,FEW:02 10 BKN:07 250,7.00,,63,17.2,58,14.7,55,12.8,75,5,300,,30.00,,,30.03,0.00,30.03,,,,,,,,,,0619,1733,,,,,,,,,,,,,,,,,,,,,,,,,,,,,,,,,,,,,,,,,,,-9999,-9999,,-9999,-9999,,,,,,,10/9/14 21:34,False
WBAN:24234,SEATTLE BOEING FIELD WA US,6.1,47.53028,-122.30083,2016-02-16 13:53,FM-15,SCT:04 21 BKN:07 250,10.00,,56,13.3,52,11.0,48,8.9,75,8,210,,29.96,,,29.99,0.00,29.99,,,,,,,,,,0713,1734,,,,,,,,,,,,,,,,,,,,,,,,,,,,,,,,,,,,,,,,,,,-9999,-9999,,-9999,-9999,,,,,,,2/16/16 21:58,False
WBAN:24234,SEATTLE BOEING FIELD WA US,6.1,47.53028,-122.30083,2014-09-23 10:53,FM-15,FEW:02 75 OVC:08 100,10.00,-RA:02 |RA:61 |,66,18.9,62,16.6,59,15.0,78,8,110,,29.80,,,29.83,T,29.83,,,,,,,,,,0557,1805,,,,,,,,,,,,,,,,,,,,,,,,,,,,,,,,,,,,,,,,,,,-9999,-9999,,-9999,-9999,,,,,,,9/23/14 19:03,False
WBAN:24234,SEATTLE BOEING FIELD WA US,6.1,47.53028,-122.30083,2014-07-15 10:53,FM-15,CLR:00,10.00,,74,23.3,64,17.7,57,13.9,56,3,340,,30.05,,,30.08,0.00,30.08,,,,,,,,,,0427,2003,,,,,,,,,,,,,,,,,,,,,,,,,,,,,,,,,,,,,,,,,,,-9999,-9999,,-9999,-9999,,,,,,,7/15/14 20:07,False
WBAN:24234,SEATTLE BOEING FIELD WA US,6.1,47.53028,-122.30083,2014-07-26 07:53,FM-15,CLR:00,10.00,,66,18.9,57,14.0,50,10.0,56,3,050,,30.14,,,30.17,0.00,30.17,,,,,,,,,,0439,1951,,,,,,,,,,,,,,,,,,,,,,,,,,,,,,,,,,,,,,,,,,,-9999,-9999,,-9999,-9999,,,,,,,7/26/14 16:19,True
WBAN:24234,SEATTLE BOEING FIELD WA US,6.1,47.53028,-122.30083,2014-12-22 11:53,FM-15,BKN:07 39,10.00,,52,11.1,46,7.7,39,3.9,61,0,000,,30.33,,,30.36,0.00,30.36,,,,,,,,,,0755,1621,,,,,,,,,,,,,,,,,,,,,,,,,,,,,,,,,,,,,,,,,,,-9999,-9999,,-9999,-9999,,,,,,,12/22/14 20:08,True
WBAN:24234,SEATTLE BOEING FIELD WA US,6.1,47.53028,-122.30083,2014-09-21 16:53,FM-15,CLR:00,10.00,,79,26.1,65,18.4,56,13.3,45,7,160,,29.81,,,29.85,0.00,29.84,,,,,,,,,,0556,1807,,,,,,,,,,,,,,,,,,,,,,,,,,,,,,,,,,,,,,,,,,,-9999,-9999,,-9999,-9999,,,,,,,9/22/14 0:46,False
WBAN:24234,SEATTLE BOEING FIELD WA US,6.1,47.53028,-122.30083,2017-10-11 13:53,FM-15,BKN:07 40 BKN:07 50,10.00,,56,13.3,48,8.8,39,3.9,53,8,190,,29.99,,,30.02,0.00,30.02,,,,,,,,,,0622,1729,,,,,,,,,,,,,,,,,,,,,,,,,,,,,,,,,,,,,,,,,,,-9999,-9999,,-9999,-9999,,,,,,,10/11/17 21:47,False
WBAN:24234,SEATTLE BOEING FIELD WA US,6.1,47.53028,-122.30083,2015-01-21 15:53,FM-15,FEW:02 150 OVC:08 250,10.00,,48,8.9,43,6.1,37,2.8,66,0,000,,30.22,6,,30.25,0.00,30.25,,,,,,,,,,0748,1654,,,,,,,,,,,,,,,,,,,,,,,,,,,,,,,,,,,,,,,,,,,-9999,-9999,,-9999,-9999,,,,,,,1/22/15 0:16,True
WBAN:24234,SEATTLE BOEING FIELD WA US,6.1,47.53028,-122.30083,2017-12-13 08:53,FM-15,CLR:00,10.00,,40,4.4,38,3.1,34,1.1,79,5,040,,30.43,,,30.46,0.00,30.46,,,,,,,,,,0749,1618,,,,,,,,,,,,,,,,,,,,,,,,,,,,,,,,,,,,,,,,,,,-9999,-9999,,-9999,-9999,,,,,,,12/13/17 16:09,True
WBAN:24234,SEATTLE BOEING FIELD WA US,6.1,47.53028,-122.30083,2014-07-04 10:53,FM-15,SCT:04 30 SCT:04 250,10.00,,70,21.1,58,14.6,49,9.4,47,6,320,,30.00,,,30.03,0.00,30.03,,,,,,,,,,0418,2009,,,,,,,,,,,,,,,,,,,,,,,,,,,,,,,,,,,,,,,,,,,-9999,-9999,,-9999,-9999,,,,,,,7/4/14 19:05,True
WBAN:24234,SEATTLE BOEING FIELD WA US,6.1,47.53028,-122.30083,2015-01-17 15:08,FM-16,SCT:04 6 OVC:08 31,6.00,-RA:02 |RA:61 |,46,8.0,45,7.0,43,6.0,87,0,000,,29.81,,,,0.01,29.84,,,,,,,,,,0751,1648,,,,,,,,,,,,,,,,,,,,,,,,,,,,,,,,,,,,,,,,,,,-9999,-9999,,-9999,-9999,,,,,,,1/17/15 23:05,False
WBAN:24234,SEATTLE BOEING FIELD WA US,6.1,47.53028,-122.30083,2017-01-11 13:53,FM-15,BKN:07 65,10.00,,35,1.7,28,-2.1,14,-10.0,42,6,020,,29.85,,,29.88,0.00,29.88,,,,,,,,,,0755,1640,,,,,,,,,,,,,,,,,,,,,,,,,,,,,,,,,,,,,,,,,,,-9999,-9999,,-9999,-9999,,,,,,,1/11/17 21:35,False
WBAN:24234,SEATTLE BOEING FIELD WA US,6.1,47.53028,-122.30083,2016-01-06 10:53,FM-15,FEW:02 40 BKN:07 200,10.00,,46,7.8,44,6.5,41,5.0,83,0,000,,29.60,,,29.63,0.00,29.63,,,,,,,,,,0757,1634,,,,,,,,,,,,,,,,,,,,,,,,,,,,,,,,,,,,,,,,,,,-9999,-9999,,-9999,-9999,,,,,,,1/6/16 18:12,True
WBAN:24234,SEATTLE BOEING FIELD WA US,6.1,47.53028,-122.30083,2017-09-11 16:53,FM-15,CLR:00,10.00,,79,26.1,61,16.3,48,8.9,34,6,330,,30.00,,,30.03,0.00,30.03,,,,,,,,,,0542,1828,,,,,,,,,,,,,,,,,,,,,,,,,,,,,,,,,,,,,,,,,,,-9999,-9999,,-9999,-9999,,,,,,,9/12/17 1:16,True
WBAN:24234,SEATTLE BOEING FIELD WA US,6.1,47.53028,-122.30083,2014-05-30 07:53,FM-15,FEW:02 23,10.00,,59,15.0,53,11.5,47,8.3,64,0,000,,30.09,,,30.12,0.00,30.12,,,,,,,,,,0417,1957,,,,,,,,,,,,,,,,,,,,,,,,,,,,,,,,,,,,,,,,,,,-9999,-9999,,-9999,-9999,,,,,,,5/30/14 16:05,False
WBAN:24234,SEATTLE BOEING FIELD WA US,6.1,47.53028,-122.30083,2016-09-05 14:53,FM-15,FEW:02 60 OVC:08 140,10.00,,68,20.0,58,14.4,50,10.0,53,9,200,,29.97,,,30.01,0.00,30.00,,,,,,,,,,0534,1840,,,,,,,,,,,,,,,,,,,,,,,,,,,,,,,,,,,,,,,,,,,-9999,-9999,,-9999,-9999,,,,,,,9/5/16 22:36,False
WBAN:24234,SEATTLE BOEING FIELD WA US,6.1,47.53028,-122.30083,2014-07-01 07:53,FM-15,CLR:00,10.00,,70,21.1,60,15.4,52,11.1,53,8,300,,29.90,,,29.93,0.00,29.93,,,,,,,,,,0416,2010,,,,,,,,,,,,,,,,,,,,,,,,,,,,,,,,,,,,,,,,,,,-9999,-9999,,-9999,-9999,,,,,,,7/1/14 16:10,True
WBAN:24234,SEATTLE BOEING FIELD WA US,6.1,47.53028,-122.30083,2014-07-24 11:53,FM-15,SCT:04 23 OVC:08 31,10.00,,67,19.4,60,15.3,54,12.2,63,8,180,,30.15,,,30.19,,30.18,,,,,,,,,,0437,1954,,,,,,,,,,,,,,,,,,,,,,,,,,,,,,,,,,,,,,,,,,,-9999,-9999,,-9999,-9999,,,,,,,7/24/14 19:41,False
WBAN:24234,SEATTLE BOEING FIELD WA US,6.1,47.53028,-122.30083,2014-10-17 07:53,FM-15,FEW:02 60 OVC:08 90,10.00,,57,13.9,54,12.1,51,10.6,81,0,000,,29.75,,,29.78,T,29.78,,,,,,,,,,0631,1718,,,,,,,,,,,,,,,,,,,,,,,,,,,,,,,,,,,,,,,,,,,-9999,-9999,,-9999,-9999,,,,,,,10/17/14 16:04,False
WBAN:24234,SEATTLE BOEING FIELD WA US,6.1,47.53028,-122.30083,2014-05-25 10:53,FM-15,FEW:02 25 OVC:08 80,10.00,,61,16.1,54,12.0,47,8.3,60,9,160,,30.02,,,30.05,0.00,30.05,,,,,,,,,,0421,1951,,,,,,,,,,,,,,,,,,,,,,,,,,,,,,,,,,,,,,,,,,,-9999,-9999,,-9999,-9999,,,,,,,5/25/14 19:10,False
WBAN:24234,SEATTLE BOEING FIELD WA US,6.1,47.53028,-122.30083,2014-05-28 13:53,FM-15,SCT:04 55 BKN:07 200,10.00,,65,18.3,53,11.8,42,5.6,43,3,230,,30.06,,,30.09,0.00,30.09,,,,,,,,,,0419,1955,,,,,,,,,,,,,,,,,,,,,,,,,,,,,,,,,,,,,,,,,,,-9999,-9999,,-9999,-9999,,,,,,,5/28/14 22:05,False
WBAN:24234,SEATTLE BOEING FIELD WA US,6.1,47.53028,-122.30083,2014-08-14 10:53,FM-15,BKN:07 12 BKN:07 17 OVC:08 55,10.00,,69,20.6,63,17.2,59,15.0,70,5,320,,29.99,,,30.02,0.08,30.02,,,,,,,,,,0504,1923,,,,,,,,,,,,,,,,,,,,,,,,,,,,,,,,,,,,,,,,,,,-9999,-9999,,-9999,-9999,,,,,,,8/14/14 19:03,False
WBAN:24234,SEATTLE BOEING FIELD WA US,6.1,47.53028,-122.30083,2015-01-08 15:53,FM-15,SCT:04 250,10.00,,46,7.8,42,5.8,38,3.3,73,5,040,,30.10,6,,30.13,0.00,30.13,,,,,,,,,,0756,1636,,,,,,,,,,,,,,,,,,,,,,,,,,,,,,,,,,,,,,,,,,,-9999,-9999,,-9999,-9999,,,,,,,1/8/15 23:16,True
WBAN:24234,SEATTLE BOEING FIELD WA US,6.1,47.53028,-122.30083,2016-02-21 06:53,FM-15,SCT:04 200,10.00,,35,1.7,35,1.4,34,1.1,96,0,000,,30.10,8,,30.13,T,30.13,,,,,,,,,,0705,1742,,,,,,,,,,,,,,,,,,,,,,,,,,,,,,,,,,,,,,,,,,,-9999,-9999,,-9999,-9999,,,,,,,2/21/16 15:22,True
WBAN:24234,SEATTLE BOEING FIELD WA US,6.1,47.53028,-122.30083,2017-05-07 15:53,FM-15,FEW:02 40,10.00,,61,16.1,49,9.5,36,2.2,39,8,300,,30.17,6,,30.20,0.00,30.20,,,,,,,,,,0443,1929,,,,,,,,,,,,,,,,,,,,,,,,,,,,,,,,,,,,,,,,,,,-9999,-9999,,-9999,-9999,,,,,,,5/7/17 23:50,True
WBAN:24234,SEATTLE BOEING FIELD WA US,6.1,47.53028,-122.30083,2015-02-10 17:53,FM-15,FEW:02 20 BKN:07 250,10.00,,56,13.3,50,9.8,43,6.1,62,0,000,,30.25,,,30.28,0.00,30.28,,,,,,,,,,0722,1726,,,,,,,,,,,,,,,,,,,,,,,,,,,,,,,,,,,,,,,,,,,-9999,-9999,,-9999,-9999,,,,,,,2/11/15 1:30,True
WBAN:24234,SEATTLE BOEING FIELD WA US,6.1,47.53028,-122.30083,2017-06-23 18:53,FM-15,CLR:00,10.00,,75,23.9,62,16.5,52,11.1,45,7,310,,30.10,6,,30.13,0.00,30.13,,,,,,,,,,0412,2011,,,,,,,,,,,,,,,,,,,,,,,,,,,,,,,,,,,,,,,,,,,-9999,-9999,,-9999,-9999,,,,,,,6/24/17 3:11,True
WBAN:24234,SEATTLE BOEING FIELD WA US,6.1,47.53028,-122.30083,2014-07-07 13:53,FM-15,FEW:02 30,10.00,,79,26.1,67,19.5,60,15.6,52,8,280,,30.05,,,30.08,0.00,30.08,,,,,,,,,,0420,2008,,,,,,,,,,,,,,,,,,,,,,,,,,,,,,,,,,,,,,,,,,,-9999,-9999,,-9999,-9999,,,,,,,7/7/14 19:13,False
WBAN:24234,SEATTLE BOEING FIELD WA US,6.1,47.53028,-122.30083,2017-05-28 11:53,FM-15,FEW:02 60,10.00,,77,25.0,62,16.9,52,11.1,42,6,320,,30.05,,,30.08,0.00,30.08,,,,,,,,,,0419,1955,,,,,,,,,,,,,,,,,,,,,,,,,,,,,,,,,,,,,,,,,,,-9999,-9999,,-9999,-9999,,,,,,,5/28/17 19:41,True
WBAN:24234,SEATTLE BOEING FIELD WA US,6.1,47.53028,-122.30083,2016-11-04 08:53,FM-15,SCT:04 250,10.00,,49,9.4,48,8.9,47,8.3,93,5,210,,30.01,,,30.04,0.00,30.04,,,,,,,,,,0659,1646,,,,,,,,,,,,,,,,,,,,,,,,,,,,,,,,,,,,,,,,,,,-9999,-9999,,-9999,-9999,,,,,,,11/4/16 16:54,True
WBAN:24234,SEATTLE BOEING FIELD WA US,6.1,47.53028,-122.30083,2014-07-09 08:53,FM-15,CLR:00,10.00,,70,21.1,62,16.5,56,13.3,61,0,000,,30.00,,,30.03,0.00,30.03,,,,,,,,,,0422,2007,,,,,,,,,,,,,,,,,,,,,,,,,,,,,,,,,,,,,,,,,,,-9999,-9999,,-9999,-9999,,,,,,,7/9/14 16:50,True
WBAN:24234,SEATTLE BOEING FIELD WA US,6.1,47.53028,-122.30083,2015-02-17 15:53,FM-15,SCT:04 250,10.00,,59,15.0,48,9.0,36,2.2,42,3,320,,30.09,6,,30.12,0.00,30.12,,,,,,,,,,0712,1736,,,,,,,,,,,,,,,,,,,,,,,,,,,,,,,,,,,,,,,,,,,-9999,-9999,,-9999,-9999,,,,,,,2/17/15 23:26,True
WBAN:24234,SEATTLE BOEING FIELD WA US,6.1,47.53028,-122.30083,2014-06-17 07:53,FM-15,BKN:07 13 OVC:08 18,10.00,,55,12.8,52,11.0,49,9.4,80,8,140,,30.07,,,30.10,0.00,30.10,,,,,,,,,,0411,2009,,,,,,,,,,,,,,,,,,,,,,,,,,,,,,,,,,,,,,,,,,,-9999,-9999,,-9999,-9999,,,,,,,6/17/14 16:05,False
WBAN:24234,SEATTLE BOEING FIELD WA US,6.1,47.53028,-122.30083,2014-12-31 10:53,FM-15,FEW:02 250,10.00,,37,2.8,32,-0.2,22,-5.6,54,5,010,,30.59,,,30.62,0.00,30.62,,,,,,,,,,0757,1628,,,,,,,,,,,,,,,,,,,,,,,,,,,,,,,,,,,,,,,,,,,-9999,-9999,,-9999,-9999,,,,,,,12/31/14 18:40,True
WBAN:24234,SEATTLE BOEING FIELD WA US,6.1,47.53028,-122.30083,2017-07-29 12:53,FM-15,CLR:00,10.00,,76,24.4,64,17.8,56,13.3,50,11,330,,30.13,8,,30.16,0.00,30.16,,,,,,,,,,0443,1948,,,,,,,,,,,,,,,,,,,,,,,,,,,,,,,,,,,,,,,,,,,-9999,-9999,,-9999,-9999,,,,,,,7/29/17 20:34,True
WBAN:24234,SEATTLE BOEING FIELD WA US,6.1,47.53028,-122.30083,2016-02-09 17:53,FM-15,BKN:07 250,10.00,,56,13.3,49,9.5,42,5.6,60,7,140,,30.10,,,30.13,0.00,30.13,,,,,,,,,,0723,1725,,,,,,,,,,,,,,,,,,,,,,,,,,,,,,,,,,,,,,,,,,,-9999,-9999,,-9999,-9999,,,,,,,2/10/16 1:30,True
WBAN:24234,SEATTLE BOEING FIELD WA US,6.1,47.53028,-122.30083,2016-03-24 12:53,FM-15,SCT:04 28 BKN:07 90 BKN:07 150,10.00,,53,11.7,47,8.2,40,4.4,61,13,190,20,30.16,3,,30.19,0.00,30.19,,,,,,,,,,0602,1829,,,,,,,,,,,,,,,,,,,,,,,,,,,,,,,,,,,,,,,,,,,-9999,-9999,,-9999,-9999,,,,,,,3/24/16 21:02,False
WBAN:24234,SEATTLE BOEING FIELD WA US,6.1,47.53028,-122.30083,2016-09-02 08:53,FM-15,FEW:02 18 BKN:07 26 OVC:08 60,6.00,-RA:02 |RA:61 |,59,15.0,56,13.5,54,12.2,83,7,160,,29.92,,,29.95,,29.95,,,,,,,,,,0530,1846,,,,,,,,,,,,,,,,,,,,,,,,,,,,,,,,,,,,,,,,,,,-9999,-9999,,-9999,-9999,,,,,,,9/2/16 17:21,False
WBAN:24234,SEATTLE BOEING FIELD WA US,6.1,47.53028,-122.30083,2017-10-02 15:53,FM-15,CLR:00,10.00,,62,16.7,53,11.8,45,7.2,54,9,330,,30.13,6,,30.17,0.00,30.16,,,,,,,,,,0609,1747,,,,,,,,,,,,,,,,,,,,,,,,,,,,,,,,,,,,,,,,,,,-9999,-9999,,-9999,-9999,,,,,,,10/3/17 1:54,True
WBAN:24234,SEATTLE BOEING FIELD WA US,6.1,47.53028,-122.30083,2016-04-09 10:53,FM-15,FEW:02 21,10.00,,60,15.6,55,12.6,50,10.0,70,5,230,,29.84,,,29.88,0.00,29.87,,,,,,,,,,0530,1852,,,,,,,,,,,,,,,,,,,,,,,,,,,,,,,,,,,,,,,,,,,-9999,-9999,,-9999,-9999,,,,,,,4/9/16 19:10,False
WBAN:24234,SEATTLE BOEING FIELD WA US,6.1,47.53028,-122.30083,2015-02-24 15:53,FM-15,FEW:02 110 BKN:07 250,10.00,,54,12.2,45,7.4,35,1.7,49,5,320,,30.32,5,,30.35,0.00,30.35,,,,,,,,,,0659,1746,,,,,,,,,,,,,,,,,,,,,,,,,,,,,,,,,,,,,,,,,,,-9999,-9999,,-9999,-9999,,,,,,,2/25/15 0:20,True
WBAN:24234,SEATTLE BOEING FIELD WA US,6.1,47.53028,-122.30083,2014-09-28 09:53,FM-15,FEW:02 3 SCT:04 8 OVC:08 14,10.00,,61,16.1,57,13.7,53,11.7,75,7,300,,30.00,8,,30.03,0.00,30.03,,,,,,,,,,0604,1755,,,,,,,,,,,,,,,,,,,,,,,,,,,,,,,,,,,,,,,,,,,-9999,-9999,,-9999,-9999,,,,,,,9/28/14 17:59,False
WBAN:24234,SEATTLE BOEING FIELD WA US,6.1,47.53028,-122.30083,2016-08-15 10:53,FM-15,CLR:00,10.00,,74,23.3,63,17.4,56,13.3,54,9,320,,30.06,,,30.09,0.00,30.09,,,,,,,,,,0506,1920,,,,,,,,,,,,,,,,,,,,,,,,,,,,,,,,,,,,,,,,,,,-9999,-9999,,-9999,-9999,,,,,,,8/15/16 18:13,True
WBAN:24234,SEATTLE BOEING FIELD WA US,6.1,47.53028,-122.30083,2016-07-13 12:53,FM-15,SCT:04 40 BKN:07 60,10.00,,70,21.1,59,15.2,51,10.6,51,11,290,,30.21,8,,30.24,0.00,30.24,,,,,,,,,,0426,2003,,,,,,,,,,,,,,,,,,,,,,,,,,,,,,,,,,,,,,,,,,,-9999,-9999,,-9999,-9999,,,,,,,7/13/16 20:59,False
WBAN:24234,SEATTLE BOEING FIELD WA US,6.1,47.53028,-122.30083,2014-06-09 11:53,FM-15,BKN:07 55,10.00,,67,19.4,56,13.2,46,7.8,47,7,310,,30.12,,,30.15,0.00,30.15,,,,,,,,,,0412,2005,,,,,,,,,,,,,,,,,,,,,,,,,,,,,,,,,,,,,,,,,,,-9999,-9999,,-9999,-9999,,,,,,,6/9/14 20:10,False
WBAN:24234,SEATTLE BOEING FIELD WA US,6.1,47.53028,-122.30083,2014-07-28 13:53,FM-15,CLR:00,10.00,,84,28.9,65,18.3,52,11.1,33,9,300,,30.06,,,30.09,0.00,30.09,,,,,,,,,,0442,1949,,,,,,,,,,,,,,,,,,,,,,,,,,,,,,,,,,,,,,,,,,,-9999,-9999,,-9999,-9999,,,,,,,7/28/14 22:08,True
WBAN:24234,SEATTLE BOEING FIELD WA US,6.1,47.53028,-122.30083,2014-12-06 14:51,FM-16,SCT:04 14 BKN:07 120,10.00,,55,13.0,51,10.8,48,9.0,77,16,170,21,30.10,,,,,30.13,,,,,,,,,,0742,1618,,,,,,,,,,,,,,,,,,,,,,,,,,,,,,,,,,,,,,,,,,,-9999,-9999,,-9999,-9999,,,,,,,12/6/14 22:30,False
WBAN:24234,SEATTLE BOEING FIELD WA US,6.1,47.53028,-122.30083,2014-06-10 07:53,FM-15,BKN:07 28 OVC:08 55,10.00,,59,15.0,52,11.3,46,7.8,62,0,000,,30.09,,,30.12,0.00,30.12,,,,,,,,,,0412,2006,,,,,,,,,,,,,,,,,,,,,,,,,,,,,,,,,,,,,,,,,,,-9999,-9999,,-9999,-9999,,,,,,,6/10/14 16:05,False
WBAN:24234,SEATTLE BOEING FIELD WA US,6.1,47.53028,-122.30083,2016-09-18 09:53,FM-15,BKN:07 18,10.00,,63,17.2,57,13.8,52,11.1,68,6,160,,30.04,1,,30.07,0.00,30.07,,,,,,,,,,0552,1813,,,,,,,,,,,,,,,,,,,,,,,,,,,,,,,,,,,,,,,,,,,-9999,-9999,,-9999,-9999,,,,,,,9/18/16 17:34,False
WBAN:24234,SEATTLE BOEING FIELD WA US,6.1,47.53028,-122.30083,2015-02-06 11:53,FM-15,BKN:07 46 OVC:08 60,3.00,RA:02 |RA:62 |,57,13.9,54,12.4,52,11.1,83,16,180,22,29.35,,,29.39,0.14,29.38,,,,,,,,,,0729,1718,,,,,,,,,,,,,,,,,,,,,,,,,,,,,,,,,,,,,,,,,,,-9999,-9999,,-9999,-9999,,,,,,,2/6/15 19:36,False
WBAN:24234,SEATTLE BOEING FIELD WA US,6.1,47.53028,-122.30083,2016-03-04 12:53,FM-15,OVC:08 70,10.00,,57,13.9,49,9.5,41,5.0,55,8,180,,29.78,8,,29.81,T,29.81,,,,,,,,,,0642,1800,,,,,,,,,,,,,,,,,,,,,,,,,,,,,,,,,,,,,,,,,,,-9999,-9999,,-9999,-9999,,,,,,,3/4/16 21:13,True
WBAN:24234,SEATTLE BOEING FIELD WA US,6.1,47.53028,-122.30083,2014-05-16 13:53,FM-15,FEW:02 50,10.00,,67,19.4,57,13.7,48,8.9,51,9,210,,30.07,,,30.10,0.00,30.10,,,,,,,,,,0431,1941,,,,,,,,,,,,,,,,,,,,,,,,,,,,,,,,,,,,,,,,,,,-9999,-9999,,-9999,-9999,,,,,,,5/16/14 22:09,False
WBAN:24234,SEATTLE BOEING FIELD WA US,6.1,47.53028,-122.30083,2014-10-08 08:46,FM-16,SCT:04 9 OVC:08 10,10.00,,61,16.0,58,14.2,55,13.0,83,0,000,,29.98,,,,,30.01,,,,,,,,,,0618,1735,,,,,,,,,,,,,,,,,,,,,,,,,,,,,,,,,,,,,,,,,,,-9999,-9999,,-9999,-9999,,,,,,,10/8/14 16:22,False
WBAN:24234,SEATTLE BOEING FIELD WA US,6.1,47.53028,-122.30083,2015-01-07 09:53,FM-15,OVC:08 6,4.00,BR:1 ||,47,8.3,45,7.3,43,6.1,86,3,040,,30.28,0,,30.31,0.00,30.31,,,,,,,,,,0756,1635,,,,,,,,,,,,,,,,,,,,,,,,,,,,,,,,,,,,,,,,,,,-9999,-9999,,-9999,-9999,,,,,,,1/7/15 18:08,False
WBAN:24234,SEATTLE BOEING FIELD WA US,6.1,47.53028,-122.30083,2015-03-02 16:53,FM-15,FEW:02 160,10.00,,53,11.7,42,5.8,28,-2.2,38,9,350,23,30.02,,,30.05,0.00,30.05,,,,,,,,,,0646,1757,,,,,,,,,,,,,,,,,,,,,,,,,,,,,,,,,,,,,,,,,,,-9999,-9999,,-9999,-9999,,,,,,,3/3/15 0:56,False
WBAN:24234,SEATTLE BOEING FIELD WA US,6.1,47.53028,-122.30083,2014-07-09 12:53,FM-15,CLR:00,10.00,,77,25.0,62,16.6,51,10.6,40,5,350,,29.96,8,,29.99,0.00,29.99,,,,,,,,,,0422,2007,,,,,,,,,,,,,,,,,,,,,,,,,,,,,,,,,,,,,,,,,,,-9999,-9999,,-9999,-9999,,,,,,,7/9/14 21:12,True
WBAN:24234,SEATTLE BOEING FIELD WA US,6.1,47.53028,-122.30083,2014-06-12 11:51,FM-16,FEW:02 28 BKN:07 46 OVC:08 75,10.00,,66,19.0,58,14.5,52,11.0,60,8,180,,29.81,,,,,29.84,,,,,,,,,,0411,2007,,,,,,,,,,,,,,,,,,,,,,,,,,,,,,,,,,,,,,,,,,,-9999,-9999,,-9999,-9999,,,,,,,6/12/14 20:11,False
WBAN:24234,SEATTLE BOEING FIELD WA US,6.1,47.53028,-122.30083,2017-09-04 11:53,FM-15,SCT:04 40 BKN:07 250,10.00,FU:3 |HZ:04 FU:05 |,83,28.3,68,20.3,60,15.6,46,7,050,,29.96,,,29.99,0.00,29.99,,,,,,,,,,0532,1844,,,,,,,,,,,,,,,,,,,,,,,,,,,,,,,,,,,,,,,,,,,-9999,-9999,,-9999,-9999,,,,,,,9/4/17 19:53,False
WBAN:24234,SEATTLE BOEING FIELD WA US,6.1,47.53028,-122.30083,2016-02-01 17:58,FM-16,BKN:07 24 BKN:07 38 OVC:08 65,6.00,-RA:02 BR:1 |RA:61 |,44,6.7,42,5.7,40,4.4,85,7,120,,30.16,,,,0.01,30.19,,,,,,,,,,0735,1712,,,,,,,,,,,,,,,,,,,,,,,,,,,,,,,,,,,,,,,,,,,-9999,-9999,,-9999,-9999,,,,,,,2/2/16 2:14,False
WBAN:24234,SEATTLE BOEING FIELD WA US,6.1,47.53028,-122.30083,2017-02-16 12:53,FM-15,SCT:04 22 BKN:07 80,10.00,,52,11.1,49,9.2,45,7.2,77,7,230,,29.46,3,,29.49,0.00,29.49,,,,,,,,,,0713,1734,,,,,,,,,,,,,,,,,,,,,,,,,,,,,,,,,,,,,,,,,,,-9999,-9999,,-9999,-9999,,,,,,,2/16/17 20:39,False
WBAN:24234,SEATTLE BOEING FIELD WA US,6.1,47.53028,-122.30083,2017-10-28 09:53,FM-15,CLR:00,10.00,,53,11.7,51,10.5,49,9.4,86,3,260,,30.00,8,,30.03,0.00,30.03,,,,,,,,,,0647,1658,,,,,,,,,,,,,,,,,,,,,,,,,,,,,,,,,,,,,,,,,,,-9999,-9999,,-9999,-9999,,,,,,,10/28/17 18:11,True
WBAN:24234,SEATTLE BOEING FIELD WA US,6.1,47.53028,-122.30083,2017-06-05 06:53,FM-15,CLR:00,10.00,,55,12.8,51,10.5,47,8.3,74,5,060,,30.17,8,,30.20,0.00,30.20,,,,,,,,,,0414,2002,,,,,,,,,,,,,,,,,,,,,,,,,,,,,,,,,,,,,,,,,,,-9999,-9999,,-9999,-9999,,,,,,,6/5/17 15:30,True
WBAN:24234,SEATTLE BOEING FIELD WA US,6.1,47.53028,-122.30083,2014-08-12 15:53,FM-15,FEW:02 50 BKN:07 130 OVC:08 200,10.00,,79,26.1,63,17.3,52,11.1,39,6,300,,29.77,6,,29.81,0.00,29.80,,,,,,,,,,0501,1927,,,,,,,,,,,,,,,,,,,,,,,,,,,,,,,,,,,,,,,,,,,-9999,-9999,,-9999,-9999,,,,,,,8/12/14 23:40,False
WBAN:24234,SEATTLE BOEING FIELD WA US,6.1,47.53028,-122.30083,2017-01-18 13:53,FM-15,SCT:04 34 BKN:07 42 OVC:08 49,9.00,-RA:02 |RA:61 |,50,10.0,48,8.9,46,7.8,86,6,140,,29.30,,,29.33,0.03,29.33,,,,,,,,,,0751,1650,,,,,,,,,,,,,,,,,,,,,,,,,,,,,,,,,,,,,,,,,,,-9999,-9999,,-9999,-9999,,,,,,,1/18/17 21:40,False
WBAN:24234,SEATTLE BOEING FIELD WA US,6.1,47.53028,-122.30083,2015-03-01 11:53,FM-15,BKN:07 200,10.00,,54,12.2,44,6.6,31,-0.6,42,3,190,,30.14,,,30.17,0.00,30.17,,,,,,,,,,0650,1754,,,,,,,,,,,,,,,,,,,,,,,,,,,,,,,,,,,,,,,,,,,-9999,-9999,,-9999,-9999,,,,,,,3/1/15 19:39,True
WBAN:24234,SEATTLE BOEING FIELD WA US,6.1,47.53028,-122.30083,2017-05-23 08:53,FM-15,CLR:00,10.00,,70,21.1,62,16.5,56,13.3,61,0,000,,29.98,,,30.01,0.00,30.01,,,,,,,,,,0423,1949,,,,,,,,,,,,,,,,,,,,,,,,,,,,,,,,,,,,,,,,,,,-9999,-9999,,-9999,-9999,,,,,,,5/23/17 17:02,True
WBAN:24234,SEATTLE BOEING FIELD WA US,6.1,47.53028,-122.30083,2016-05-13 07:53,FM-15,FEW:02 250,10.00,,61,16.1,56,13.1,51,10.6,70,6,300,,29.97,,,30.00,0.00,30.00,,,,,,,,,,0433,1938,,,,,,,,,,,,,,,,,,,,,,,,,,,,,,,,,,,,,,,,,,,-9999,-9999,,-9999,-9999,,,,,,,5/13/16 15:56,True
WBAN:24234,SEATTLE BOEING FIELD WA US,6.1,47.53028,-122.30083,2014-05-26 13:53,FM-15,FEW:02 70 BKN:07 85,10.00,,66,18.9,55,12.7,45,7.2,47,10,190,20,30.13,,,30.16,0.00,30.16,,,,,,,,,,0420,1953,,,,,,,,,,,,,,,,,,,,,,,,,,,,,,,,,,,,,,,,,,,-9999,-9999,,-9999,-9999,,,,,,,5/26/14 22:07,False
WBAN:24234,SEATTLE BOEING FIELD WA US,6.1,47.53028,-122.30083,2015-02-19 12:53,FM-15,SCT:04 14 BKN:07 19 OVC:08 60,7.00,-RA:02 |RA:61 |,52,11.1,49,9.4,46,7.8,80,5,200,,30.23,8,,30.26,0.01s,30.26,,,,,,,,,,0708,1739,,,,,,,,,,,,,,,,,,,,,,,,,,,,,,,,,,,,,,,,,,,-9999,-9999,,-9999,-9999,,,,,,,2/19/15 20:40,False
WBAN:24234,SEATTLE BOEING FIELD WA US,6.1,47.53028,-122.30083,2017-01-23 16:53,FM-15,FEW:02 40 SCT:04 150,10.00,,45,7.2,41,5.2,37,2.8,74,0,000,,29.88,,,29.91,0.00,29.91,,,,,,,,,,0745,1658,,,,,,,,,,,,,,,,,,,,,,,,,,,,,,,,,,,,,,,,,,,-9999,-9999,,-9999,-9999,,,,,,,1/24/17 0:38,True
WBAN:24234,SEATTLE BOEING FIELD WA US,6.1,47.53028,-122.30083,2016-06-16 17:53,FM-15,SCT:04 40 SCT:04 80,10.00,,65,18.3,55,12.7,46,7.8,51,9,320,,30.08,,,30.11,0.00,30.11,,,,,,,,,,0411,2009,,,,,,,,,,,,,,,,,,,,,,,,,,,,,,,,,,,,,,,,,,,-9999,-9999,,-9999,-9999,,,,,,,6/17/16 2:22,False
WBAN:24234,SEATTLE BOEING FIELD WA US,6.1,47.53028,-122.30083,2016-05-30 15:53,FM-15,BKN:07 250,10.00,,71,21.7,57,13.7,44,6.7,38,9,310,,30.18,6,,30.22,0.00,30.21,,,,,,,,,,0417,1958,,,,,,,,,,,,,,,,,,,,,,,,,,,,,,,,,,,,,,,,,,,-9999,-9999,,-9999,-9999,,,,,,,5/31/16 0:03,True
WBAN:24234,SEATTLE BOEING FIELD WA US,6.1,47.53028,-122.30083,2016-02-08 08:53,FM-15,FEW:02 250,10.00,,46,7.8,43,6.3,40,4.4,79,0,000,,30.45,,,30.48,T,30.48,,,,,,,,,,0726,1722,,,,,,,,,,,,,,,,,,,,,,,,,,,,,,,,,,,,,,,,,,,-9999,-9999,,-9999,-9999,,,,,,,2/8/16 17:14,True
WBAN:24234,SEATTLE BOEING FIELD WA US,6.1,47.53028,-122.30083,2018-01-01 08:53,FM-15,SCT:04 150,10.00,,33,0.6,32,0.1,31,-0.6,92,3,280,,30.38,,,30.41,0.00,30.41,,,,,,,,,,0757,1629,,,,,,,,,,,,,,,,,,,,,,,,,,,,,,,,,,,,,,,,,,,-9999,-9999,,-9999,-9999,,,,,,,1/1/18 17:18,True
WBAN:24234,SEATTLE BOEING FIELD WA US,6.1,47.53028,-122.30083,2014-05-18 07:53,FM-15,FEW:02 36 BKN:07 42 BKN:07 49,10.00,,58,14.4,53,11.8,49,9.4,72,6,190,,29.82,,,29.85,0.00,29.85,,,,,,,,,,0429,1943,,,,,,,,,,,,,,,,,,,,,,,,,,,,,,,,,,,,,,,,,,,-9999,-9999,,-9999,-9999,,,,,,,5/18/14 16:09,False
WBAN:24234,SEATTLE BOEING FIELD WA US,6.1,47.53028,-122.30083,2017-10-31 16:53,FM-15,SCT:04 250,10.00,,56,13.3,47,8.1,36,2.2,47,0,000,,29.87,,,29.90,0.00,29.90,,,,,,,,,,0653,1652,,,,,,,,,,,,,,,,,,,,,,,,,,,,,,,,,,,,,,,,,,,-9999,-9999,,-9999,-9999,,,,,,,11/1/17 0:43,True
WBAN:24234,SEATTLE BOEING FIELD WA US,6.1,47.53028,-122.30083,2016-03-31 15:53,FM-15,FEW:02 250,10.00,,71,21.7,57,13.9,45,7.2,39,3,300,,30.04,8,,30.07,0.00,30.07,,,,,,,,,,0548,1839,,,,,,,,,,,,,,,,,,,,,,,,,,,,,,,,,,,,,,,,,,,-9999,-9999,,-9999,-9999,,,,,,,3/31/16 23:43,True
WBAN:24234,SEATTLE BOEING FIELD WA US,6.1,47.53028,-122.30083,2014-07-04 13:53,FM-15,FEW:02 40 SCT:04 250,10.00,,75,23.9,60,15.7,49,9.4,40,7,350,,29.98,,,30.01,0.00,30.01,,,,,,,,,,0418,2009,,,,,,,,,,,,,,,,,,,,,,,,,,,,,,,,,,,,,,,,,,,-9999,-9999,,-9999,-9999,,,,,,,7/4/14 22:05,True
WBAN:24234,SEATTLE BOEING FIELD WA US,6.1,47.53028,-122.30083,2015-01-28 11:53,FM-15,SCT:04 18 BKN:07 36,10.00,,53,11.7,49,9.2,44,6.7,72,5,330,,30.37,,,30.40,0.00,30.40,,,,,,,,,,0741,1704,,,,,,,,,,,,,,,,,,,,,,,,,,,,,,,,,,,,,,,,,,,-9999,-9999,,-9999,-9999,,,,,,,1/28/15 20:08,False
WBAN:24234,SEATTLE BOEING FIELD WA US,6.1,47.53028,-122.30083,2015-02-09 14:53,FM-15,FEW:02 40 BKN:07 70,10.00,,58,14.4,53,11.5,48,8.9,70,3,150,,29.75,,,29.78,0.00,29.78,,,,,,,,,,0725,1723,,,,,,,,,,,,,,,,,,,,,,,,,,,,,,,,,,,,,,,,,,,-9999,-9999,,-9999,-9999,,,,,,,2/9/15 22:50,False
WBAN:24234,SEATTLE BOEING FIELD WA US,6.1,47.53028,-122.30083,2018-01-09 15:53,FM-15,BKN:07 6 OVC:08 15,5.00,-RA:02 BR:1 |RA:61 |,46,7.8,45,7.2,44,6.7,93,7,100,,29.68,3,,29.71,T,29.71,,,,,,,,,,0756,1638,,,,,,,,,,,,,,,,,,,,,,,,,,,,,,,,,,,,,,,,,,,-9999,-9999,,-9999,-9999,,,,,,,1/9/18 23:28,False
WBAN:24234,SEATTLE BOEING FIELD WA US,6.1,47.53028,-122.30083,2015-02-28 07:53,FM-15,CLR:00,10.00,,42,5.6,38,3.5,33,0.6,71,0,000,,30.12,,,30.15,0.00,30.15,,,,,,,,,,0652,1753,,,,,,,,,,,,,,,,,,,,,,,,,,,,,,,,,,,,,,,,,,,-9999,-9999,,-9999,-9999,,,,,,,2/28/15 15:40,True
WBAN:24234,SEATTLE BOEING FIELD WA US,6.1,47.53028,-122.30083,2014-07-07 13:53,FM-15,FEW:02 30,10.00,,79,26.1,67,19.5,60,15.6,52,8,280,,30.05,,,30.08,0.00,30.08,,,,,,,,,,0420,2008,,,,,,,,,,,,,,,,,,,,,,,,,,,,,,,,,,,,,,,,,,,-9999,-9999,,-9999,-9999,,,,,,,7/7/14 22:06,True
WBAN:24234,SEATTLE BOEING FIELD WA US,6.1,47.53028,-122.30083,2017-07-24 17:53,FM-15,CLR:00,10.00,,77,25.0,64,17.7,55,12.8,47,9,300,,29.89,,,29.93,0.00,29.92,,,,,,,,,,0438,1953,,,,,,,,,,,,,,,,,,,,,,,,,,,,,,,,,,,,,,,,,,,-9999,-9999,,-9999,-9999,,,,,,,7/25/17 2:13,True
WBAN:24234,SEATTLE BOEING FIELD WA US,6.1,47.53028,-122.30083,2014-05-20 11:53,FM-15,FEW:02 25,10.00,,68,20.0,58,14.5,50,10.0,53,7,300,,30.09,,,30.12,0.00,30.12,,,,,,,,,,0426,1946,,,,,,,,,,,,,,,,,,,,,,,,,,,,,,,,,,,,,,,,,,,-9999,-9999,,-9999,-9999,,,,,,,5/20/14 22:06,False
WBAN:24234,SEATTLE BOEING FIELD WA US,6.1,47.53028,-122.30083,2017-07-30 15:53,FM-15,CLR:00,10.00,,79,26.1,65,18.1,55,12.8,44,6,320,,30.20,6,,30.23,0.00,30.23,,,,,,,,,,0444,1946,,,,,,,,,,,,,,,,,,,,,,,,,,,,,,,,,,,,,,,,,,,-9999,-9999,,-9999,-9999,,,,,,,7/30/17 23:55,True
WBAN:24234,SEATTLE BOEING FIELD WA US,6.1,47.53028,-122.30083,2016-12-28 15:53,FM-15,SCT:04 37 SCT:04 140,10.00,,46,7.8,41,4.9,34,1.1,63,3,190,,30.38,8,,30.42,0.00,30.41,,,,,,,,,,0757,1626,,,,,,,,,,,,,,,,,,,,,,,,,,,,,,,,,,,,,,,,,,,-9999,-9999,,-9999,-9999,,,,,,,12/28/16 23:53,True
WBAN:24234,SEATTLE BOEING FIELD WA US,6.1,47.53028,-122.30083,2016-08-13 11:53,FM-15,SCT:04 250,10.00,,82,27.8,66,18.9,56,13.3,41,7,330,,29.96,,,29.99,0.00,29.99,,,,,,,,,,0504,1923,,,,,,,,,,,,,,,,,,,,,,,,,,,,,,,,,,,,,,,,,,,-9999,-9999,,-9999,-9999,,,,,,,8/13/16 20:49,True
WBAN:24234,SEATTLE BOEING FIELD WA US,6.1,47.53028,-122.30083,2017-08-14 17:53,FM-15,CLR:00,10.00,,70,21.1,59,15.2,51,10.6,51,6,310,,29.89,,,29.92,0.00,29.92,,,,,,,,,,0505,1922,,,,,,,,,,,,,,,,,,,,,,,,,,,,,,,,,,,,,,,,,,,-9999,-9999,,-9999,-9999,,,,,,,8/15/17 1:46,False
WBAN:24234,SEATTLE BOEING FIELD WA US,6.1,47.53028,-122.30083,2016-06-04 18:53,FM-15,CLR:00,10.00,,78,25.6,59,15.2,44,6.7,30,8,310,,29.90,6,,29.93,0.00,29.93,,,,,,,,,,0413,2003,,,,,,,,,,,,,,,,,,,,,,,,,,,,,,,,,,,,,,,,,,,-9999,-9999,,-9999,-9999,,,,,,,6/5/16 3:48,True
WBAN:24234,SEATTLE BOEING FIELD WA US,6.1,47.53028,-122.30083,2017-08-30 18:53,FM-15,BKN:07 75,10.00,,74,23.3,64,17.7,57,13.9,56,0,000,,29.97,3,,30.01,0.00,30.00,,,,,,,,,,0526,1852,,,,,,,,,,,,,,,,,,,,,,,,,,,,,,,,,,,,,,,,,,,-9999,-9999,,-9999,-9999,,,,,,,8/31/17 2:57,True
WBAN:24234,SEATTLE BOEING FIELD WA US,6.1,47.53028,-122.30083,2014-05-04 13:53,FM-15,SCT:04 25 BKN:07 46 OVC:08 60,8.00,-RA:02 |RA:61 |,58,14.4,53,11.5,48,8.9,70,10,200,21,29.75,,,29.78,0.02,29.78,,,,,,,,,,0448,1925,,,,,,,,,,,,,,,,,,,,,,,,,,,,,,,,,,,,,,,,,,,-9999,-9999,,-9999,-9999,,,,,,,5/4/14 22:14,False
WBAN:24234,SEATTLE BOEING FIELD WA US,6.1,47.53028,-122.30083,2015-01-25 11:53,FM-15,FEW:02 15 BKN:07 200,10.00,,61,16.1,54,12.3,48,8.9,63,0,000,,30.10,,,30.13,0.00,30.13,,,,,,,,,,0744,1700,,,,,,,,,,,,,,,,,,,,,,,,,,,,,,,,,,,,,,,,,,,-9999,-9999,,-9999,-9999,,,,,,,1/25/15 20:03,True
WBAN:24234,SEATTLE BOEING FIELD WA US,6.1,47.53028,-122.30083,2014-08-23 07:53,FM-15,FEW:02 220,10.00,,66,18.9,60,15.4,55,12.8,68,0,000,,30.12,,,30.15,0.00,30.15,,,,,,,,,,0516,1907,,,,,,,,,,,,,,,,,,,,,,,,,,,,,,,,,,,,,,,,,,,-9999,-9999,,-9999,-9999,,,,,,,8/23/14 16:03,False
WBAN:24234,SEATTLE BOEING FIELD WA US,6.1,47.53028,-122.30083,2017-12-10 16:53,FM-15,CLR:00,10.00,,44,6.7,41,5.0,37,2.8,76,0,000,,30.32,,,30.35,0.00,30.35,,,,,,,,,,0747,1618,,,,,,,,,,,,,,,,,,,,,,,,,,,,,,,,,,,,,,,,,,,-9999,-9999,,-9999,-9999,,,,,,,12/11/17 0:40,True
WBAN:24234,SEATTLE BOEING FIELD WA US,6.1,47.53028,-122.30083,2017-10-08 11:53,FM-15,SCT:04 30 BKN:07 70,10.00,,58,14.4,52,11.0,46,7.8,65,0,000,,30.27,,,30.30,0.00,30.30,,,,,,,,,,0618,1735,,,,,,,,,,,,,,,,,,,,,,,,,,,,,,,,,,,,,,,,,,,-9999,-9999,,-9999,-9999,,,,,,,10/8/17 20:17,False
WBAN:24234,SEATTLE BOEING FIELD WA US,6.1,47.53028,-122.30083,2014-09-12 08:53,FM-15,CLR:00,10.00,,66,18.9,51,10.8,36,2.2,33,5,310,,30.03,,,30.06,0.00,30.06,,,,,,,,,,0542,1828,,,,,,,,,,,,,,,,,,,,,,,,,,,,,,,,,,,,,,,,,,,-9999,-9999,,-9999,-9999,,,,,,,9/12/14 16:29,True
WBAN:24234,SEATTLE BOEING FIELD WA US,6.1,47.53028,-122.30083,2016-07-14 19:53,FM-15,BKN:07 60,10.00,,66,18.9,61,16.3,58,14.4,75,17,350,22,30.13,,,30.16,0.00,30.16,,,,,,,,,,0428,2002,,,,,,,,,,,,,,,,,,,,,,,,,,,,,,,,,,,,,,,,,,,-9999,-9999,,-9999,-9999,,,,,,,7/15/16 2:54,True
WBAN:24234,SEATTLE BOEING FIELD WA US,6.1,47.53028,-122.30083,2017-12-11 16:53,FM-15,SCT:04 250,10.00,,43,6.1,39,4.0,34,1.1,71,6,130,,30.35,,,30.38,0.00,30.38,,,,,,,,,,0748,1618,,,,,,,,,,,,,,,,,,,,,,,,,,,,,,,,,,,,,,,,,,,-9999,-9999,,-9999,-9999,,,,,,,12/12/17 0:41,True
WBAN:24234,SEATTLE BOEING FIELD WA US,6.1,47.53028,-122.30083,2014-06-18 07:53,FM-15,FEW:02 20 OVC:08 27,10.00,,58,14.4,52,11.3,47,8.3,67,7,170,,30.09,,,30.12,0.00,30.12,,,,,,,,,,0411,2009,,,,,,,,,,,,,,,,,,,,,,,,,,,,,,,,,,,,,,,,,,,-9999,-9999,,-9999,-9999,,,,,,,6/18/14 16:06,True
WBAN:24234,SEATTLE BOEING FIELD WA US,6.1,47.53028,-122.30083,2014-06-23 14:53,FM-15,FEW:02 80 SCT:04 170 BKN:07 250,10.00,,77,25.0,63,17.4,54,12.2,45,9,200,,29.97,,,30.00,0.00,30.00,,,,,,,,,,0412,2011,,,,,,,,,,,,,,,,,,,,,,,,,,,,,,,,,,,,,,,,,,,-9999,-9999,,-9999,-9999,,,,,,,6/23/14 22:33,True
WBAN:24234,SEATTLE BOEING FIELD WA US,6.1,47.53028,-122.30083,2017-08-01 19:53,FM-15,CLR:00,6.00,FU:3 |HZ:04 FU:05 |,79,26.1,65,18.1,55,12.8,44,3,360,,30.01,,,30.04,0.00,30.04,,,,,,,,,,0448,1942,,,,,,,,,,,,,,,,,,,,,,,,,,,,,,,,,,,,,,,,,,,-9999,-9999,,-9999,-9999,,,,,,,8/2/17 3:34,False
WBAN:24234,SEATTLE BOEING FIELD WA US,6.1,47.53028,-122.30083,2017-03-03 17:53,FM-15,FEW:02 20 BKN:07 70 OVC:08 110,10.00,-RA:02 |RA:61 |,46,7.8,45,7.2,44,6.7,93,14,170,,29.64,,,29.67,0.02,29.67,,,,,,,,,,0644,1759,,,,,,,,,,,,,,,,,,,,,,,,,,,,,,,,,,,,,,,,,,,-9999,-9999,,-9999,-9999,,,,,,,3/4/17 1:48,False
WBAN:24234,SEATTLE BOEING FIELD WA US,6.1,47.53028,-122.30083,2014-06-21 07:53,FM-15,SCT:04 250,10.00,,61,16.1,51,10.8,42,5.6,50,5,050,,30.10,,,30.13,0.00,30.13,,,,,,,,,,0412,2010,,,,,,,,,,,,,,,,,,,,,,,,,,,,,,,,,,,,,,,,,,,-9999,-9999,,-9999,-9999,,,,,,,6/21/14 17:19,True
WBAN:24234,SEATTLE BOEING FIELD WA US,6.1,47.53028,-122.30083,2015-02-18 16:53,FM-15,SCT:04 50,10.00,,56,13.3,49,9.5,42,5.6,60,3,190,,30.21,,,30.24,0.00,30.24,,,,,,,,,,0708,1739,,,,,,,,,,,,,,,,,,,,,,,,,,,,,,,,,,,,,,,,,,,-9999,-9999,,-9999,-9999,,,,,,,2/19/15 0:53,False
WBAN:24234,SEATTLE BOEING FIELD WA US,6.1,47.53028,-122.30083,2016-03-30 08:53,FM-15,CLR:00,10.00,,52,11.1,47,8.4,42,5.6,69,0,000,,30.08,,,30.11,0.00,30.11,,,,,,,,,,0550,1837,,,,,,,,,,,,,,,,,,,,,,,,,,,,,,,,,,,,,,,,,,,-9999,-9999,,-9999,-9999,,,,,,,3/30/16 16:24,True
WBAN:24234,SEATTLE BOEING FIELD WA US,6.1,47.53028,-122.30083,2014-12-08 14:53,FM-15,BKN:07 70 OVC:08 110,10.00,-RA:02 |RA:61 |,57,13.9,50,10.2,44,6.7,62,0,000,,29.93,,,29.96,0.01,29.96,,,,,,,,,,0744,1618,,,,,,,,,,,,,,,,,,,,,,,,,,,,,,,,,,,,,,,,,,,-9999,-9999,,-9999,-9999,,,,,,,12/8/14 22:30,False
WBAN:24234,SEATTLE BOEING FIELD WA US,6.1,47.53028,-122.30083,2014-12-29 08:53,FM-15,FEW:02 20 SCT:04 100,10.00,,40,4.4,36,2.2,30,-1.1,68,5,050,,30.37,,,30.40,0.00,30.40,,,,,,,,,,0757,1626,,,,,,,,,,,,,,,,,,,,,,,,,,,,,,,,,,,,,,,,,,,-9999,-9999,,-9999,-9999,,,,,,,12/29/14 17:19,True
WBAN:24234,SEATTLE BOEING FIELD WA US,6.1,47.53028,-122.30083,2014-05-25 13:53,FM-15,OVC:08 65,10.00,-RA:02 |RA:61 |,59,15.0,54,12.3,50,10.0,72,0,000,,30.00,,,30.03,0.02,30.03,,,,,,,,,,0421,1951,,,,,,,,,,,,,,,,,,,,,,,,,,,,,,,,,,,,,,,,,,,-9999,-9999,,-9999,-9999,,,,,,,5/25/14 22:06,False
WBAN:24234,SEATTLE BOEING FIELD WA US,6.1,47.53028,-122.30083,2015-01-10 11:53,FM-15,OVC:08 6,2.00,BR:1 ||,48,8.9,46,7.8,44,6.7,86,3,130,,29.99,,,30.02,0.00,30.02,,,,,,,,,,0755,1639,,,,,,,,,,,,,,,,,,,,,,,,,,,,,,,,,,,,,,,,,,,-9999,-9999,,-9999,-9999,,,,,,,1/10/15 20:07,False
WBAN:24234,SEATTLE BOEING FIELD WA US,6.1,47.53028,-122.30083,2014-06-21 16:53,FM-15,CLR:00,10.00,,72,22.2,55,12.8,39,3.9,30,9,320,,30.01,,,30.04,0.00,30.04,,,,,,,,,,0412,2010,,,,,,,,,,,,,,,,,,,,,,,,,,,,,,,,,,,,,,,,,,,-9999,-9999,,-9999,-9999,,,,,,,6/22/14 0:32,True
WBAN:24234,SEATTLE BOEING FIELD WA US,6.1,47.53028,-122.30083,2014-05-20 11:53,FM-15,FEW:02 25,10.00,,68,20.0,58,14.5,50,10.0,53,7,300,,30.09,,,30.12,0.00,30.12,,,,,,,,,,0426,1946,,,,,,,,,,,,,,,,,,,,,,,,,,,,,,,,,,,,,,,,,,,-9999,-9999,,-9999,-9999,,,,,,,5/20/14 19:41,False
WBAN:24234,SEATTLE BOEING FIELD WA US,6.1,47.53028,-122.30083,2015-02-10 12:51,FM-16,SCT:04 25 BKN:07 65,10.00,,55,13.0,50,10.0,45,7.0,67,8,200,20,30.28,,,,,30.31,,,,,,,,,,0723,1725,,,,,,,,,,,,,,,,,,,,,,,,,,,,,,,,,,,,,,,,,,,-9999,-9999,,-9999,-9999,,,,,,,2/10/15 20:58,False
WBAN:24234,SEATTLE BOEING FIELD WA US,6.1,47.53028,-122.30083,2016-04-18 14:53,FM-15,FEW:02 250,10.00,,88,31.1,67,19.5,54,12.2,31,7,320,,29.99,,,30.02,0.00,30.02,,,,,,,,,,0513,1904,,,,,,,,,,,,,,,,,,,,,,,,,,,,,,,,,,,,,,,,,,,-9999,-9999,,-9999,-9999,,,,,,,4/18/16 22:51,True
WBAN:24234,SEATTLE BOEING FIELD WA US,6.1,47.53028,-122.30083,2016-03-03 14:53,FM-15,SCT:04 50 BKN:07 85,10.00,-RA:02 |RA:61 |,57,13.9,50,9.8,42,5.6,58,13,170,,29.98,,,30.01,T,30.01,,,,,,,,,,0644,1759,,,,,,,,,,,,,,,,,,,,,,,,,,,,,,,,,,,,,,,,,,,-9999,-9999,,-9999,-9999,,,,,,,3/3/16 22:56,False
WBAN:24234,SEATTLE BOEING FIELD WA US,6.1,47.53028,-122.30083,2014-05-14 13:53,FM-15,CLR:00,10.00,,79,26.1,62,16.8,50,10.0,36,9,300,,30.18,,,30.21,0.00,30.21,,,,,,,,,,0433,1938,,,,,,,,,,,,,,,,,,,,,,,,,,,,,,,,,,,,,,,,,,,-9999,-9999,,-9999,-9999,,,,,,,5/14/14 22:09,True
WBAN:24234,SEATTLE BOEING FIELD WA US,6.1,47.53028,-122.30083,2015-02-08 15:53,FM-15,OVC:08 150,10.00,,59,15.0,51,10.5,43,6.1,56,3,030,,29.69,8,,29.72,0.00,29.72,,,,,,,,,,0726,1722,,,,,,,,,,,,,,,,,,,,,,,,,,,,,,,,,,,,,,,,,,,-9999,-9999,,-9999,-9999,,,,,,,2/9/15 0:04,True
WBAN:24234,SEATTLE BOEING FIELD WA US,6.1,47.53028,-122.30083,2016-04-25 11:53,FM-15,BKN:07 30 BKN:07 60,10.00,,54,12.2,48,9.0,42,5.6,64,5,340,,30.18,,,30.21,0.00,30.21,,,,,,,,,,0501,1914,,,,,,,,,,,,,,,,,,,,,,,,,,,,,,,,,,,,,,,,,,,-9999,-9999,,-9999,-9999,,,,,,,4/25/16 20:47,False
WBAN:24234,SEATTLE BOEING FIELD WA US,6.1,47.53028,-122.30083,2016-09-12 08:53,FM-15,CLR:00,10.00,,63,17.2,55,13.0,49,9.4,60,6,340,,30.19,,,30.22,0.00,30.22,,,,,,,,,,0544,1826,,,,,,,,,,,,,,,,,,,,,,,,,,,,,,,,,,,,,,,,,,,-9999,-9999,,-9999,-9999,,,,,,,9/12/16 16:58,True
WBAN:24234,SEATTLE BOEING FIELD WA US,6.1,47.53028,-122.30083,2017-06-10 15:53,FM-15,SCT:04 40 BKN:07 150,10.00,,64,17.8,54,12.5,46,7.8,52,9,310,,29.83,3,,29.86,0.00,29.86,,,,,,,,,,0412,2006,,,,,,,,,,,,,,,,,,,,,,,,,,,,,,,,,,,,,,,,,,,-9999,-9999,,-9999,-9999,,,,,,,6/10/17 23:30,False
WBAN:24234,SEATTLE BOEING FIELD WA US,6.1,47.53028,-122.30083,2014-12-04 09:53,FM-15,OVC:08 36,10.00,-RA:02 |RA:61 |,45,7.2,41,5.0,36,2.2,71,0,000,,29.82,3,,29.86,T,29.85,,,,,,,,,,0740,1619,,,,,,,,,,,,,,,,,,,,,,,,,,,,,,,,,,,,,,,,,,,-9999,-9999,,-9999,-9999,,,,,,,12/4/14 17:57,False
WBAN:24234,SEATTLE BOEING FIELD WA US,6.1,47.53028,-122.30083,2017-08-21 07:53,FM-15,FEW:02 250,10.00,,62,16.7,60,15.4,58,14.4,86,5,320,,30.10,,,30.14,0.00,30.13,,,,,,,,,,0513,1911,,,,,,,,,,,,,,,,,,,,,,,,,,,,,,,,,,,,,,,,,,,-9999,-9999,,-9999,-9999,,,,,,,8/21/17 16:17,True
WBAN:24234,SEATTLE BOEING FIELD WA US,6.1,47.53028,-122.30083,2014-06-22 11:53,FM-15,BKN:07 200,10.00,,71,21.7,57,13.7,44,6.7,38,6,310,,30.05,,,30.08,0.00,30.08,,,,,,,,,,0412,2010,,,,,,,,,,,,,,,,,,,,,,,,,,,,,,,,,,,,,,,,,,,-9999,-9999,,-9999,-9999,,,,,,,6/22/14 19:13,True
WBAN:24234,SEATTLE BOEING FIELD WA US,6.1,47.53028,-122.30083,2014-05-18 11:53,FM-15,SCT:04 40,10.00,,67,19.4,57,13.7,48,8.9,51,3,180,,29.79,,,29.82,0.00,29.82,,,,,,,,,,0429,1943,,,,,,,,,,,,,,,,,,,,,,,,,,,,,,,,,,,,,,,,,,,-9999,-9999,,-9999,-9999,,,,,,,5/18/14 19:44,False
WBAN:24234,SEATTLE BOEING FIELD WA US,6.1,47.53028,-122.30083,2014-12-09 11:53,FM-15,FEW:02 20 SCT:04 25 BKN:07 42,10.00,,61,16.1,57,13.9,54,12.2,78,15,170,24,29.80,,,29.83,0.03,29.83,,,,,,,,,,0745,1618,,,,,,,,,,,,,,,,,,,,,,,,,,,,,,,,,,,,,,,,,,,-9999,-9999,,-9999,-9999,,,,,,,12/9/14 20:03,False
WBAN:24234,SEATTLE BOEING FIELD WA US,6.1,47.53028,-122.30083,2014-10-03 10:53,FM-15,FEW:02 150,10.00,,66,18.9,57,14.0,50,10.0,56,0,000,,30.20,,,30.23,0.00,30.23,,,,,,,,,,0611,1745,,,,,,,,,,,,,,,,,,,,,,,,,,,,,,,,,,,,,,,,,,,-9999,-9999,,-9999,-9999,,,,,,,10/3/14 19:32,True
WBAN:24234,SEATTLE BOEING FIELD WA US,6.1,47.53028,-122.30083,2017-06-06 17:53,FM-15,SCT:04 250,10.00,,79,26.1,63,17.3,52,11.1,39,7,290,,29.82,,,29.85,0.00,29.85,,,,,,,,,,0413,2004,,,,,,,,,,,,,,,,,,,,,,,,,,,,,,,,,,,,,,,,,,,-9999,-9999,,-9999,-9999,,,,,,,6/7/17 2:36,True
WBAN:24234,SEATTLE BOEING FIELD WA US,6.1,47.53028,-122.30083,2017-07-26 11:53,FM-15,CLR:00,10.00,,75,23.9,64,17.9,57,13.9,54,5,020,,30.04,,,30.07,0.00,30.07,,,,,,,,,,0439,1951,,,,,,,,,,,,,,,,,,,,,,,,,,,,,,,,,,,,,,,,,,,-9999,-9999,,-9999,-9999,,,,,,,7/26/17 19:55,True
WBAN:24234,SEATTLE BOEING FIELD WA US,6.1,47.53028,-122.30083,2014-06-01 11:53,FM-15,SCT:04 26,10.00,,64,17.8,56,13.5,50,10.0,60,7,250,,30.06,,,30.09,0.00,30.09,,,,,,,,,,0416,1959,,,,,,,,,,,,,,,,,,,,,,,,,,,,,,,,,,,,,,,,,,,-9999,-9999,,-9999,-9999,,,,,,,6/1/14 19:36,False
WBAN:24234,SEATTLE BOEING FIELD WA US,6.1,47.53028,-122.30083,2014-06-30 10:53,FM-15,SCT:04 200,10.00,,70,21.1,60,15.4,52,11.1,53,8,300,,30.15,,,30.18,0.00,30.18,,,,,,,,,,0415,2010,,,,,,,,,,,,,,,,,,,,,,,,,,,,,,,,,,,,,,,,,,,-9999,-9999,,-9999,-9999,,,,,,,6/30/14 19:21,True
WBAN:24234,SEATTLE BOEING FIELD WA US,6.1,47.53028,-122.30083,2016-04-01 09:53,FM-15,CLR:00,10.00,,59,15.0,53,11.8,48,8.9,67,5,320,,30.17,1,,30.19,0.00,30.20,,,,,,,,,,0546,1840,,,,,,,,,,,,,,,,,,,,,,,,,,,,,,,,,,,,,,,,,,,-9999,-9999,,-9999,-9999,,,,,,,4/1/16 17:39,True
WBAN:24234,SEATTLE BOEING FIELD WA US,6.1,47.53028,-122.30083,2015-02-23 17:53,FM-15,CLR:00,10.00,,55,12.8,43,6.0,26,-3.3,33,0,000,,30.35,,,30.38,0.00,30.38,,,,,,,,,,0659,1746,,,,,,,,,,,,,,,,,,,,,,,,,,,,,,,,,,,,,,,,,,,-9999,-9999,,-9999,-9999,,,,,,,2/24/15 1:31,True
WBAN:24234,SEATTLE BOEING FIELD WA US,6.1,47.53028,-122.30083,2014-05-29 11:53,FM-15,SCT:04 60 OVC:08 70,10.00,,62,16.7,54,12.0,46,7.8,56,5,230,,30.20,,,30.23,0.00,30.23,,,,,,,,,,0418,1956,,,,,,,,,,,,,,,,,,,,,,,,,,,,,,,,,,,,,,,,,,,-9999,-9999,,-9999,-9999,,,,,,,5/29/14 19:03,False
WBAN:24234,SEATTLE BOEING FIELD WA US,6.1,47.53028,-122.30083,2014-06-14 10:53,FM-15,BKN:07 22 BKN:07 31,10.00,,60,15.6,54,12.0,48,8.9,65,10,150,,30.08,,,30.11,0.00,30.11,,,,,,,,,,0411,2008,,,,,,,,,,,,,,,,,,,,,,,,,,,,,,,,,,,,,,,,,,,-9999,-9999,,-9999,-9999,,,,,,,6/14/14 19:03,False
WBAN:24234,SEATTLE BOEING FIELD WA US,6.1,47.53028,-122.30083,2017-07-11 16:53,FM-15,CLR:00,10.00,,73,22.8,60,15.8,51,10.6,46,8,290,,30.00,,,30.04,0.00,30.03,,,,,,,,,,0424,2005,,,,,,,,,,,,,,,,,,,,,,,,,,,,,,,,,,,,,,,,,,,-9999,-9999,,-9999,-9999,,,,,,,7/12/17 1:13,True
WBAN:24234,SEATTLE BOEING FIELD WA US,6.1,47.53028,-122.30083,2017-08-27 14:53,FM-15,CLR:00,10.00,,83,28.3,67,19.4,57,13.9,41,9,310,,29.96,,,29.99,0.00,29.99,,,,,,,,,,0521,1900,,,,,,,,,,,,,,,,,,,,,,,,,,,,,,,,,,,,,,,,,,,-9999,-9999,,-9999,-9999,,,,,,,8/27/17 22:41,False
WBAN:24234,SEATTLE BOEING FIELD WA US,6.1,47.53028,-122.30083,2014-07-20 09:53,FM-15,FEW:02 15 BKN:07 20 OVC:08 43,10.00,,64,17.8,57,14.1,52,11.1,65,0,000,,29.95,1,,29.98,0.00,29.98,,,,,,,,,,0432,1958,,,,,,,,,,,,,,,,,,,,,,,,,,,,,,,,,,,,,,,,,,,-9999,-9999,,-9999,-9999,,,,,,,7/20/14 17:56,False
WBAN:24234,SEATTLE BOEING FIELD WA US,6.1,47.53028,-122.30083,2017-07-14 19:53,FM-15,FEW:02 200,10.00,,69,20.6,60,15.5,53,11.7,57,5,310,,30.04,,,30.07,0.00,30.07,,,,,,,,,,0427,2003,,,,,,,,,,,,,,,,,,,,,,,,,,,,,,,,,,,,,,,,,,,-9999,-9999,,-9999,-9999,,,,,,,7/15/17 4:13,True
WBAN:24234,SEATTLE BOEING FIELD WA US,6.1,47.53028,-122.30083,2014-07-01 16:53,FM-15,FEW:02 40 SCT:04 100,10.00,,90,32.2,66,19.1,51,10.6,26,10,320,,29.70,,,29.73,0.00,29.73,,,,,,,,,,0416,2010,,,,,,,,,,,,,,,,,,,,,,,,,,,,,,,,,,,,,,,,,,,-9999,-9999,,-9999,-9999,,,,,,,7/2/14 0:51,True
WBAN:24234,SEATTLE BOEING FIELD WA US,6.1,47.53028,-122.30083,2016-03-30 14:53,FM-15,SCT:04 150,10.00,,66,18.9,54,12.0,42,5.6,42,7,310,,30.01,,,30.04,0.00,30.04,,,,,,,,,,0550,1837,,,,,,,,,,,,,,,,,,,,,,,,,,,,,,,,,,,,,,,,,,,-9999,-9999,,-9999,-9999,,,,,,,3/30/16 22:59,True
WBAN:24234,SEATTLE BOEING FIELD WA US,6.1,47.53028,-122.30083,2014-09-30 07:53,FM-15,SCT:04 18 BKN:07 85,10.00,,57,13.9,54,12.1,51,10.6,81,7,170,,30.04,,,30.07,,30.07,,,,,,,,,,0607,1751,,,,,,,,,,,,,,,,,,,,,,,,,,,,,,,,,,,,,,,,,,,-9999,-9999,,-9999,-9999,,,,,,,9/30/14 16:13,False
WBAN:24234,SEATTLE BOEING FIELD WA US,6.1,47.53028,-122.30083,2014-07-17 11:53,FM-15,SCT:04 28,10.00,,71,21.7,61,15.9,53,11.7,53,7,220,,30.00,,,30.03,0.00,30.03,,,,,,,,,,0429,2001,,,,,,,,,,,,,,,,,,,,,,,,,,,,,,,,,,,,,,,,,,,-9999,-9999,,-9999,-9999,,,,,,,7/17/14 19:57,False
WBAN:24234,SEATTLE BOEING FIELD WA US,6.1,47.53028,-122.30083,2014-09-25 10:53,FM-15,FEW:02 48 OVC:08 90,10.00,,64,17.8,59,15.2,56,13.3,75,6,130,,29.84,,,29.87,T,29.87,,,,,,,,,,0600,1801,,,,,,,,,,,,,,,,,,,,,,,,,,,,,,,,,,,,,,,,,,,-9999,-9999,,-9999,-9999,,,,,,,9/25/14 19:03,False
WBAN:24234,SEATTLE BOEING FIELD WA US,6.1,47.53028,-122.30083,2017-12-05 11:53,FM-15,CLR:00,10.00,,43,6.1,39,4.0,34,1.1,71,7,040,,30.62,,,30.65,0.00,30.65,,,,,,,,,,0741,1619,,,,,,,,,,,,,,,,,,,,,,,,,,,,,,,,,,,,,,,,,,,-9999,-9999,,-9999,-9999,,,,,,,12/5/17 18:56,True
WBAN:24234,SEATTLE BOEING FIELD WA US,6.1,47.53028,-122.30083,2014-06-18 13:53,FM-15,BKN:07 32,10.00,,64,17.8,55,13.0,48,8.9,56,9,230,,30.06,,,30.09,0.00,30.09,,,,,,,,,,0411,2009,,,,,,,,,,,,,,,,,,,,,,,,,,,,,,,,,,,,,,,,,,,-9999,-9999,,-9999,-9999,,,,,,,6/18/14 22:05,False
WBAN:24234,SEATTLE BOEING FIELD WA US,6.1,47.53028,-122.30083,2016-10-02 13:53,FM-15,SCT:04 90,10.00,,64,17.8,54,12.5,46,7.8,52,5,330,,29.87,,,29.90,0.00,29.90,,,,,,,,,,0611,1745,,,,,,,,,,,,,,,,,,,,,,,,,,,,,,,,,,,,,,,,,,,-9999,-9999,,-9999,-9999,,,,,,,10/2/16 22:21,False
WBAN:24234,SEATTLE BOEING FIELD WA US,6.1,47.53028,-122.30083,2016-04-08 07:53,FM-15,BKN:07 250,10.00,,58,14.4,54,12.4,51,10.6,78,0,000,,29.88,,,29.91,0.00,29.91,,,,,,,,,,0532,1850,,,,,,,,,,,,,,,,,,,,,,,,,,,,,,,,,,,,,,,,,,,-9999,-9999,,-9999,-9999,,,,,,,4/8/16 16:02,True
WBAN:24234,SEATTLE BOEING FIELD WA US,6.1,47.53028,-122.30083,2017-06-25 09:53,FM-15,FEW:02 250,10.00,,80,26.7,65,18.6,56,13.3,44,7,310,,29.87,8,,29.90,0.00,29.90,,,,,,,,,,0413,2011,,,,,,,,,,,,,,,,,,,,,,,,,,,,,,,,,,,,,,,,,,,-9999,-9999,,-9999,-9999,,,,,,,6/25/17 17:32,True
WBAN:24234,SEATTLE BOEING FIELD WA US,6.1,47.53028,-122.30083,2016-05-06 13:53,FM-15,CLR:00,10.00,,73,22.8,57,14.1,44,6.7,35,14,300,20,29.98,,,30.01,0.00,30.01,,,,,,,,,,0443,1929,,,,,,,,,,,,,,,,,,,,,,,,,,,,,,,,,,,,,,,,,,,-9999,-9999,,-9999,-9999,,,,,,,5/6/16 21:28,True
WBAN:24234,SEATTLE BOEING FIELD WA US,6.1,47.53028,-122.30083,2017-11-10 17:24,FM-16,BKN:07 23,10.00,,47,8.3,44,6.8,41,5.0,80,3,130,,29.93,,,,,29.96,,,,,,,,,,0708,1638,,,,,,,,,,,,,,,,,,,,,,,,,,,,,,,,,,,,,,,,,,,-9999,-9999,,-9999,-9999,,,,,,,11/11/17 1:13,False
WBAN:24234,SEATTLE BOEING FIELD WA US,6.1,47.53028,-122.30083,2015-03-13 13:53,FM-15,OVC:08 250,10.00,,65,18.3,53,11.8,42,5.6,43,3,350,,29.99,,,30.03,0.00,30.02,,,,,,,,,,0627,1812,,,,,,,,,,,,,,,,,,,,,,,,,,,,,,,,,,,,,,,,,,,-9999,-9999,,-9999,-9999,,,,,,,3/13/15 21:44,True
WBAN:24234,SEATTLE BOEING FIELD WA US,6.1,47.53028,-122.30083,2017-09-03 17:53,FM-15,SCT:04 140 BKN:07 200,10.00,,84,28.9,68,19.9,58,14.4,41,5,310,,29.94,,,29.97,0.00,29.97,,,,,,,,,,0532,1844,,,,,,,,,,,,,,,,,,,,,,,,,,,,,,,,,,,,,,,,,,,-9999,-9999,,-9999,-9999,,,,,,,9/4/17 2:30,True
WBAN:24234,SEATTLE BOEING FIELD WA US,6.1,47.53028,-122.30083,2014-06-07 12:53,FM-15,SCT:04 38,10.00,,72,22.2,59,15.1,49,9.4,44,5,360,,30.14,8,,30.17,0.00,30.17,,,,,,,,,,0413,2004,,,,,,,,,,,,,,,,,,,,,,,,,,,,,,,,,,,,,,,,,,,-9999,-9999,,-9999,-9999,,,,,,,6/7/14 20:18,False
WBAN:24234,SEATTLE BOEING FIELD WA US,6.1,47.53028,-122.30083,2015-02-08 15:53,FM-15,OVC:08 150,10.00,,59,15.0,51,10.5,43,6.1,56,3,030,,29.69,8,,29.72,0.00,29.72,,,,,,,,,,0726,1722,,,,,,,,,,,,,,,,,,,,,,,,,,,,,,,,,,,,,,,,,,,-9999,-9999,,-9999,-9999,,,,,,,2/9/15 0:04,False
WBAN:24234,SEATTLE BOEING FIELD WA US,6.1,47.53028,-122.30083,2016-12-24 15:53,FM-15,SCT:04 29 OVC:08 35,10.00,,38,3.3,37,2.6,35,1.7,89,0,000,,29.95,3,,29.98,0.00,29.98,,,,,,,,,,0756,1623,,,,,,,,,,,,,,,,,,,,,,,,,,,,,,,,,,,,,,,,,,,-9999,-9999,,-9999,-9999,,,,,,,12/25/16 0:02,False
WBAN:24234,SEATTLE BOEING FIELD WA US,6.1,47.53028,-122.30083,2014-05-12 09:53,FM-15,CLR:00,10.00,,65,18.3,56,13.3,48,8.9,54,6,330,,30.32,8,,30.35,0.00,30.35,,,,,,,,,,0436,1936,,,,,,,,,,,,,,,,,,,,,,,,,,,,,,,,,,,,,,,,,,,-9999,-9999,,-9999,-9999,,,,,,,5/12/14 17:37,True
WBAN:24234,SEATTLE BOEING FIELD WA US,6.1,47.53028,-122.30083,2014-08-19 09:53,FM-15,CLR:00,10.00,,77,25.0,66,18.8,59,15.0,54,3,240,,29.80,6,,29.83,0.00,29.83,,,,,,,,,,0510,1914,,,,,,,,,,,,,,,,,,,,,,,,,,,,,,,,,,,,,,,,,,,-9999,-9999,,-9999,-9999,,,,,,,8/19/14 19:03,False
WBAN:24234,SEATTLE BOEING FIELD WA US,6.1,47.53028,-122.30083,2014-10-27 07:53,FM-15,FEW:02 15 SCT:04 35 OVC:08 150,10.00,,48,8.9,46,7.6,43,6.1,83,5,130,,30.11,,,30.14,0.00,30.14,,,,,,,,,,0645,1700,,,,,,,,,,,,,,,,,,,,,,,,,,,,,,,,,,,,,,,,,,,-9999,-9999,,-9999,-9999,,,,,,,10/27/14 16:18,True
WBAN:24234,SEATTLE BOEING FIELD WA US,6.1,47.53028,-122.30083,2015-01-26 11:53,FM-15,CLR:00,10.00,,60,15.6,53,11.5,46,7.8,60,7,150,,29.92,,,29.95,0.00,29.95,,,,,,,,,,0743,1701,,,,,,,,,,,,,,,,,,,,,,,,,,,,,,,,,,,,,,,,,,,-9999,-9999,,-9999,-9999,,,,,,,1/26/15 19:24,True
WBAN:24234,SEATTLE BOEING FIELD WA US,6.1,47.53028,-122.30083,2017-06-27 16:53,FM-15,SCT:04 250,10.00,,70,21.1,61,16.3,55,12.8,59,0,000,,29.94,,,29.97,0.00,29.97,,,,,,,,,,0414,2011,,,,,,,,,,,,,,,,,,,,,,,,,,,,,,,,,,,,,,,,,,,-9999,-9999,,-9999,-9999,,,,,,,6/28/17 0:56,True
WBAN:24234,SEATTLE BOEING FIELD WA US,6.1,47.53028,-122.30083,2016-10-01 14:53,FM-15,BKN:07 40,10.00,,62,16.7,54,12.3,47,8.3,58,11,180,22,29.94,,,29.97,T,29.97,,,,,,,,,,0609,1747,,,,,,,,,,,,,,,,,,,,,,,,,,,,,,,,,,,,,,,,,,,-9999,-9999,,-9999,-9999,,,,,,,10/1/16 22:17,False
WBAN:24234,SEATTLE BOEING FIELD WA US,6.1,47.53028,-122.30083,2016-02-06 17:53,FM-15,SCT:04 45,10.00,,46,7.8,43,6.3,40,4.4,79,0,000,,30.44,,,30.47,0.00,30.47,,,,,,,,,,0728,1720,,,,,,,,,,,,,,,,,,,,,,,,,,,,,,,,,,,,,,,,,,,-9999,-9999,,-9999,-9999,,,,,,,2/7/16 1:38,False
WBAN:24234,SEATTLE BOEING FIELD WA US,6.1,47.53028,-122.30083,2017-06-16 11:53,FM-15,FEW:02 39 BKN:07 100,10.00,,63,17.2,57,13.8,52,11.1,68,9,190,,30.04,,,30.07,0.00,30.07,,,,,,,,,,0411,2009,,,,,,,,,,,,,,,,,,,,,,,,,,,,,,,,,,,,,,,,,,,-9999,-9999,,-9999,-9999,,,,,,,6/16/17 21:04,False
WBAN:24234,SEATTLE BOEING FIELD WA US,6.1,47.53028,-122.30083,2014-05-12 14:53,FM-15,SCT:04 200,10.00,,76,24.4,55,12.6,33,0.6,21,8,280,,30.26,,,30.30,0.00,30.29,,,,,,,,,,0436,1936,,,,,,,,,,,,,,,,,,,,,,,,,,,,,,,,,,,,,,,,,,,-9999,-9999,,-9999,-9999,,,,,,,5/12/14 22:16,True
WBAN:24234,SEATTLE BOEING FIELD WA US,6.1,47.53028,-122.30083,2015-08-01 16:53,FM-15,CLR:00,10.00,,90,32.2,63,17.2,42,5.6,19,10,300,,29.87,,,29.90,0.00,29.90,,,,,,,,,,0448,1942,,,,,,,,,,,,,,,,,,,,,,,,,,,,,,,,,,,,,,,,,,,-9999,-9999,,-9999,-9999,,,,,,,8/2/15 0:27,True
WBAN:24234,SEATTLE BOEING FIELD WA US,6.1,47.53028,-122.30083,2016-10-05 07:53,FM-15,FEW:02 35 OVC:08 55,10.00,,55,12.8,53,11.6,51,10.6,87,0,000,,29.85,,,29.88,0.01,29.88,,,,,,,,,,0615,1739,,,,,,,,,,,,,,,,,,,,,,,,,,,,,,,,,,,,,,,,,,,-9999,-9999,,-9999,-9999,,,,,,,10/5/16 16:18,False
WBAN:24234,SEATTLE BOEING FIELD WA US,6.1,47.53028,-122.30083,2014-05-21 14:53,FM-15,SCT:04 90 BKN:07 250,10.00,,68,20.0,58,14.2,49,9.4,51,0,000,,30.13,,,30.16,0.00,30.16,,,,,,,,,,0425,1947,,,,,,,,,,,,,,,,,,,,,,,,,,,,,,,,,,,,,,,,,,,-9999,-9999,,-9999,-9999,,,,,,,5/21/14 22:25,False
WBAN:24234,SEATTLE BOEING FIELD WA US,6.1,47.53028,-122.30083,2015-01-30 16:53,FM-15,CLR:00,8.00,,47,8.3,44,6.5,40,4.4,77,0,000,,30.24,,,30.27,0.00,30.27,,,,,,,,,,0737,1709,,,,,,,,,,,,,,,,,,,,,,,,,,,,,,,,,,,,,,,,,,,-9999,-9999,,-9999,-9999,,,,,,,1/31/15 1:02,True
WBAN:24234,SEATTLE BOEING FIELD WA US,6.1,47.53028,-122.30083,2014-07-19 07:53,FM-15,BKN:07 13,10.00,,66,18.9,61,16.0,57,13.9,73,9,170,,30.02,,,30.05,0.00,30.05,,,,,,,,,,0431,1959,,,,,,,,,,,,,,,,,,,,,,,,,,,,,,,,,,,,,,,,,,,-9999,-9999,,-9999,-9999,,,,,,,7/19/14 16:05,False
WBAN:24234,SEATTLE BOEING FIELD WA US,6.1,47.53028,-122.30083,2014-09-12 11:53,FM-15,CLR:00,10.00,,73,22.8,54,12.4,36,2.2,26,9,310,17,29.98,,,30.01,0.00,30.01,,,,,,,,,,0542,1828,,,,,,,,,,,,,,,,,,,,,,,,,,,,,,,,,,,,,,,,,,,-9999,-9999,,-9999,-9999,,,,,,,9/12/14 19:32,True
WBAN:24234,SEATTLE BOEING FIELD WA US,6.1,47.53028,-122.30083,2017-08-07 12:53,FM-15,CLR:00,8.00,FU:3 |HZ:04 FU:05 |,77,25.0,67,19.4,61,16.1,58,8,310,,29.94,8,,29.97,0.00,29.97,,,,,,,,,,0454,1935,,,,,,,,,,,,,,,,,,,,,,,,,,,,,,,,,,,,,,,,,,,-9999,-9999,,-9999,-9999,,,,,,,8/7/17 21:23,False
WBAN:24234,SEATTLE BOEING FIELD WA US,6.1,47.53028,-122.30083,2017-10-23 07:53,FM-15,SCT:04 90,10.00,,50,10.0,48,8.9,46,7.8,86,5,140,,30.58,,,30.61,0.00,30.61,,,,,,,,,,0639,1707,,,,,,,,,,,,,,,,,,,,,,,,,,,,,,,,,,,,,,,,,,,-9999,-9999,,-9999,-9999,,,,,,,10/23/17 16:16,False
WBAN:24234,SEATTLE BOEING FIELD WA US,6.1,47.53028,-122.30083,2016-02-27 16:53,FM-15,BKN:07 85,10.00,,56,13.3,49,9.5,42,5.6,60,10,200,,30.09,,,30.12,0.00,30.12,,,,,,,,,,0652,1753,,,,,,,,,,,,,,,,,,,,,,,,,,,,,,,,,,,,,,,,,,,-9999,-9999,,-9999,-9999,,,,,,,2/28/16 1:13,False
WBAN:24234,SEATTLE BOEING FIELD WA US,6.1,47.53028,-122.30083,2015-01-11 10:53,FM-15,SCT:04 7 OVC:08 40,3.00,HZ:7 |FU:05 |HZ:05,50,10.0,48,8.6,45,7.2,83,0,000,,30.12,,,30.15,T,30.15,,,,,,,,,,0755,1640,,,,,,,,,,,,,,,,,,,,,,,,,,,,,,,,,,,,,,,,,,,-9999,-9999,,-9999,-9999,,,,,,,1/11/15 19:14,False
WBAN:24234,SEATTLE BOEING FIELD WA US,6.1,47.53028,-122.30083,2014-06-01 13:53,FM-15,CLR:00,10.00,,68,20.0,58,14.5,50,10.0,53,0,000,,30.02,,,30.05,0.00,30.05,,,,,,,,,,0416,1959,,,,,,,,,,,,,,,,,,,,,,,,,,,,,,,,,,,,,,,,,,,-9999,-9999,,-9999,-9999,,,,,,,6/1/14 22:05,True
WBAN:24234,SEATTLE BOEING FIELD WA US,6.1,47.53028,-122.30083,2014-09-16 11:53,FM-15,CLR:00,10.00,,72,22.2,62,16.7,55,12.8,55,3,170,,29.86,,,29.89,0.00,29.89,,,,,,,,,,0548,1820,,,,,,,,,,,,,,,,,,,,,,,,,,,,,,,,,,,,,,,,,,,-9999,-9999,,-9999,-9999,,,,,,,9/16/14 20:47,False
WBAN:24234,SEATTLE BOEING FIELD WA US,6.1,47.53028,-122.30083,2014-05-27 08:53,FM-15,SCT:04 33 BKN:07 65 BKN:07 200,10.00,,61,16.1,52,11.0,43,6.1,52,6,100,,30.13,,,30.16,0.00,30.16,,,,,,,,,,0420,1954,,,,,,,,,,,,,,,,,,,,,,,,,,,,,,,,,,,,,,,,,,,-9999,-9999,,-9999,-9999,,,,,,,5/27/14 16:05,False
WBAN:24234,SEATTLE BOEING FIELD WA US,6.1,47.53028,-122.30083,2017-02-13 08:53,FM-15,CLR:00,10.00,,41,5.0,39,4.0,37,2.8,86,5,020,,30.26,,,30.30,0.00,30.29,,,,,,,,,,0718,1729,,,,,,,,,,,,,,,,,,,,,,,,,,,,,,,,,,,,,,,,,,,-9999,-9999,,-9999,-9999,,,,,,,2/13/17 17:53,True
WBAN:24234,SEATTLE BOEING FIELD WA US,6.1,47.53028,-122.30083,2014-07-14 12:53,FM-15,CLR:00,10.00,,76,24.4,65,18.4,58,14.4,54,8,290,,30.08,8,,30.11,0.00,30.11,,,,,,,,,,0426,2003,,,,,,,,,,,,,,,,,,,,,,,,,,,,,,,,,,,,,,,,,,,-9999,-9999,,-9999,-9999,,,,,,,7/14/14 20:34,True
WBAN:24234,SEATTLE BOEING FIELD WA US,6.1,47.53028,-122.30083,2017-11-18 10:53,FM-15,BKN:07 150,10.00,,50,10.0,45,7.2,39,3.9,66,6,150,,30.24,,,30.27,0.00,30.27,,,,,,,,,,0718,1630,,,,,,,,,,,,,,,,,,,,,,,,,,,,,,,,,,,,,,,,,,,-9999,-9999,,-9999,-9999,,,,,,,11/18/17 18:45,True
WBAN:24234,SEATTLE BOEING FIELD WA US,6.1,47.53028,-122.30083,2014-07-06 13:21,FM-16,FEW:02 80,10.00,,82,28.0,68,19.8,59,15.0,45,7,260,,30.10,,,,,30.13,,,,,,,,,,0419,2008,,,,,,,,,,,,,,,,,,,,,,,,,,,,,,,,,,,,,,,,,,,-9999,-9999,,-9999,-9999,,,,,,,7/6/14 22:05,True
WBAN:24234,SEATTLE BOEING FIELD WA US,6.1,47.53028,-122.30083,2014-06-19 07:53,FM-15,BKN:07 15 BKN:07 60,10.00,,62,16.7,56,13.6,52,11.1,70,8,160,,30.00,,,30.03,0.00,30.03,,,,,,,,,,0411,2010,,,,,,,,,,,,,,,,,,,,,,,,,,,,,,,,,,,,,,,,,,,-9999,-9999,,-9999,-9999,,,,,,,6/19/14 16:05,False
WBAN:24234,SEATTLE BOEING FIELD WA US,6.1,47.53028,-122.30083,2016-02-24 15:53,FM-15,FEW:02 55 BKN:07 70 OVC:08 90,10.00,,58,14.4,48,8.9,37,2.8,46,5,190,,30.17,3,,30.20,0.00,30.20,,,,,,,,,,0659,1746,,,,,,,,,,,,,,,,,,,,,,,,,,,,,,,,,,,,,,,,,,,-9999,-9999,,-9999,-9999,,,,,,,2/24/16 23:38,False
WBAN:24234,SEATTLE BOEING FIELD WA US,6.1,47.53028,-122.30083,2016-11-22 11:53,FM-15,BKN:07 60 OVC:08 110,10.00,,53,11.7,47,8.2,40,4.4,61,5,160,,29.86,,,29.89,0.00,29.89,,,,,,,,,,0726,1625,,,,,,,,,,,,,,,,,,,,,,,,,,,,,,,,,,,,,,,,,,,-9999,-9999,,-9999,-9999,,,,,,,11/22/16 20:12,False
WBAN:24234,SEATTLE BOEING FIELD WA US,6.1,47.53028,-122.30083,2016-01-04 14:53,FM-15,SCT:04 6 OVC:08 9,4.00,HZ:7 |FU:05 |HZ:05,39,3.9,37,2.5,33,0.6,79,0,000,,29.67,,,29.70,0.00,29.70,,,,,,,,,,0757,1632,,,,,,,,,,,,,,,,,,,,,,,,,,,,,,,,,,,,,,,,,,,-9999,-9999,,-9999,-9999,,,,,,,1/4/16 22:36,False
WBAN:24234,SEATTLE BOEING FIELD WA US,6.1,47.53028,-122.30083,2014-05-20 07:53,FM-15,CLR:00,10.00,,60,15.6,54,12.3,49,9.4,67,5,050,,30.09,,,30.12,0.00,30.12,,,,,,,,,,0426,1946,,,,,,,,,,,,,,,,,,,,,,,,,,,,,,,,,,,,,,,,,,,-9999,-9999,,-9999,-9999,,,,,,,5/20/14 16:12,True
WBAN:24234,SEATTLE BOEING FIELD WA US,6.1,47.53028,-122.30083,2015-01-22 12:51,FM-16,OVC:08 33,10.00,,50,10.0,48,8.6,45,7.0,82,6,120,,30.31,,,,,30.34,,,,,,,,,,0747,1655,,,,,,,,,,,,,,,,,,,,,,,,,,,,,,,,,,,,,,,,,,,-9999,-9999,,-9999,-9999,,,,,,,1/22/15 20:32,False
WBAN:24234,SEATTLE BOEING FIELD WA US,6.1,47.53028,-122.30083,2017-12-09 11:37,FM-16,OVC:08 3,1.00,BR:1 ||,35,1.7,35,1.7,35,1.7,100,0,000,,30.42,,,,,30.45,,,,,,,,,,0745,1618,,,,,,,,,,,,,,,,,,,,,,,,,,,,,,,,,,,,,,,,,,,-9999,-9999,,-9999,-9999,,,,,,,12/9/17 19:37,True
WBAN:24234,SEATTLE BOEING FIELD WA US,6.1,47.53028,-122.30083,2017-01-03 16:53,FM-15,CLR:00,10.00,,32,0.0,27,-2.8,16,-8.9,52,6,360,,30.26,,,30.30,0.00,30.29,,,,,,,,,,0757,1632,,,,,,,,,,,,,,,,,,,,,,,,,,,,,,,,,,,,,,,,,,,-9999,-9999,,-9999,-9999,,,,,,,1/4/17 0:34,True
WBAN:24234,SEATTLE BOEING FIELD WA US,6.1,47.53028,-122.30083,2014-10-22 08:53,FM-15,FEW:02 23 BKN:07 28 OVC:08 43,3.00,RA:02 |RA:62 |,59,15.0,56,13.5,54,12.2,83,7,160,,29.69,,,29.72,0.05,29.72,,,,,,,,,,0638,1709,,,,,,,,,,,,,,,,,,,,,,,,,,,,,,,,,,,,,,,,,,,-9999,-9999,,-9999,-9999,,,,,,,10/22/14 16:52,False
WBAN:24234,SEATTLE BOEING FIELD WA US,6.1,47.53028,-122.30083,2014-12-21 14:53,FM-15,BKN:07 24 BKN:07 110 OVC:08 220,10.00,,57,13.9,51,10.5,45,7.2,64,6,230,16,29.98,,,30.01,0.00,30.01,,,,,,,,,,0754,1620,,,,,,,,,,,,,,,,,,,,,,,,,,,,,,,,,,,,,,,,,,,-9999,-9999,,-9999,-9999,,,,,,,12/21/14 22:30,False
WBAN:24234,SEATTLE BOEING FIELD WA US,6.1,47.53028,-122.30083,2014-05-17 08:53,FM-15,FEW:02 20 BKN:07 47,10.00,,60,15.6,54,12.3,49,9.4,67,3,220,,29.98,,,30.01,0.00,30.01,,,,,,,,,,0430,1942,,,,,,,,,,,,,,,,,,,,,,,,,,,,,,,,,,,,,,,,,,,-9999,-9999,,-9999,-9999,,,,,,,5/17/14 16:58,False
WBAN:24234,SEATTLE BOEING FIELD WA US,6.1,47.53028,-122.30083,2017-04-21 15:53,FM-15,CLR:00,10.00,,65,18.3,54,12.0,43,6.1,45,9,320,,30.11,6,,30.14,0.00,30.14,,,,,,,,,,0510,1907,,,,,,,,,,,,,,,,,,,,,,,,,,,,,,,,,,,,,,,,,,,-9999,-9999,,-9999,-9999,,,,,,,4/22/17 0:10,True
WBAN:24234,SEATTLE BOEING FIELD WA US,6.1,47.53028,-122.30083,2014-07-31 13:53,FM-15,CLR:00,10.00,,84,28.9,65,18.5,53,11.7,34,9,310,,30.02,,,30.05,0.00,30.05,,,,,,,,,,0445,1945,,,,,,,,,,,,,,,,,,,,,,,,,,,,,,,,,,,,,,,,,,,-9999,-9999,,-9999,-9999,,,,,,,7/31/14 22:05,True
WBAN:24234,SEATTLE BOEING FIELD WA US,6.1,47.53028,-122.30083,2014-12-17 12:53,FM-15,OVC:08 65,10.00,,51,10.6,46,7.9,41,5.0,69,0,000,,29.81,0,,29.84,0.00,29.84,,,,,,,,,,0752,1619,,,,,,,,,,,,,,,,,,,,,,,,,,,,,,,,,,,,,,,,,,,-9999,-9999,,-9999,-9999,,,,,,,12/17/14 20:59,False
WBAN:24234,SEATTLE BOEING FIELD WA US,6.1,47.53028,-122.30083,2014-09-01 10:53,FM-15,SCT:04 26,10.00,,69,20.6,60,15.5,53,11.7,57,6,220,,30.06,,,30.09,0.00,30.09,,,,,,,,,,0528,1850,,,,,,,,,,,,,,,,,,,,,,,,,,,,,,,,,,,,,,,,,,,-9999,-9999,,-9999,-9999,,,,,,,9/1/14 19:08,False
WBAN:24234,SEATTLE BOEING FIELD WA US,6.1,47.53028,-122.30083,2016-11-08 13:53,FM-15,FEW:02 100,10.00,,71,21.7,60,15.6,52,11.1,51,6,180,,30.01,,,30.04,0.00,30.04,,,,,,,,,,0705,1640,,,,,,,,,,,,,,,,,,,,,,,,,,,,,,,,,,,,,,,,,,,-9999,-9999,,-9999,-9999,,,,,,,11/8/16 22:15,True
WBAN:24234,SEATTLE BOEING FIELD WA US,6.1,47.53028,-122.30083,2014-05-13 08:53,FM-15,CLR:00,10.00,,67,19.4,56,13.5,47,8.3,49,6,320,,30.34,,,30.37,0.00,30.37,,,,,,,,,,0435,1937,,,,,,,,,,,,,,,,,,,,,,,,,,,,,,,,,,,,,,,,,,,-9999,-9999,,-9999,-9999,,,,,,,5/13/14 16:03,True
WBAN:24234,SEATTLE BOEING FIELD WA US,6.1,47.53028,-122.30083,2016-02-10 11:53,FM-15,OVC:08 40,10.00,-RA:02 |RA:61 |,51,10.6,51,10.6,51,10.6,100,7,140,,30.21,,,30.24,0.03,30.24,,,,,,,,,,0723,1725,,,,,,,,,,,,,,,,,,,,,,,,,,,,,,,,,,,,,,,,,,,-9999,-9999,,-9999,-9999,,,,,,,2/10/16 19:39,False
WBAN:24234,SEATTLE BOEING FIELD WA US,6.1,47.53028,-122.30083,2017-06-19 14:53,FM-15,CLR:00,10.00,,68,20.0,62,16.7,58,14.4,70,10,330,,29.97,,,30.00,0.00,30.00,,,,,,,,,,0411,2010,,,,,,,,,,,,,,,,,,,,,,,,,,,,,,,,,,,,,,,,,,,-9999,-9999,,-9999,-9999,,,,,,,6/19/17 22:26,True
WBAN:24234,SEATTLE BOEING FIELD WA US,6.1,47.53028,-122.30083,2017-12-14 12:53,FM-15,SCT:04 120 BKN:07 250,10.00,,49,9.4,44,6.7,38,3.3,66,0,000,,30.27,8,,30.30,0.00,30.30,,,,,,,,,,0750,1618,,,,,,,,,,,,,,,,,,,,,,,,,,,,,,,,,,,,,,,,,,,-9999,-9999,,-9999,-9999,,,,,,,12/14/17 20:38,True
WBAN:24234,SEATTLE BOEING FIELD WA US,6.1,47.53028,-122.30083,2014-12-18 11:53,FM-15,BKN:07 60 OVC:08 70,7.00,-RA:02 |RA:61 |,49,9.4,46,7.6,42,5.6,77,3,120,,29.85,,,29.88,0.02,29.88,,,,,,,,,,0753,1619,,,,,,,,,,,,,,,,,,,,,,,,,,,,,,,,,,,,,,,,,,,-9999,-9999,,-9999,-9999,,,,,,,12/18/14 19:33,False
WBAN:24234,SEATTLE BOEING FIELD WA US,6.1,47.53028,-122.30083,2017-09-10 15:53,FM-15,FEW:02 250,10.00,,73,22.8,59,15.1,48,8.9,41,10,330,,30.23,8,,30.26,0.00,30.26,,,,,,,,,,0540,1832,,,,,,,,,,,,,,,,,,,,,,,,,,,,,,,,,,,,,,,,,,,-9999,-9999,,-9999,-9999,,,,,,,9/10/17 23:26,True
WBAN:24234,SEATTLE BOEING FIELD WA US,6.1,47.53028,-122.30083,2017-10-10 14:53,FM-15,BKN:07 35 BKN:07 75,10.00,,58,14.4,52,11.3,47,8.3,67,5,310,,29.86,,,29.89,0.00,29.89,,,,,,,,,,0621,1731,,,,,,,,,,,,,,,,,,,,,,,,,,,,,,,,,,,,,,,,,,,-9999,-9999,,-9999,-9999,,,,,,,10/10/17 22:37,False
WBAN:24234,SEATTLE BOEING FIELD WA US,6.1,47.53028,-122.30083,2016-06-29 17:53,FM-15,CLR:00,10.00,,73,22.8,64,17.8,58,14.4,59,7,100,,30.11,,,30.14,0.00,30.14,,,,,,,,,,0416,2010,,,,,,,,,,,,,,,,,,,,,,,,,,,,,,,,,,,,,,,,,,,-9999,-9999,,-9999,-9999,,,,,,,6/30/16 0:50,True
WBAN:24234,SEATTLE BOEING FIELD WA US,6.1,47.53028,-122.30083,2014-05-31 12:53,FM-15,CLR:00,10.00,,73,22.8,59,14.8,47,8.3,40,7,030,,30.03,8,,30.06,0.00,30.06,,,,,,,,,,0417,1958,,,,,,,,,,,,,,,,,,,,,,,,,,,,,,,,,,,,,,,,,,,-9999,-9999,,-9999,-9999,,,,,,,5/31/14 22:06,True
WBAN:24234,SEATTLE BOEING FIELD WA US,6.1,47.53028,-122.30083,2017-01-02 15:53,FM-15,FEW:02 30 BKN:07 90,10.00,,35,1.7,29,-1.5,18,-7.8,50,0,000,,30.04,3,,30.07,0.00,30.07,,,,,,,,,,0757,1630,,,,,,,,,,,,,,,,,,,,,,,,,,,,,,,,,,,,,,,,,,,-9999,-9999,,-9999,-9999,,,,,,,1/3/17 0:21,False
WBAN:24234,SEATTLE BOEING FIELD WA US,6.1,47.53028,-122.30083,2015-02-14 16:53,FM-15,FEW:02 20,10.00,,57,13.9,51,10.5,45,7.2,64,8,310,,30.36,,,30.39,0.00,30.39,,,,,,,,,,0715,1733,,,,,,,,,,,,,,,,,,,,,,,,,,,,,,,,,,,,,,,,,,,-9999,-9999,,-9999,-9999,,,,,,,2/15/15 1:01,True
WBAN:24234,SEATTLE BOEING FIELD WA US,6.1,47.53028,-122.30083,2014-06-12 08:48,FM-16,BKN:07 21 BKN:07 60,10.00,,63,17.0,57,13.8,52,11.0,68,9,170,,29.83,,,,,29.86,,,,,,,,,,0411,2007,,,,,,,,,,,,,,,,,,,,,,,,,,,,,,,,,,,,,,,,,,,-9999,-9999,,-9999,-9999,,,,,,,6/12/14 16:12,False
WBAN:24234,SEATTLE BOEING FIELD WA US,6.1,47.53028,-122.30083,2016-01-07 13:53,FM-15,BKN:07 11 OVC:08 90,10.00,,45,7.2,43,6.0,40,4.4,83,3,040,,29.92,,,29.95,0.00,29.95,,,,,,,,,,0756,1635,,,,,,,,,,,,,,,,,,,,,,,,,,,,,,,,,,,,,,,,,,,-9999,-9999,,-9999,-9999,,,,,,,1/7/16 22:23,False
WBAN:24234,SEATTLE BOEING FIELD WA US,6.1,47.53028,-122.30083,2014-07-22 10:53,FM-15,OVC:08 80,10.00,,65,18.3,58,14.6,53,11.7,66,0,000,,30.04,,,30.07,0.00,30.07,,,,,,,,,,0435,1956,,,,,,,,,,,,,,,,,,,,,,,,,,,,,,,,,,,,,,,,,,,-9999,-9999,,-9999,-9999,,,,,,,7/22/14 19:03,False
WBAN:24234,SEATTLE BOEING FIELD WA US,6.1,47.53028,-122.30083,2014-06-11 07:53,FM-15,CLR:00,10.00,,63,17.2,56,13.3,50,10.0,63,0,000,,30.01,,,30.04,0.00,30.04,,,,,,,,,,0412,2006,,,,,,,,,,,,,,,,,,,,,,,,,,,,,,,,,,,,,,,,,,,-9999,-9999,,-9999,-9999,,,,,,,6/11/14 16:09,True
WBAN:24234,SEATTLE BOEING FIELD WA US,6.1,47.53028,-122.30083,2017-10-19 12:53,FM-15,FEW:02 32 BKN:07 60 OVC:08 70,10.00,-RA:02 |RA:61 |,54,12.2,53,11.6,52,11.1,93,15,150,,29.49,8,,29.52,0.03,29.52,,,,,,,,,,0634,1714,,,,,,,,,,,,,,,,,,,,,,,,,,,,,,,,,,,,,,,,,,,-9999,-9999,,-9999,-9999,,,,,,,10/19/17 21:05,False
WBAN:24234,SEATTLE BOEING FIELD WA US,6.1,47.53028,-122.30083,2016-09-28 05:53,FM-15,FEW:02 25 BKN:07 200,10.00,,55,12.8,51,10.8,48,8.9,77,0,000,,30.09,,,30.12,0.00,30.12,,,,,,,,,,0605,1753,,,,,,,,,,,,,,,,,,,,,,,,,,,,,,,,,,,,,,,,,,,-9999,-9999,,-9999,-9999,,,,,,,9/28/16 14:25,False
WBAN:24234,SEATTLE BOEING FIELD WA US,6.1,47.53028,-122.30083,2014-07-06 13:21,FM-16,FEW:02 80,10.00,,82,28.0,68,19.8,59,15.0,45,7,260,,30.10,,,,,30.13,,,,,,,,,,0419,2008,,,,,,,,,,,,,,,,,,,,,,,,,,,,,,,,,,,,,,,,,,,-9999,-9999,,-9999,-9999,,,,,,,7/6/14 22:06,True
WBAN:24234,SEATTLE BOEING FIELD WA US,6.1,47.53028,-122.30083,2014-05-28 10:53,FM-15,FEW:02 30 SCT:04 50 BKN:07 200,10.00,,63,17.2,55,12.5,47,8.3,56,7,170,,30.08,,,30.11,0.00,30.11,,,,,,,,,,0419,1955,,,,,,,,,,,,,,,,,,,,,,,,,,,,,,,,,,,,,,,,,,,-9999,-9999,,-9999,-9999,,,,,,,5/28/14 19:08,False
WBAN:24234,SEATTLE BOEING FIELD WA US,6.1,47.53028,-122.30083,2017-01-01 15:53,FM-15,FEW:02 14 BKN:07 80,10.00,,35,1.7,34,1.2,33,0.6,93,7,060,,29.69,3,,29.72,0.00,29.72,,,,,,,,,,0757,1629,,,,,,,,,,,,,,,,,,,,,,,,,,,,,,,,,,,,,,,,,,,-9999,-9999,,-9999,-9999,,,,,,,1/2/17 0:22,False
WBAN:24234,SEATTLE BOEING FIELD WA US,6.1,47.53028,-122.30083,2017-02-25 13:53,FM-15,FEW:02 30 OVC:08 50,10.00,,42,5.6,38,3.3,32,0.0,68,3,140,,30.14,,,30.17,0.00,30.17,,,,,,,,,,0657,1748,,,,,,,,,,,,,,,,,,,,,,,,,,,,,,,,,,,,,,,,,,,-9999,-9999,,-9999,-9999,,,,,,,2/25/17 21:32,False
WBAN:24234,SEATTLE BOEING FIELD WA US,6.1,47.53028,-122.30083,2014-06-25 08:53,FM-15,SCT:04 13,10.00,,66,18.9,60,15.7,56,13.3,70,7,320,,29.93,,,29.96,0.00,29.96,,,,,,,,,,0413,2011,,,,,,,,,,,,,,,,,,,,,,,,,,,,,,,,,,,,,,,,,,,-9999,-9999,,-9999,-9999,,,,,,,6/25/14 16:59,False
WBAN:24234,SEATTLE BOEING FIELD WA US,6.1,47.53028,-122.30083,2014-05-09 12:53,FM-15,SCT:04 40 BKN:07 55,10.00,,57,13.9,51,10.5,45,7.2,64,9,190,,29.89,0,,29.92,0.04,29.92,,,,,,,,,,0440,1932,,,,,,,,,,,,,,,,,,,,,,,,,,,,,,,,,,,,,,,,,,,-9999,-9999,,-9999,-9999,,,,,,,5/9/14 20:31,False
WBAN:24234,SEATTLE BOEING FIELD WA US,6.1,47.53028,-122.30083,2014-07-26 11:53,FM-15,CLR:00,10.00,,74,23.3,61,16.3,52,11.1,46,7,290,,30.13,,,30.16,0.00,30.16,,,,,,,,,,0439,1951,,,,,,,,,,,,,,,,,,,,,,,,,,,,,,,,,,,,,,,,,,,-9999,-9999,,-9999,-9999,,,,,,,7/26/14 19:57,True
WBAN:24234,SEATTLE BOEING FIELD WA US,6.1,47.53028,-122.30083,2017-10-23 23:53,FM-15,CLR:00,10.00,,49,9.4,48,8.6,46,7.8,90,0,000,,30.58,,,30.61,0.00,30.61,64,48,56,4.8,,,,9,0,0641,1705,,,,,,,,,,,,,,,,,,,,,,,,,,,,,,,,,,,,,,,,,,,-9999,-9999,,-9999,-9999,,,,,,,10/24/17 7:34,True
WBAN:24234,SEATTLE BOEING FIELD WA US,6.1,47.53028,-122.30083,2014-09-24 08:46,FM-16,OVC:08 50,3.00,RA:02 |RA:62 |,63,17.0,60,15.3,57,14.0,83,6,190,,29.77,,,,0.10,29.80,,,,,,,,,,0558,1803,,,,,,,,,,,,,,,,,,,,,,,,,,,,,,,,,,,,,,,,,,,-9999,-9999,,-9999,-9999,,,,,,,9/24/14 16:46,False
WBAN:24234,SEATTLE BOEING FIELD WA US,6.1,47.53028,-122.30083,2017-12-20 17:53,FM-15,CLR:00,10.00,,40,4.4,35,1.7,27,-2.8,60,3,360,,30.36,,,30.39,0.00,30.39,,,,,,,,,,0754,1620,,,,,,,,,,,,,,,,,,,,,,,,,,,,,,,,,,,,,,,,,,,-9999,-9999,,-9999,-9999,,,,,,,12/21/17 1:26,True
WBAN:24234,SEATTLE BOEING FIELD WA US,6.1,47.53028,-122.30083,2017-12-01 07:53,FM-15,BKN:07 65 OVC:08 160,10.00,,42,5.6,40,4.3,37,2.8,82,9,140,,30.04,,,30.07,0.00,30.07,,,,,,,,,,0736,1620,,,,,,,,,,,,,,,,,,,,,,,,,,,,,,,,,,,,,,,,,,,-9999,-9999,,-9999,-9999,,,,,,,12/1/17 15:33,True
WBAN:24234,SEATTLE BOEING FIELD WA US,6.1,47.53028,-122.30083,2016-02-15 18:53,FM-15,OVC:08 35,10.00,-RA:02 |RA:61 |,55,12.8,51,10.5,47,8.3,74,10,180,20,29.96,,,29.99,T,29.99,,,,,,,,,,0713,1734,,,,,,,,,,,,,,,,,,,,,,,,,,,,,,,,,,,,,,,,,,,-9999,-9999,,-9999,-9999,,,,,,,2/15/16 21:32,False
WBAN:24234,SEATTLE BOEING FIELD WA US,6.1,47.53028,-122.30083,2017-07-17 09:53,FM-15,SCT:04 29,10.00,,67,19.4,60,15.3,54,12.2,63,7,080,,30.08,8,,30.11,0.00,30.11,,,,,,,,,,0429,2001,,,,,,,,,,,,,,,,,,,,,,,,,,,,,,,,,,,,,,,,,,,-9999,-9999,,-9999,-9999,,,,,,,7/17/17 18:51,True
WBAN:24234,SEATTLE BOEING FIELD WA US,6.1,47.53028,-122.30083,2014-06-05 07:53,FM-15,OVC:08 16,10.00,,58,14.4,53,11.8,49,9.4,72,3,220,,30.15,,,30.18,0.00,30.18,,,,,,,,,,0414,2002,,,,,,,,,,,,,,,,,,,,,,,,,,,,,,,,,,,,,,,,,,,-9999,-9999,,-9999,-9999,,,,,,,6/5/14 16:02,False
WBAN:24234,SEATTLE BOEING FIELD WA US,6.1,47.53028,-122.30083,2014-06-26 08:53,FM-15,SCT:04 15 BKN:07 50 OVC:08 100,10.00,,63,17.2,58,14.4,54,12.2,73,10,170,16,29.79,,,29.82,0.00,29.82,,,,,,,,,,0413,2011,,,,,,,,,,,,,,,,,,,,,,,,,,,,,,,,,,,,,,,,,,,-9999,-9999,,-9999,-9999,,,,,,,6/26/14 16:38,False
WBAN:24234,SEATTLE BOEING FIELD WA US,6.1,47.53028,-122.30083,2014-05-15 09:53,FM-15,BKN:07 250,10.00,,73,22.8,61,16.1,52,11.1,48,3,240,,30.00,8,,30.03,0.00,30.03,,,,,,,,,,0432,1940,,,,,,,,,,,,,,,,,,,,,,,,,,,,,,,,,,,,,,,,,,,-9999,-9999,,-9999,-9999,,,,,,,5/15/14 19:32,True
WBAN:24234,SEATTLE BOEING FIELD WA US,6.1,47.53028,-122.30083,2016-03-01 14:53,FM-15,SCT:04 26 BKN:07 48 OVC:08 90,10.00,-RA:02 |RA:61 |,54,12.2,50,10.2,47,8.3,77,17,190,34,29.58,,,29.61,0.01,29.61,,,,,,,,,,0648,1756,,,,,,,,,,,,,,,,,,,,,,,,,,,,,,,,,,,,,,,,,,,-9999,-9999,,-9999,-9999,,,,,,,3/1/16 23:20,False
WBAN:24234,SEATTLE BOEING FIELD WA US,6.1,47.53028,-122.30083,2017-01-05 10:53,FM-15,CLR:00,10.00,,30,-1.1,27,-3.0,20,-6.7,66,7,140,,30.30,,,30.33,0.00,30.33,,,,,,,,,,0757,1633,,,,,,,,,,,,,,,,,,,,,,,,,,,,,,,,,,,,,,,,,,,-9999,-9999,,-9999,-9999,,,,,,,1/5/17 19:21,True
WBAN:24234,SEATTLE BOEING FIELD WA US,6.1,47.53028,-122.30083,2014-07-04 07:53,FM-15,FEW:02 45,10.00,,64,17.8,55,13.0,48,8.9,56,3,350,,30.02,,,30.05,0.00,30.05,,,,,,,,,,0418,2009,,,,,,,,,,,,,,,,,,,,,,,,,,,,,,,,,,,,,,,,,,,-9999,-9999,,-9999,-9999,,,,,,,7/4/14 16:07,True
WBAN:24234,SEATTLE BOEING FIELD WA US,6.1,47.53028,-122.30083,2016-12-17 09:53,FM-15,BKN:07 75,10.00,,27,-2.8,25,-3.9,21,-6.1,78,5,150,,30.39,3,,30.42,0.00,30.42,,,,,,,,,,0753,1619,,,,,,,,,,,,,,,,,,,,,,,,,,,,,,,,,,,,,,,,,,,-9999,-9999,,-9999,-9999,,,,,,,12/17/16 17:54,True
WBAN:24234,SEATTLE BOEING FIELD WA US,6.1,47.53028,-122.30083,2014-07-03 13:53,FM-15,OVC:08 40,10.00,,71,21.7,59,15.1,50,10.0,47,5,210,,30.07,,,30.10,0.00,30.10,,,,,,,,,,0417,2010,,,,,,,,,,,,,,,,,,,,,,,,,,,,,,,,,,,,,,,,,,,-9999,-9999,,-9999,-9999,,,,,,,7/3/14 22:05,False
WBAN:24234,SEATTLE BOEING FIELD WA US,6.1,47.53028,-122.30083,2014-05-09 15:53,FM-15,SCT:04 80 SCT:04 100,10.00,,56,13.3,50,10.0,44,6.7,65,13,160,,29.91,0,,29.94,T,29.94,,,,,,,,,,0440,1932,,,,,,,,,,,,,,,,,,,,,,,,,,,,,,,,,,,,,,,,,,,-9999,-9999,,-9999,-9999,,,,,,,5/9/14 23:49,False
WBAN:24234,SEATTLE BOEING FIELD WA US,6.1,47.53028,-122.30083,2016-02-17 14:53,FM-15,BKN:07 70 OVC:08 85,9.00,-RA:02 |RA:61 |,54,12.2,52,11.0,50,10.0,87,0,000,,29.24,,,29.27,0.02,29.27,,,,,,,,,,0712,1736,,,,,,,,,,,,,,,,,,,,,,,,,,,,,,,,,,,,,,,,,,,-9999,-9999,,-9999,-9999,,,,,,,2/17/16 22:37,False
WBAN:24234,SEATTLE BOEING FIELD WA US,6.1,47.53028,-122.30083,2014-12-17 08:53,FM-15,OVC:08 48,10.00,-RA:02 |RA:61 |,47,8.3,45,7.0,42,5.6,83,0,000,,29.80,,,29.83,0.02,29.83,,,,,,,,,,0752,1619,,,,,,,,,,,,,,,,,,,,,,,,,,,,,,,,,,,,,,,,,,,-9999,-9999,,-9999,-9999,,,,,,,12/17/14 17:19,False
WBAN:24234,SEATTLE BOEING FIELD WA US,6.1,47.53028,-122.30083,2016-08-29 16:53,FM-15,SCT:04 200,10.00,,81,27.2,65,18.2,54,12.2,39,7,200,,29.93,,,29.96,0.00,29.96,,,,,,,,,,0526,1852,,,,,,,,,,,,,,,,,,,,,,,,,,,,,,,,,,,,,,,,,,,-9999,-9999,,-9999,-9999,,,,,,,8/30/16 0:39,True
WBAN:24234,SEATTLE BOEING FIELD WA US,6.1,47.53028,-122.30083,2014-08-22 14:53,FM-15,FEW:02 35,10.00,,75,23.9,62,16.8,53,11.7,46,9,320,18,30.01,,,30.04,0.00,30.04,,,,,,,,,,0514,1909,,,,,,,,,,,,,,,,,,,,,,,,,,,,,,,,,,,,,,,,,,,-9999,-9999,,-9999,-9999,,,,,,,8/22/14 22:40,False
WBAN:24234,SEATTLE BOEING FIELD WA US,6.1,47.53028,-122.30083,2017-10-05 16:53,FM-15,CLR:00,10.00,,67,19.4,55,12.7,44,6.7,44,5,310,,30.08,,,30.12,0.00,30.11,,,,,,,,,,0615,1739,,,,,,,,,,,,,,,,,,,,,,,,,,,,,,,,,,,,,,,,,,,-9999,-9999,,-9999,-9999,,,,,,,10/6/17 0:25,True
WBAN:24234,SEATTLE BOEING FIELD WA US,6.1,47.53028,-122.30083,2016-04-26 13:53,FM-15,SCT:04 45 BKN:07 200,10.00,,59,15.0,50,9.8,40,4.4,49,3,270,,30.03,,,30.06,0.00,30.06,,,,,,,,,,0459,1915,,,,,,,,,,,,,,,,,,,,,,,,,,,,,,,,,,,,,,,,,,,-9999,-9999,,-9999,-9999,,,,,,,4/26/16 22:23,False
WBAN:24234,SEATTLE BOEING FIELD WA US,6.1,47.53028,-122.30083,2014-05-29 14:53,FM-15,SCT:04 55 BKN:07 75,10.00,,66,18.9,55,12.7,45,7.2,47,10,280,,30.18,,,30.21,0.00,30.21,,,,,,,,,,0418,1956,,,,,,,,,,,,,,,,,,,,,,,,,,,,,,,,,,,,,,,,,,,-9999,-9999,,-9999,-9999,,,,,,,5/29/14 23:00,False
WBAN:24234,SEATTLE BOEING FIELD WA US,6.1,47.53028,-122.30083,2016-02-07 14:53,FM-15,BKN:07 55 OVC:08 200,10.00,,49,9.4,44,6.9,39,3.9,69,6,320,,30.52,,,30.55,0.00,30.55,,,,,,,,,,0728,1720,,,,,,,,,,,,,,,,,,,,,,,,,,,,,,,,,,,,,,,,,,,-9999,-9999,,-9999,-9999,,,,,,,2/7/16 22:38,True
WBAN:24234,SEATTLE BOEING FIELD WA US,6.1,47.53028,-122.30083,2016-02-26 13:53,FM-15,BKN:07 60 BKN:07 75 OVC:08 90,10.00,,60,15.6,51,10.8,43,6.1,53,7,140,,29.91,,,29.94,0.00,29.94,,,,,,,,,,0656,1749,,,,,,,,,,,,,,,,,,,,,,,,,,,,,,,,,,,,,,,,,,,-9999,-9999,,-9999,-9999,,,,,,,2/26/16 21:36,False
WBAN:24234,SEATTLE BOEING FIELD WA US,6.1,47.53028,-122.30083,2017-10-07 12:53,FM-15,SCT:04 44 BKN:07 55 BKN:07 90,10.00,,61,16.1,52,11.3,44,6.7,54,10,190,20,29.93,8,,29.96,0.00,29.96,,,,,,,,,,0616,1737,,,,,,,,,,,,,,,,,,,,,,,,,,,,,,,,,,,,,,,,,,,-9999,-9999,,-9999,-9999,,,,,,,10/7/17 20:52,False
WBAN:24234,SEATTLE BOEING FIELD WA US,6.1,47.53028,-122.30083,2016-07-29 17:53,FM-15,CLR:00,10.00,,86,30.0,66,18.6,52,11.1,31,7,300,,29.84,,,29.87,0.00,29.87,,,,,,,,,,0445,1945,,,,,,,,,,,,,,,,,,,,,,,,,,,,,,,,,,,,,,,,,,,-9999,-9999,,-9999,-9999,,,,,,,7/30/16 2:34,True
WBAN:24234,SEATTLE BOEING FIELD WA US,6.1,47.53028,-122.30083,2015-01-25 16:53,FM-15,CLR:00,10.00,,58,14.4,53,11.8,49,9.4,72,3,320,,30.02,,,30.05,0.00,30.05,,,,,,,,,,0743,1701,,,,,,,,,,,,,,,,,,,,,,,,,,,,,,,,,,,,,,,,,,,-9999,-9999,,-9999,-9999,,,,,,,1/26/15 1:00,True
WBAN:24234,SEATTLE BOEING FIELD WA US,6.1,47.53028,-122.30083,2017-07-19 14:53,FM-15,SCT:04 200,10.00,,77,25.0,62,16.6,51,10.6,40,7,340,,29.99,,,30.03,0.00,30.02,,,,,,,,,,0431,1959,,,,,,,,,,,,,,,,,,,,,,,,,,,,,,,,,,,,,,,,,,,-9999,-9999,,-9999,-9999,,,,,,,7/19/17 22:59,True
WBAN:24234,SEATTLE BOEING FIELD WA US,6.1,47.53028,-122.30083,2014-08-20 09:10,FM-16,BKN:07 28 BKN:07 60,10.00,,66,19.0,58,14.5,52,11.0,60,10,170,,29.93,,,,,29.96,,,,,,,,,,0512,1913,,,,,,,,,,,,,,,,,,,,,,,,,,,,,,,,,,,,,,,,,,,-9999,-9999,,-9999,-9999,,,,,,,8/20/14 17:29,False
WBAN:24234,SEATTLE BOEING FIELD WA US,6.1,47.53028,-122.30083,2014-05-30 10:53,FM-15,FEW:02 29,10.00,,65,18.3,55,13.0,47,8.3,52,7,320,,30.05,,,30.08,0.00,30.08,,,,,,,,,,0417,1957,,,,,,,,,,,,,,,,,,,,,,,,,,,,,,,,,,,,,,,,,,,-9999,-9999,,-9999,-9999,,,,,,,5/30/14 19:03,False
WBAN:24234,SEATTLE BOEING FIELD WA US,6.1,47.53028,-122.30083,2017-10-15 13:53,FM-15,FEW:02 200,10.00,,60,15.6,52,11.0,44,6.7,56,6,300,,30.22,,,30.25,0.00,30.25,,,,,,,,,,0628,1721,,,,,,,,,,,,,,,,,,,,,,,,,,,,,,,,,,,,,,,,,,,-9999,-9999,,-9999,-9999,,,,,,,10/15/17 21:44,True
WBAN:24234,SEATTLE BOEING FIELD WA US,6.1,47.53028,-122.30083,2017-01-15 13:53,FM-15,BKN:07 180,9.00,,42,5.6,38,3.1,31,-0.6,65,0,000,,30.24,,,30.27,0.00,30.27,,,,,,,,,,0753,1645,,,,,,,,,,,,,,,,,,,,,,,,,,,,,,,,,,,,,,,,,,,-9999,-9999,,-9999,-9999,,,,,,,1/15/17 21:30,True
WBAN:24234,SEATTLE BOEING FIELD WA US,6.1,47.53028,-122.30083,2016-04-07 16:53,FM-15,CLR:00,10.00,,76,24.4,62,16.4,51,10.6,42,7,320,,29.83,,,29.86,0.00,29.86,,,,,,,,,,0532,1850,,,,,,,,,,,,,,,,,,,,,,,,,,,,,,,,,,,,,,,,,,,-9999,-9999,,-9999,-9999,,,,,,,4/8/16 0:41,True
WBAN:24234,SEATTLE BOEING FIELD WA US,6.1,47.53028,-122.30083,2014-09-30 13:53,FM-15,SCT:04 32 OVC:08 75,10.00,,66,18.9,56,13.5,48,8.9,52,0,000,,30.06,,,30.09,0.00,30.09,,,,,,,,,,0607,1751,,,,,,,,,,,,,,,,,,,,,,,,,,,,,,,,,,,,,,,,,,,-9999,-9999,,-9999,-9999,,,,,,,9/30/14 22:35,False
WBAN:24234,SEATTLE BOEING FIELD WA US,6.1,47.53028,-122.30083,2014-06-09 08:05,FM-16,SCT:04 20 BKN:07 60,10.00,,63,17.0,56,13.3,50,10.0,64,0,000,,30.13,,,,,30.16,,,,,,,,,,0412,2005,,,,,,,,,,,,,,,,,,,,,,,,,,,,,,,,,,,,,,,,,,,-9999,-9999,,-9999,-9999,,,,,,,6/9/14 16:05,False
WBAN:24234,SEATTLE BOEING FIELD WA US,6.1,47.53028,-122.30083,2016-04-06 07:53,FM-15,CLR:00,10.00,,51,10.6,46,7.9,41,5.0,69,0,000,,30.44,,,30.47,0.00,30.47,,,,,,,,,,0536,1847,,,,,,,,,,,,,,,,,,,,,,,,,,,,,,,,,,,,,,,,,,,-9999,-9999,,-9999,-9999,,,,,,,4/6/16 15:32,True
WBAN:24234,SEATTLE BOEING FIELD WA US,6.1,47.53028,-122.30083,2016-08-04 14:53,FM-15,FEW:02 75,10.00,,79,26.1,63,17.0,51,10.6,38,11,310,21,29.94,,,29.98,0.00,29.97,,,,,,,,,,0452,1938,,,,,,,,,,,,,,,,,,,,,,,,,,,,,,,,,,,,,,,,,,,-9999,-9999,,-9999,-9999,,,,,,,8/4/16 23:00,True
WBAN:24234,SEATTLE BOEING FIELD WA US,6.1,47.53028,-122.30083,2014-12-20 19:53,FM-15,BKN:07 18 OVC:08 23,10.00,,58,14.4,55,12.6,52,11.1,81,14,170,28,29.43,,,29.46,T,29.46,,,,,,,,,,0754,1620,,,,,,,,,,,,,,,,,,,,,,,,,,,,,,,,,,,,,,,,,,,-9999,-9999,,-9999,-9999,,,,,,,12/21/14 4:22,False
WBAN:24234,SEATTLE BOEING FIELD WA US,6.1,47.53028,-122.30083,2014-08-06 14:53,FM-15,SCT:04 25 SCT:04 250,10.00,,79,26.1,64,17.8,54,12.2,42,0,000,,30.06,,,30.10,0.00,30.09,,,,,,,,,,0453,1936,,,,,,,,,,,,,,,,,,,,,,,,,,,,,,,,,,,,,,,,,,,-9999,-9999,,-9999,-9999,,,,,,,8/6/14 22:24,False
WBAN:24234,SEATTLE BOEING FIELD WA US,6.1,47.53028,-122.30083,2016-04-11 14:53,FM-15,OVC:08 49,10.00,,57,13.9,50,9.8,42,5.6,58,6,240,,30.07,,,30.10,0.00,30.10,,,,,,,,,,0527,1854,,,,,,,,,,,,,,,,,,,,,,,,,,,,,,,,,,,,,,,,,,,-9999,-9999,,-9999,-9999,,,,,,,4/11/16 23:22,False
WBAN:24234,SEATTLE BOEING FIELD WA US,6.1,47.53028,-122.30083,2015-01-29 16:53,FM-15,CLR:00,10.00,,51,10.6,45,7.5,39,3.9,64,5,290,,30.27,,,30.30,0.00,30.30,,,,,,,,,,0738,1707,,,,,,,,,,,,,,,,,,,,,,,,,,,,,,,,,,,,,,,,,,,-9999,-9999,,-9999,-9999,,,,,,,1/30/15 0:59,True
WBAN:24234,SEATTLE BOEING FIELD WA US,6.1,47.53028,-122.30083,2014-05-21 08:53,FM-15,BKN:07 21 OVC:08 32,10.00,,58,14.4,52,11.3,47,8.3,67,0,000,,30.16,,,30.19,0.00,30.19,,,,,,,,,,0425,1947,,,,,,,,,,,,,,,,,,,,,,,,,,,,,,,,,,,,,,,,,,,-9999,-9999,,-9999,-9999,,,,,,,5/21/14 16:18,False
WBAN:24234,SEATTLE BOEING FIELD WA US,6.1,47.53028,-122.30083,2014-09-04 08:53,FM-15,CLR:00,10.00,,64,17.8,57,13.8,51,10.6,63,7,360,,30.12,,,30.15,0.00,30.15,,,,,,,,,,0532,1844,,,,,,,,,,,,,,,,,,,,,,,,,,,,,,,,,,,,,,,,,,,-9999,-9999,,-9999,-9999,,,,,,,9/4/14 16:26,True
WBAN:24234,SEATTLE BOEING FIELD WA US,6.1,47.53028,-122.30083,2014-07-17 16:53,FM-15,FEW:02 250,10.00,,81,27.2,64,17.7,52,11.1,37,7,250,,29.93,,,29.96,0.00,29.96,,,,,,,,,,0430,2000,,,,,,,,,,,,,,,,,,,,,,,,,,,,,,,,,,,,,,,,,,,-9999,-9999,,-9999,-9999,,,,,,,7/17/14 23:58,False
WBAN:24234,SEATTLE BOEING FIELD WA US,6.1,47.53028,-122.30083,2014-11-28 10:53,FM-15,BKN:07 8 BKN:07 15 OVC:08 21,3.00,RA:02 |RA:62 |,47,8.3,45,7.0,42,5.6,83,7,010,,29.49,,,29.52,0.19,29.52,,,,,,,,,,0732,1622,,,,,,,,,,,,,,,,,,,,,,,,,,,,,,,,,,,,,,,,,,,-9999,-9999,,-9999,-9999,,,,,,,11/28/14 19:07,False
WBAN:24234,SEATTLE BOEING FIELD WA US,6.1,47.53028,-122.30083,2017-07-18 09:53,FM-15,CLR:00,10.00,,72,22.2,61,15.9,52,11.1,50,8,310,,29.99,8,,30.02,0.00,30.02,,,,,,,,,,0430,2000,,,,,,,,,,,,,,,,,,,,,,,,,,,,,,,,,,,,,,,,,,,-9999,-9999,,-9999,-9999,,,,,,,7/18/17 19:22,True
WBAN:24234,SEATTLE BOEING FIELD WA US,6.1,47.53028,-122.30083,2016-08-17 15:53,FM-15,CLR:00,10.00,,79,26.1,64,17.6,53,11.7,41,8,300,,29.98,6,,30.01,0.00,30.01,,,,,,,,,,0509,1916,,,,,,,,,,,,,,,,,,,,,,,,,,,,,,,,,,,,,,,,,,,-9999,-9999,,-9999,-9999,,,,,,,8/17/16 23:04,True
WBAN:24234,SEATTLE BOEING FIELD WA US,6.1,47.53028,-122.30083,2015-03-12 11:53,FM-15,SCT:04 35 BKN:07 210,10.00,,63,17.2,55,12.5,47,8.3,56,9,190,,30.40,,,30.43,0.00,30.43,,,,,,,,,,0629,1810,,,,,,,,,,,,,,,,,,,,,,,,,,,,,,,,,,,,,,,,,,,-9999,-9999,,-9999,-9999,,,,,,,3/12/15 19:56,False
WBAN:24234,SEATTLE BOEING FIELD WA US,6.1,47.53028,-122.30083,2015-02-01 14:53,FM-15,SCT:04 9 BKN:07 12 BKN:07 27,10.00,,50,10.0,47,8.4,44,6.7,80,10,150,17,30.00,,,30.03,T,30.03,,,,,,,,,,0736,1711,,,,,,,,,,,,,,,,,,,,,,,,,,,,,,,,,,,,,,,,,,,-9999,-9999,,-9999,-9999,,,,,,,2/1/15 23:10,False
WBAN:24234,SEATTLE BOEING FIELD WA US,6.1,47.53028,-122.30083,2017-07-10 13:53,FM-15,SCT:04 39 BKN:07 180,10.00,,70,21.1,62,16.5,56,13.3,61,10,200,,30.02,,,30.06,0.00,30.05,,,,,,,,,,0422,2006,,,,,,,,,,,,,,,,,,,,,,,,,,,,,,,,,,,,,,,,,,,-9999,-9999,,-9999,-9999,,,,,,,7/10/17 22:36,False
WBAN:24234,SEATTLE BOEING FIELD WA US,6.1,47.53028,-122.30083,2014-10-01 13:53,FM-15,FEW:02 25 SCT:04 200,10.00,,66,18.9,56,13.5,48,8.9,52,7,240,,30.15,,,30.18,0.00,30.18,,,,,,,,,,0608,1749,,,,,,,,,,,,,,,,,,,,,,,,,,,,,,,,,,,,,,,,,,,-9999,-9999,,-9999,-9999,,,,,,,10/1/14 21:23,False
WBAN:24234,SEATTLE BOEING FIELD WA US,6.1,47.53028,-122.30083,2014-12-03 14:53,FM-15,SCT:04 150 BKN:07 250,10.00,,47,8.3,40,4.6,31,-0.6,54,6,300,,29.74,,,29.78,0.00,29.77,,,,,,,,,,0738,1619,,,,,,,,,,,,,,,,,,,,,,,,,,,,,,,,,,,,,,,,,,,-9999,-9999,,-9999,-9999,,,,,,,12/3/14 23:04,True
WBAN:24234,SEATTLE BOEING FIELD WA US,6.1,47.53028,-122.30083,2014-05-05 14:53,FM-15,FEW:02 19 SCT:04 27 OVC:08 42,10.00,-RA:02 |RA:61 |,57,13.9,54,12.1,51,10.6,81,0,000,,29.97,,,30.00,0.04,30.00,,,,,,,,,,0446,1926,,,,,,,,,,,,,,,,,,,,,,,,,,,,,,,,,,,,,,,,,,,-9999,-9999,,-9999,-9999,,,,,,,5/5/14 22:51,False
WBAN:24234,SEATTLE BOEING FIELD WA US,6.1,47.53028,-122.30083,2017-07-08 19:53,FM-15,CLR:00,10.00,,70,21.1,61,16.3,55,12.8,59,6,310,,29.99,,,30.02,0.00,30.02,,,,,,,,,,0422,2007,,,,,,,,,,,,,,,,,,,,,,,,,,,,,,,,,,,,,,,,,,,-9999,-9999,,-9999,-9999,,,,,,,7/9/17 4:23,True
WBAN:24234,SEATTLE BOEING FIELD WA US,6.1,47.53028,-122.30083,2017-12-24 15:53,FM-15,OVC:08 14,0.75,-SN:03 BR:1 |SN:71 |,33,0.6,32,-0.1,30,-1.1,89,7,150,,30.19,3,,30.22,0.01,30.22,,,,,,,,,,0756,1622,,,,,,,,,,,,,,,,,,,,,,,,,,,,,,,,,,,,,,,,,,,-9999,-9999,,-9999,-9999,,,,,,,12/24/17 23:54,False
WBAN:24234,SEATTLE BOEING FIELD WA US,6.1,47.53028,-122.30083,2017-06-06 06:53,FM-15,CLR:00,10.00,,59,15.0,54,12.1,49,9.4,69,0,000,,29.97,8,,30.00,0.00,30.00,,,,,,,,,,0413,2003,,,,,,,,,,,,,,,,,,,,,,,,,,,,,,,,,,,,,,,,,,,-9999,-9999,,-9999,-9999,,,,,,,6/6/17 16:00,True
WBAN:24234,SEATTLE BOEING FIELD WA US,6.1,47.53028,-122.30083,2014-05-24 10:53,FM-15,BKN:07 24 OVC:08 43,10.00,,62,16.7,56,13.1,50,10.0,65,6,220,,30.16,,,30.19,0.00,30.19,,,,,,,,,,0422,1950,,,,,,,,,,,,,,,,,,,,,,,,,,,,,,,,,,,,,,,,,,,-9999,-9999,,-9999,-9999,,,,,,,5/24/14 19:04,False
WBAN:24234,SEATTLE BOEING FIELD WA US,6.1,47.53028,-122.30083,2016-12-23 09:53,FM-15,SCT:04 5 BKN:07 9 OVC:08 36,5.00,-RA:02 BR:1 |RA:61 |,38,3.3,38,3.1,37,2.8,97,3,330,,29.54,3,,29.57,0.05,29.57,,,,,,,,,,0756,1622,,,,,,,,,,,,,,,,,,,,,,,,,,,,,,,,,,,,,,,,,,,-9999,-9999,,-9999,-9999,,,,,,,12/23/16 18:04,False
WBAN:24234,SEATTLE BOEING FIELD WA US,6.1,47.53028,-122.30083,2014-07-25 07:53,FM-15,SCT:04 40,10.00,,64,17.8,57,14.1,52,11.1,65,7,070,,30.13,,,30.16,,30.16,,,,,,,,,,0438,1953,,,,,,,,,,,,,,,,,,,,,,,,,,,,,,,,,,,,,,,,,,,-9999,-9999,,-9999,-9999,,,,,,,7/25/14 16:33,False
WBAN:24234,SEATTLE BOEING FIELD WA US,6.1,47.53028,-122.30083,2016-09-13 12:53,FM-15,CLR:00,10.00,,73,22.8,55,13.0,39,3.9,29,10,310,,29.98,8,,30.01,0.00,30.01,,,,,,,,,,0545,1824,,,,,,,,,,,,,,,,,,,,,,,,,,,,,,,,,,,,,,,,,,,-9999,-9999,,-9999,-9999,,,,,,,9/13/16 21:23,True
WBAN:24234,SEATTLE BOEING FIELD WA US,6.1,47.53028,-122.30083,2014-04-21 07:53,FM-15,FEW:02 40,10.00,,53,11.7,48,8.9,43,6.1,69,6,150,,30.00,,,30.03,0.00,30.03,,,,,,,,,,0510,1907,,,,,,,,,,,,,,,,,,,,,,,,,,,,,,,,,,,,,,,,,,,-9999,-9999,,-9999,-9999,,,,,,,4/21/14 16:11,False
WBAN:24234,SEATTLE BOEING FIELD WA US,6.1,47.53028,-122.30083,2015-02-21 16:53,FM-15,CLR:00,10.00,,56,13.3,47,8.2,36,2.2,47,7,350,,30.32,,,30.35,0.00,30.35,,,,,,,,,,0703,1743,,,,,,,,,,,,,,,,,,,,,,,,,,,,,,,,,,,,,,,,,,,-9999,-9999,,-9999,-9999,,,,,,,2/22/15 0:42,True
WBAN:24234,SEATTLE BOEING FIELD WA US,6.1,47.53028,-122.30083,2014-06-10 10:53,FM-15,FEW:02 27 SCT:04 33 BKN:07 100,10.00,,62,16.7,55,12.5,48,8.9,60,6,190,,30.09,,,30.12,0.00,30.12,,,,,,,,,,0412,2006,,,,,,,,,,,,,,,,,,,,,,,,,,,,,,,,,,,,,,,,,,,-9999,-9999,,-9999,-9999,,,,,,,6/10/14 19:27,False
WBAN:24234,SEATTLE BOEING FIELD WA US,6.1,47.53028,-122.30083,2014-09-17 10:53,FM-15,FEW:02 41 OVC:08 130,10.00,,69,20.6,63,17.2,59,15.0,70,0,000,,29.74,,,29.77,T,29.77,,,,,,,,,,0549,1817,,,,,,,,,,,,,,,,,,,,,,,,,,,,,,,,,,,,,,,,,,,-9999,-9999,,-9999,-9999,,,,,,,9/17/14 19:50,False
WBAN:24234,SEATTLE BOEING FIELD WA US,6.1,47.53028,-122.30083,2014-06-03 07:53,FM-15,SCT:04 15 OVC:08 18,10.00,,57,13.9,52,11.3,48,8.9,72,9,150,,30.00,,,30.03,0.00,30.03,,,,,,,,,,0415,2000,,,,,,,,,,,,,,,,,,,,,,,,,,,,,,,,,,,,,,,,,,,-9999,-9999,,-9999,-9999,,,,,,,6/3/14 16:05,False
WBAN:24234,SEATTLE BOEING FIELD WA US,6.1,47.53028,-122.30083,2016-08-12 15:53,FM-15,CLR:00,10.00,,86,30.0,68,20.0,57,13.9,37,8,300,,29.97,8,,30.00,0.00,30.00,,,,,,,,,,0502,1925,,,,,,,,,,,,,,,,,,,,,,,,,,,,,,,,,,,,,,,,,,,-9999,-9999,,-9999,-9999,,,,,,,8/13/16 0:17,True
WBAN:24234,SEATTLE BOEING FIELD WA US,6.1,47.53028,-122.30083,2017-10-26 12:40,FM-16,SCT:04 13,10.00,,56,13.3,52,11.3,49,9.4,77,7,050,,30.24,,,,,30.27,,,,,,,,,,0644,1702,,,,,,,,,,,,,,,,,,,,,,,,,,,,,,,,,,,,,,,,,,,-9999,-9999,,-9999,-9999,,,,,,,10/26/17 20:25,False
WBAN:24234,SEATTLE BOEING FIELD WA US,6.1,47.53028,-122.30083,2014-07-06 13:21,FM-16,FEW:02 80,10.00,,82,28.0,68,19.8,59,15.0,45,7,260,,30.10,,,,,30.13,,,,,,,,,,0419,2008,,,,,,,,,,,,,,,,,,,,,,,,,,,,,,,,,,,,,,,,,,,-9999,-9999,,-9999,-9999,,,,,,,7/6/14 22:05,True
WBAN:24234,SEATTLE BOEING FIELD WA US,6.1,47.53028,-122.30083,2015-01-16 13:53,FM-15,FEW:02 29 SCT:04 35,10.00,,55,12.8,48,9.0,41,5.0,59,8,190,,30.16,,,30.19,0.00,30.19,,,,,,,,,,0752,1647,,,,,,,,,,,,,,,,,,,,,,,,,,,,,,,,,,,,,,,,,,,-9999,-9999,,-9999,-9999,,,,,,,1/16/15 22:01,False
WBAN:24234,SEATTLE BOEING FIELD WA US,6.1,47.53028,-122.30083,2017-08-20 14:53,FM-15,BKN:07 150,10.00,,73,22.8,60,15.8,51,10.6,46,6,310,,30.08,,,30.11,0.00,30.11,,,,,,,,,,0512,1913,,,,,,,,,,,,,,,,,,,,,,,,,,,,,,,,,,,,,,,,,,,-9999,-9999,,-9999,-9999,,,,,,,8/20/17 22:27,True
WBAN:24234,SEATTLE BOEING FIELD WA US,6.1,47.53028,-122.30083,2014-05-14 07:53,FM-15,CLR:00,10.00,,65,18.3,56,13.5,49,9.4,56,5,090,,30.28,,,30.31,0.00,30.31,,,,,,,,,,0433,1938,,,,,,,,,,,,,,,,,,,,,,,,,,,,,,,,,,,,,,,,,,,-9999,-9999,,-9999,-9999,,,,,,,5/14/14 16:05,True
WBAN:24234,SEATTLE BOEING FIELD WA US,6.1,47.53028,-122.30083,2016-08-12 11:53,FM-15,CLR:00,10.00,,81,27.2,66,19.0,57,13.9,44,10,310,,30.03,,,30.06,0.00,30.06,,,,,,,,,,0502,1925,,,,,,,,,,,,,,,,,,,,,,,,,,,,,,,,,,,,,,,,,,,-9999,-9999,,-9999,-9999,,,,,,,8/12/16 19:29,True
WBAN:24234,SEATTLE BOEING FIELD WA US,6.1,47.53028,-122.30083,2017-07-02 13:53,FM-15,CLR:00,10.00,,71,21.7,63,17.1,57,13.9,61,8,310,,30.03,,,30.06,0.00,30.06,,,,,,,,,,0416,2010,,,,,,,,,,,,,,,,,,,,,,,,,,,,,,,,,,,,,,,,,,,-9999,-9999,,-9999,-9999,,,,,,,7/2/17 22:18,True
WBAN:24234,SEATTLE BOEING FIELD WA US,6.1,47.53028,-122.30083,2016-04-16 18:53,FM-15,FEW:02 150,10.00,,65,18.3,51,10.3,35,1.7,33,0,000,,30.24,6,,30.27,0.00,30.27,,,,,,,,,,0515,1903,,,,,,,,,,,,,,,,,,,,,,,,,,,,,,,,,,,,,,,,,,,-9999,-9999,,-9999,-9999,,,,,,,4/17/16 2:37,True
WBAN:24234,SEATTLE BOEING FIELD WA US,6.1,47.53028,-122.30083,2015-03-02 09:53,FM-15,OVC:08 24,10.00,,48,8.9,42,5.7,35,1.7,61,7,330,,30.02,1,,30.05,0.00,30.05,,,,,,,,,,0648,1756,,,,,,,,,,,,,,,,,,,,,,,,,,,,,,,,,,,,,,,,,,,-9999,-9999,,-9999,-9999,,,,,,,3/2/15 17:31,False
WBAN:24234,SEATTLE BOEING FIELD WA US,6.1,47.53028,-122.30083,2014-12-13 12:53,FM-15,SCT:04 27,10.00,,52,11.1,48,8.7,43,6.1,72,3,220,,30.19,8,,30.22,0.00,30.22,,,,,,,,,,0749,1618,,,,,,,,,,,,,,,,,,,,,,,,,,,,,,,,,,,,,,,,,,,-9999,-9999,,-9999,-9999,,,,,,,12/13/14 20:35,False
WBAN:24234,SEATTLE BOEING FIELD WA US,6.1,47.53028,-122.30083,2014-06-06 10:53,FM-15,SCT:04 250,10.00,,70,21.1,57,13.7,45,7.2,41,9,330,,30.10,,,30.13,0.00,30.13,,,,,,,,,,0413,2003,,,,,,,,,,,,,,,,,,,,,,,,,,,,,,,,,,,,,,,,,,,-9999,-9999,,-9999,-9999,,,,,,,6/6/14 19:08,True
WBAN:24234,SEATTLE BOEING FIELD WA US,6.1,47.53028,-122.30083,2016-02-25 13:53,FM-15,CLR:00,10.00,,58,14.4,50,10.0,42,5.6,56,7,310,,30.14,,,30.17,0.00,30.17,,,,,,,,,,0657,1748,,,,,,,,,,,,,,,,,,,,,,,,,,,,,,,,,,,,,,,,,,,-9999,-9999,,-9999,-9999,,,,,,,2/25/16 21:56,True
WBAN:24234,SEATTLE BOEING FIELD WA US,6.1,47.53028,-122.30083,2017-12-23 15:53,FM-15,CLR:00,10.00,,39,3.9,33,0.8,24,-4.4,55,5,020,,30.45,5,,30.48,0.00,30.48,,,,,,,,,,0755,1621,,,,,,,,,,,,,,,,,,,,,,,,,,,,,,,,,,,,,,,,,,,-9999,-9999,,-9999,-9999,,,,,,,12/24/17 0:17,True
WBAN:24234,SEATTLE BOEING FIELD WA US,6.1,47.53028,-122.30083,2016-10-28 09:53,FM-15,BKN:07 70,10.00,,60,15.6,55,12.6,50,10.0,70,3,190,,29.91,0,,29.94,0.00,29.94,,,,,,,,,,0648,1657,,,,,,,,,,,,,,,,,,,,,,,,,,,,,,,,,,,,,,,,,,,-9999,-9999,,-9999,-9999,,,,,,,10/28/16 18:13,False
WBAN:24234,SEATTLE BOEING FIELD WA US,6.1,47.53028,-122.30083,2017-07-06 12:53,FM-15,CLR:00,10.00,,79,26.1,64,17.8,54,12.2,42,6,290,,30.07,7,,30.10,0.00,30.10,,,,,,,,,,0419,2008,,,,,,,,,,,,,,,,,,,,,,,,,,,,,,,,,,,,,,,,,,,-9999,-9999,,-9999,-9999,,,,,,,7/6/17 21:33,True
WBAN:24234,SEATTLE BOEING FIELD WA US,6.1,47.53028,-122.30083,2014-10-05 10:53,FM-15,SCT:04 150,10.00,,66,18.9,60,15.4,55,12.8,68,6,330,,30.11,,,30.14,0.00,30.14,,,,,,,,,,0614,1741,,,,,,,,,,,,,,,,,,,,,,,,,,,,,,,,,,,,,,,,,,,-9999,-9999,,-9999,-9999,,,,,,,10/5/14 19:04,False
WBAN:24234,SEATTLE BOEING FIELD WA US,6.1,47.53028,-122.30083,2016-10-11 13:53,FM-15,CLR:00,10.00,,60,15.6,50,10.1,40,4.4,47,8,310,,30.15,,,30.18,0.00,30.18,,,,,,,,,,0623,1727,,,,,,,,,,,,,,,,,,,,,,,,,,,,,,,,,,,,,,,,,,,-9999,-9999,,-9999,-9999,,,,,,,10/11/16 22:04,True
WBAN:24234,SEATTLE BOEING FIELD WA US,6.1,47.53028,-122.30083,2014-10-14 07:53,FM-15,BKN:07 21 BKN:07 65 OVC:08 80,10.00,,56,13.3,53,11.9,51,10.6,84,6,130,,29.80,,,29.83,,29.83,,,,,,,,,,0626,1723,,,,,,,,,,,,,,,,,,,,,,,,,,,,,,,,,,,,,,,,,,,-9999,-9999,,-9999,-9999,,,,,,,10/14/14 16:03,False
WBAN:24234,SEATTLE BOEING FIELD WA US,6.1,47.53028,-122.30083,2014-07-12 17:53,FM-15,FEW:02 100,10.00,,87,30.6,67,19.3,54,12.2,32,8,310,,30.00,,,30.04,0.00,30.03,,,,,,,,,,0425,2004,,,,,,,,,,,,,,,,,,,,,,,,,,,,,,,,,,,,,,,,,,,-9999,-9999,,-9999,-9999,,,,,,,7/13/14 1:45,True
WBAN:24234,SEATTLE BOEING FIELD WA US,6.1,47.53028,-122.30083,2014-04-23 07:53,FM-15,SCT:04 25 SCT:04 70 BKN:07 95,10.00,,49,9.4,45,7.3,41,5.0,74,8,160,,29.88,,,29.91,0.00,29.91,,,,,,,,,,0506,1910,,,,,,,,,,,,,,,,,,,,,,,,,,,,,,,,,,,,,,,,,,,-9999,-9999,,-9999,-9999,,,,,,,4/23/14 16:15,False
WBAN:24234,SEATTLE BOEING FIELD WA US,6.1,47.53028,-122.30083,2017-12-25 16:53,FM-15,OVC:08 50,8.00,,34,1.1,34,0.9,33,0.6,97,3,170,,30.33,,,30.36,0.00,30.36,,,,,,,,,,0756,1623,,,,,,,,,,,,,,,,,,,,,,,,,,,,,,,,,,,,,,,,,,,-9999,-9999,,-9999,-9999,,,,,,,12/26/17 1:05,False
WBAN:24234,SEATTLE BOEING FIELD WA US,6.1,47.53028,-122.30083,2014-12-14 08:51,FM-16,OVC:08 2,1.00,BR:1 ||,37,3.0,37,2.5,36,2.0,93,0,000,,30.13,,,,,30.16,,,,,,,,,,0750,1618,,,,,,,,,,,,,,,,,,,,,,,,,,,,,,,,,,,,,,,,,,,-9999,-9999,,-9999,-9999,,,,,,,12/14/14 16:43,True
WBAN:24234,SEATTLE BOEING FIELD WA US,6.1,47.53028,-122.30083,2014-07-06 13:21,FM-16,FEW:02 80,10.00,,82,28.0,68,19.8,59,15.0,45,7,260,,30.10,,,,,30.13,,,,,,,,,,0419,2008,,,,,,,,,,,,,,,,,,,,,,,,,,,,,,,,,,,,,,,,,,,-9999,-9999,,-9999,-9999,,,,,,,7/6/14 22:05,True
WBAN:24234,SEATTLE BOEING FIELD WA US,6.1,47.53028,-122.30083,2015-01-09 10:53,FM-15,VV:09 2,0.25,FG:2 |FG:30 |,43,6.1,42,5.4,40,4.4,89,0,000,,30.07,,,30.10,0.00,30.10,,,,,,,,,,0756,1638,,,,,,,,,,,,,,,,,,,,,,,,,,,,,,,,,,,,,,,,,,,-9999,-9999,,-9999,-9999,,,,,,,1/9/15 18:45,False
WBAN:24234,SEATTLE BOEING FIELD WA US,6.1,47.53028,-122.30083,2014-06-15 12:53,FM-15,FEW:02 20 BKN:07 35 BKN:07 75,10.00,,64,17.8,56,13.3,49,9.4,58,0,000,,29.82,6,+0.04,29.85,,29.85,,,,,,,,,,0411,2008,,,,,,,,,,,,,,,,,,,,,,,,,,,,,,,,,,,,,,,,,,,-9999,-9999,,-9999,-9999,,,,,,,6/15/14 20:07,False
WBAN:24234,SEATTLE BOEING FIELD WA US,6.1,47.53028,-122.30083,2014-05-19 13:53,FM-15,FEW:02 30 SCT:04 60,10.00,,67,19.4,55,13.0,45,7.2,45,7,330,,29.98,,,30.01,0.00,30.01,,,,,,,,,,0427,1945,,,,,,,,,,,,,,,,,,,,,,,,,,,,,,,,,,,,,,,,,,,-9999,-9999,,-9999,-9999,,,,,,,5/19/14 22:07,False
WBAN:24234,SEATTLE BOEING FIELD WA US,6.1,47.53028,-122.30083,2016-04-09 18:53,FM-15,CLR:00,10.00,,61,16.1,52,11.3,44,6.7,54,3,190,,29.76,5,,29.79,0.00,29.79,,,,,,,,,,0528,1853,,,,,,,,,,,,,,,,,,,,,,,,,,,,,,,,,,,,,,,,,,,-9999,-9999,,-9999,-9999,,,,,,,4/10/16 1:58,True
WBAN:24234,SEATTLE BOEING FIELD WA US,6.1,47.53028,-122.30083,2016-01-28 15:53,FM-15,FEW:02 120,10.00,,54,12.2,49,9.5,44,6.7,69,13,200,21,29.96,1,,29.99,0.00,29.99,,,,,,,,,,0741,1704,,,,,,,,,,,,,,,,,,,,,,,,,,,,,,,,,,,,,,,,,,,-9999,-9999,,-9999,-9999,,,,,,,1/28/16 23:56,False
WBAN:24234,SEATTLE BOEING FIELD WA US,6.1,47.53028,-122.30083,2014-11-26 13:53,FM-15,SCT:04 40 OVC:08 50,10.00,,61,16.1,56,13.4,52,11.1,72,8,170,,30.01,,,30.04,T,30.04,,,,,,,,,,0730,1623,,,,,,,,,,,,,,,,,,,,,,,,,,,,,,,,,,,,,,,,,,,-9999,-9999,,-9999,-9999,,,,,,,11/26/14 22:14,False
WBAN:24234,SEATTLE BOEING FIELD WA US,6.1,47.53028,-122.30083,2014-07-18 17:53,FM-15,BKN:07 200,10.00,,76,24.4,62,16.7,52,11.1,43,0,000,,30.02,,,30.05,0.00,30.05,,,,,,,,,,0431,1959,,,,,,,,,,,,,,,,,,,,,,,,,,,,,,,,,,,,,,,,,,,-9999,-9999,,-9999,-9999,,,,,,,7/19/14 1:44,True
WBAN:24234,SEATTLE BOEING FIELD WA US,6.1,47.53028,-122.30083,2016-07-28 07:53,FM-15,CLR:00,10.00,,68,20.0,61,16.1,56,13.3,65,5,310,,30.11,,,30.14,0.00,30.14,,,,,,,,,,0443,1948,,,,,,,,,,,,,,,,,,,,,,,,,,,,,,,,,,,,,,,,,,,-9999,-9999,,-9999,-9999,,,,,,,7/28/16 16:17,True
WBAN:24234,SEATTLE BOEING FIELD WA US,6.1,47.53028,-122.30083,2014-07-14 14:53,FM-15,CLR:00,10.00,,83,28.3,67,19.4,57,13.9,41,7,330,,30.04,,,30.07,0.00,30.07,,,,,,,,,,0426,2003,,,,,,,,,,,,,,,,,,,,,,,,,,,,,,,,,,,,,,,,,,,-9999,-9999,,-9999,-9999,,,,,,,7/14/14 23:05,True
WBAN:24234,SEATTLE BOEING FIELD WA US,6.1,47.53028,-122.30083,2016-02-09 07:53,FM-15,VV:09 2,0.25,FG:2 |FG:30 |,40,4.4,40,4.2,39,3.9,97,5,130,,30.17,,,30.20,T,30.20,,,,,,,,,,0725,1723,,,,,,,,,,,,,,,,,,,,,,,,,,,,,,,,,,,,,,,,,,,-9999,-9999,,-9999,-9999,,,,,,,2/9/16 16:11,True
WBAN:24234,SEATTLE BOEING FIELD WA US,6.1,47.53028,-122.30083,2014-09-22 16:53,FM-15,FEW:02 35 SCT:04 110 BKN:07 200,10.00,,71,21.7,61,15.9,53,11.7,53,3,210,,29.90,,,29.93,0.00,29.93,,,,,,,,,,0557,1805,,,,,,,,,,,,,,,,,,,,,,,,,,,,,,,,,,,,,,,,,,,-9999,-9999,,-9999,-9999,,,,,,,9/23/14 1:07,False
WBAN:24234,SEATTLE BOEING FIELD WA US,6.1,47.53028,-122.30083,2016-08-05 08:53,FM-15,FEW:02 7,10.00,,67,19.4,60,15.3,54,12.2,63,6,160,,29.89,,,29.92,0.00,29.92,,,,,,,,,,0453,1936,,,,,,,,,,,,,,,,,,,,,,,,,,,,,,,,,,,,,,,,,,,-9999,-9999,,-9999,-9999,,,,,,,8/5/16 17:34,True
WBAN:24234,SEATTLE BOEING FIELD WA US,6.1,47.53028,-122.30083,2014-07-22 15:53,FM-15,BKN:07 70 OVC:08 85,10.00,,70,21.1,61,16.3,55,12.8,59,0,000,,30.02,8,,30.06,0.00,30.05,,,,,,,,,,0435,1956,,,,,,,,,,,,,,,,,,,,,,,,,,,,,,,,,,,,,,,,,,,-9999,-9999,,-9999,-9999,,,,,,,7/23/14 0:18,False
WBAN:24234,SEATTLE BOEING FIELD WA US,6.1,47.53028,-122.30083,2016-01-05 10:53,FM-15,FEW:02 7 BKN:07 50 OVC:08 85,10.00,,42,5.6,38,3.4,33,0.6,71,0,000,,29.55,,,29.59,0.00,29.58,,,,,,,,,,0757,1633,,,,,,,,,,,,,,,,,,,,,,,,,,,,,,,,,,,,,,,,,,,-9999,-9999,,-9999,-9999,,,,,,,1/5/16 19:11,False
WBAN:24234,SEATTLE BOEING FIELD WA US,6.1,47.53028,-122.30083,2015-02-04 13:53,FM-15,SCT:04 38 BKN:07 50 OVC:08 120,10.00,,51,10.6,48,8.6,44,6.7,77,0,000,,29.88,,,29.91,0.00,29.91,,,,,,,,,,0732,1715,,,,,,,,,,,,,,,,,,,,,,,,,,,,,,,,,,,,,,,,,,,-9999,-9999,,-9999,-9999,,,,,,,2/4/15 21:39,False
WBAN:24234,SEATTLE BOEING FIELD WA US,6.1,47.53028,-122.30083,2017-09-26 06:53,FM-15,BKN:07 7,10.00,,57,13.9,56,13.3,55,12.8,93,3,120,,30.16,3,,30.19,0.00,30.19,,,,,,,,,,0601,1759,,,,,,,,,,,,,,,,,,,,,,,,,,,,,,,,,,,,,,,,,,,-9999,-9999,,-9999,-9999,,,,,,,9/26/17 15:09,True
WBAN:24234,SEATTLE BOEING FIELD WA US,6.1,47.53028,-122.30083,2014-07-29 13:53,FM-15,CLR:00,10.00,,84,28.9,65,18.3,52,11.1,33,10,310,,30.06,,,30.10,0.00,30.09,,,,,,,,,,0443,1948,,,,,,,,,,,,,,,,,,,,,,,,,,,,,,,,,,,,,,,,,,,-9999,-9999,,-9999,-9999,,,,,,,7/29/14 22:13,True
WBAN:24234,SEATTLE BOEING FIELD WA US,6.1,47.53028,-122.30083,2017-07-01 17:53,FM-15,CLR:00,10.00,,72,22.2,62,16.7,55,12.8,55,5,290,,30.00,,,30.03,0.00,30.03,,,,,,,,,,0416,2010,,,,,,,,,,,,,,,,,,,,,,,,,,,,,,,,,,,,,,,,,,,-9999,-9999,,-9999,-9999,,,,,,,7/2/17 1:26,True
WBAN:24234,SEATTLE BOEING FIELD WA US,6.1,47.53028,-122.30083,2016-09-25 13:53,FM-15,SCT:04 140,10.00,,74,23.3,59,14.8,46,7.8,37,10,310,,30.32,,,30.35,0.00,30.35,,,,,,,,,,0601,1759,,,,,,,,,,,,,,,,,,,,,,,,,,,,,,,,,,,,,,,,,,,-9999,-9999,,-9999,-9999,,,,,,,9/25/16 21:38,True
WBAN:24234,SEATTLE BOEING FIELD WA US,6.1,47.53028,-122.30083,2016-11-10 13:53,FM-15,SCT:04 80 BKN:07 200,10.00,,63,17.2,58,14.4,54,12.2,73,0,000,,29.97,,,30.01,0.00,30.00,,,,,,,,,,0708,1638,,,,,,,,,,,,,,,,,,,,,,,,,,,,,,,,,,,,,,,,,,,-9999,-9999,,-9999,-9999,,,,,,,11/10/16 22:15,True
WBAN:24234,SEATTLE BOEING FIELD WA US,6.1,47.53028,-122.30083,2016-09-26 16:53,FM-15,CLR:00,10.00,,76,24.4,63,17.2,54,12.2,47,5,310,,29.97,,,30.00,0.00,30.00,,,,,,,,,,0604,1755,,,,,,,,,,,,,,,,,,,,,,,,,,,,,,,,,,,,,,,,,,,-9999,-9999,,-9999,-9999,,,,,,,9/27/16 0:40,True
WBAN:24234,SEATTLE BOEING FIELD WA US,6.1,47.53028,-122.30083,2015-02-13 11:53,FM-15,SCT:04 140 BKN:07 220,10.00,,61,16.1,55,12.6,49,9.4,65,0,000,,30.12,,,30.15,0.00,30.15,,,,,,,,,,0718,1729,,,,,,,,,,,,,,,,,,,,,,,,,,,,,,,,,,,,,,,,,,,-9999,-9999,,-9999,-9999,,,,,,,2/13/15 19:38,True
WBAN:24234,SEATTLE BOEING FIELD WA US,6.1,47.53028,-122.30083,2014-05-13 10:53,FM-15,FEW:02 250,10.00,,72,22.2,58,14.4,46,7.8,40,8,310,,30.33,,,30.37,0.00,30.36,,,,,,,,,,0435,1937,,,,,,,,,,,,,,,,,,,,,,,,,,,,,,,,,,,,,,,,,,,-9999,-9999,,-9999,-9999,,,,,,,5/13/14 19:04,True
WBAN:24234,SEATTLE BOEING FIELD WA US,6.1,47.53028,-122.30083,2014-05-22 13:53,FM-15,FEW:02 80 SCT:04 150 BKN:07 210,10.00,,75,23.9,62,16.8,53,11.7,46,6,320,,30.01,,,30.04,0.00,30.04,,,,,,,,,,0424,1948,,,,,,,,,,,,,,,,,,,,,,,,,,,,,,,,,,,,,,,,,,,-9999,-9999,,-9999,-9999,,,,,,,5/22/14 20:14,True
WBAN:24234,SEATTLE BOEING FIELD WA US,6.1,47.53028,-122.30083,2014-05-30 13:53,FM-15,FEW:02 35,10.00,,68,20.0,56,13.4,46,7.8,45,9,310,16,30.00,,,30.03,0.00,30.03,,,,,,,,,,0417,1957,,,,,,,,,,,,,,,,,,,,,,,,,,,,,,,,,,,,,,,,,,,-9999,-9999,,-9999,-9999,,,,,,,5/30/14 22:07,True
WBAN:24234,SEATTLE BOEING FIELD WA US,6.1,47.53028,-122.30083,2014-06-17 12:51,FM-16,SCT:04 29 BKN:07 44 OVC:08 50,10.00,,64,18.0,55,13.0,48,9.0,56,7,160,,30.08,,,,,30.11,,,,,,,,,,0411,2009,,,,,,,,,,,,,,,,,,,,,,,,,,,,,,,,,,,,,,,,,,,-9999,-9999,,-9999,-9999,,,,,,,6/17/14 19:35,False
WBAN:24234,SEATTLE BOEING FIELD WA US,6.1,47.53028,-122.30083,2016-08-01 17:53,FM-15,FEW:02 90,10.00,,75,23.9,62,16.8,53,11.7,46,7,290,,29.97,,,30.00,0.00,30.00,,,,,,,,,,0449,1941,,,,,,,,,,,,,,,,,,,,,,,,,,,,,,,,,,,,,,,,,,,-9999,-9999,,-9999,-9999,,,,,,,8/2/16 1:07,True
WBAN:24234,SEATTLE BOEING FIELD WA US,6.1,47.53028,-122.30083,2016-08-02 15:53,FM-15,BKN:07 42,10.00,,71,21.7,60,15.4,51,10.6,49,0,000,,30.11,6,,30.14,0.00,30.14,,,,,,,,,,0449,1941,,,,,,,,,,,,,,,,,,,,,,,,,,,,,,,,,,,,,,,,,,,-9999,-9999,,-9999,-9999,,,,,,,8/2/16 23:24,False
WBAN:24234,SEATTLE BOEING FIELD WA US,6.1,47.53028,-122.30083,2017-08-15 11:53,FM-15,CLR:00,10.00,,72,22.2,61,15.9,52,11.1,50,7,340,,29.95,,,29.98,0.00,29.98,,,,,,,,,,0505,1922,,,,,,,,,,,,,,,,,,,,,,,,,,,,,,,,,,,,,,,,,,,-9999,-9999,,-9999,-9999,,,,,,,8/15/17 19:54,True
WBAN:24234,SEATTLE BOEING FIELD WA US,6.1,47.53028,-122.30083,2014-07-11 13:53,FM-15,FEW:02 200,10.00,,85,29.4,65,18.5,52,11.1,32,8,310,,29.92,,,29.95,0.00,29.95,,,,,,,,,,0423,2006,,,,,,,,,,,,,,,,,,,,,,,,,,,,,,,,,,,,,,,,,,,-9999,-9999,,-9999,-9999,,,,,,,7/11/14 21:55,True
WBAN:24234,SEATTLE BOEING FIELD WA US,6.1,47.53028,-122.30083,2015-01-01 07:53,FM-15,CLR:00,10.00,,27,-2.8,25,-3.9,21,-6.1,78,0,000,,30.32,,,30.35,0.00,30.35,,,,,,,,,,0757,1629,,,,,,,,,,,,,,,,,,,,,,,,,,,,,,,,,,,,,,,,,,,-9999,-9999,,-9999,-9999,,,,,,,1/1/15 16:06,True
WBAN:24234,SEATTLE BOEING FIELD WA US,6.1,47.53028,-122.30083,2016-07-26 16:53,FM-15,CLR:00,10.00,,78,25.6,63,17.4,53,11.7,42,5,300,,30.06,,,30.09,0.00,30.09,,,,,,,,,,0442,1949,,,,,,,,,,,,,,,,,,,,,,,,,,,,,,,,,,,,,,,,,,,-9999,-9999,,-9999,-9999,,,,,,,7/27/16 1:04,True
WBAN:24234,SEATTLE BOEING FIELD WA US,6.1,47.53028,-122.30083,2017-12-06 11:53,FM-15,CLR:00,10.00,,50,10.0,45,7.0,38,3.3,63,0,000,,30.60,,,30.63,0.00,30.63,,,,,,,,,,0742,1618,,,,,,,,,,,,,,,,,,,,,,,,,,,,,,,,,,,,,,,,,,,-9999,-9999,,-9999,-9999,,,,,,,12/6/17 20:17,True
WBAN:24234,SEATTLE BOEING FIELD WA US,6.1,47.53028,-122.30083,2016-05-11 12:53,FM-15,CLR:00,10.00,,78,25.6,57,14.1,39,3.9,25,7,270,,29.98,6,,30.01,0.00,30.01,,,,,,,,,,0436,1936,,,,,,,,,,,,,,,,,,,,,,,,,,,,,,,,,,,,,,,,,,,-9999,-9999,,-9999,-9999,,,,,,,5/11/16 21:41,True
WBAN:24234,SEATTLE BOEING FIELD WA US,6.1,47.53028,-122.30083,2017-07-20 16:53,FM-15,SCT:04 40 SCT:04 200,10.00,,73,22.8,61,16.3,53,11.7,50,10,190,,30.07,,,30.11,0.00,30.10,,,,,,,,,,0433,1957,,,,,,,,,,,,,,,,,,,,,,,,,,,,,,,,,,,,,,,,,,,-9999,-9999,,-9999,-9999,,,,,,,7/21/17 0:17,False
WBAN:24234,SEATTLE BOEING FIELD WA US,6.1,47.53028,-122.30083,2016-02-28 14:53,FM-15,FEW:02 20 BKN:07 39 OVC:08 60,7.00,-RA:02 |RA:61 |,48,8.9,46,7.6,43,6.1,83,14,240,30,29.98,,,30.01,0.04,30.01,,,,,,,,,,0652,1753,,,,,,,,,,,,,,,,,,,,,,,,,,,,,,,,,,,,,,,,,,,-9999,-9999,,-9999,-9999,,,,,,,2/28/16 23:20,False
WBAN:24234,SEATTLE BOEING FIELD WA US,6.1,47.53028,-122.30083,2016-11-17 14:53,FM-15,FEW:02 34 SCT:04 250,10.00,,52,11.1,46,8.0,40,4.4,64,5,170,,30.14,,,30.17,0.00,30.17,,,,,,,,,,0718,1630,,,,,,,,,,,,,,,,,,,,,,,,,,,,,,,,,,,,,,,,,,,-9999,-9999,,-9999,-9999,,,,,,,11/17/16 23:06,False
WBAN:24234,SEATTLE BOEING FIELD WA US,6.1,47.53028,-122.30083,2017-01-06 07:53,FM-15,SCT:04 200,10.00,,18,-7.8,18,-7.9,17,-8.3,96,7,150,,30.06,,,30.09,0.00,30.09,,,,,,,,,,0757,1634,,,,,,,,,,,,,,,,,,,,,,,,,,,,,,,,,,,,,,,,,,,-9999,-9999,,-9999,-9999,,,,,,,1/6/17 15:53,True
WBAN:24234,SEATTLE BOEING FIELD WA US,6.1,47.53028,-122.30083,2017-12-31 14:53,FM-15,SCT:04 200,10.00,,44,6.7,39,4.1,33,0.6,65,6,030,,30.19,,,30.22,0.00,30.22,,,,,,,,,,0757,1628,,,,,,,,,,,,,,,,,,,,,,,,,,,,,,,,,,,,,,,,,,,-9999,-9999,,-9999,-9999,,,,,,,12/31/17 21:32,True
WBAN:24234,SEATTLE BOEING FIELD WA US,6.1,47.53028,-122.30083,2017-10-22 07:53,FM-15,SCT:04 20 BKN:07 40,10.00,,56,13.3,52,11.3,49,9.4,77,11,190,21,30.02,,,30.05,0.00,30.05,,,,,,,,,,0638,1709,,,,,,,,,,,,,,,,,,,,,,,,,,,,,,,,,,,,,,,,,,,-9999,-9999,,-9999,-9999,,,,,,,10/22/17 15:44,False
WBAN:24234,SEATTLE BOEING FIELD WA US,6.1,47.53028,-122.30083,2017-11-01 16:53,FM-15,BKN:07 80,10.00,,53,11.7,48,8.9,43,6.1,69,8,170,,29.76,,,29.79,0.00,29.79,,,,,,,,,,0654,1650,,,,,,,,,,,,,,,,,,,,,,,,,,,,,,,,,,,,,,,,,,,-9999,-9999,,-9999,-9999,,,,,,,11/2/17 1:12,False
WBAN:24234,SEATTLE BOEING FIELD WA US,6.1,47.53028,-122.30083,2016-01-26 13:53,FM-15,FEW:02 3 SCT:04 10 BKN:07 28,10.00,,55,12.8,54,12.2,53,11.7,93,0,000,,30.18,,,30.21,0.00,30.21,,,,,,,,,,0743,1701,,,,,,,,,,,,,,,,,,,,,,,,,,,,,,,,,,,,,,,,,,,-9999,-9999,,-9999,-9999,,,,,,,1/26/16 21:57,False
WBAN:24234,SEATTLE BOEING FIELD WA US,6.1,47.53028,-122.30083,2014-06-19 11:53,FM-15,FEW:02 20,10.00,,73,22.8,60,15.5,50,10.0,44,9,220,,29.96,,,29.99,0.00,29.99,,,,,,,,,,0411,2010,,,,,,,,,,,,,,,,,,,,,,,,,,,,,,,,,,,,,,,,,,,-9999,-9999,,-9999,-9999,,,,,,,6/19/14 19:17,True
WBAN:24234,SEATTLE BOEING FIELD WA US,6.1,47.53028,-122.30083,2015-01-01 13:53,FM-15,SCT:04 250,10.00,,43,6.1,36,2.2,25,-3.9,49,0,000,,30.24,,,30.27,0.00,30.27,,,,,,,,,,0757,1629,,,,,,,,,,,,,,,,,,,,,,,,,,,,,,,,,,,,,,,,,,,-9999,-9999,,-9999,-9999,,,,,,,1/1/15 22:07,True
WBAN:24234,SEATTLE BOEING FIELD WA US,6.1,47.53028,-122.30083,2017-05-27 14:53,FM-15,CLR:00,10.00,,83,28.3,64,17.8,51,10.6,33,8,310,,30.01,,,30.04,0.00,30.04,,,,,,,,,,0420,1954,,,,,,,,,,,,,,,,,,,,,,,,,,,,,,,,,,,,,,,,,,,-9999,-9999,,-9999,-9999,,,,,,,5/27/17 23:38,True
WBAN:24234,SEATTLE BOEING FIELD WA US,6.1,47.53028,-122.30083,2014-06-07 14:53,FM-15,CLR:00,10.00,,75,23.9,60,15.7,49,9.4,40,8,290,,30.13,,,30.16,0.00,30.16,,,,,,,,,,0413,2004,,,,,,,,,,,,,,,,,,,,,,,,,,,,,,,,,,,,,,,,,,,-9999,-9999,,-9999,-9999,,,,,,,6/7/14 23:01,True
WBAN:24234,SEATTLE BOEING FIELD WA US,6.1,47.53028,-122.30083,2017-08-25 14:53,FM-15,CLR:00,10.00,,74,23.3,59,15.3,48,8.9,40,9,300,,30.02,,,30.05,0.00,30.05,,,,,,,,,,0518,1903,,,,,,,,,,,,,,,,,,,,,,,,,,,,,,,,,,,,,,,,,,,-9999,-9999,,-9999,-9999,,,,,,,8/25/17 22:44,True
WBAN:24234,SEATTLE BOEING FIELD WA US,6.1,47.53028,-122.30083,2016-09-14 12:53,FM-15,FEW:02 200,10.00,,76,24.4,57,14.1,41,5.0,29,0,000,,30.02,4,,30.05,0.00,30.05,,,,,,,,,,0546,1822,,,,,,,,,,,,,,,,,,,,,,,,,,,,,,,,,,,,,,,,,,,-9999,-9999,,-9999,-9999,,,,,,,9/14/16 21:45,True
WBAN:24234,SEATTLE BOEING FIELD WA US,6.1,47.53028,-122.30083,2014-09-06 12:53,FM-15,CLR:00,10.00,,82,27.8,62,16.9,48,8.9,31,8,320,,29.90,6,,29.93,0.00,29.93,,,,,,,,,,0534,1840,,,,,,,,,,,,,,,,,,,,,,,,,,,,,,,,,,,,,,,,,,,-9999,-9999,,-9999,-9999,,,,,,,9/6/14 19:45,True
WBAN:24234,SEATTLE BOEING FIELD WA US,6.1,47.53028,-122.30083,2015-01-31 11:53,FM-15,OVC:08 8,5.00,HZ:7 |FU:05 |HZ:05,44,6.7,41,5.2,38,3.3,79,3,350,,30.21,,,30.24,0.00,30.24,,,,,,,,,,0737,1709,,,,,,,,,,,,,,,,,,,,,,,,,,,,,,,,,,,,,,,,,,,-9999,-9999,,-9999,-9999,,,,,,,1/31/15 20:03,False
WBAN:24234,SEATTLE BOEING FIELD WA US,6.1,47.53028,-122.30083,2016-10-22 13:53,FM-15,BKN:07 250,10.00,,61,16.1,53,11.5,45,7.2,56,6,320,,29.82,,,29.85,0.00,29.85,,,,,,,,,,0639,1707,,,,,,,,,,,,,,,,,,,,,,,,,,,,,,,,,,,,,,,,,,,-9999,-9999,,-9999,-9999,,,,,,,10/22/16 21:25,True
WBAN:24234,SEATTLE BOEING FIELD WA US,6.1,47.53028,-122.30083,2016-01-02 14:53,FM-15,CLR:00,10.00,,44,6.7,36,2.4,24,-4.4,45,3,300,,30.12,,,30.15,0.00,30.15,,,,,,,,,,0757,1630,,,,,,,,,,,,,,,,,,,,,,,,,,,,,,,,,,,,,,,,,,,-9999,-9999,,-9999,-9999,,,,,,,1/2/16 23:04,True
WBAN:24234,SEATTLE BOEING FIELD WA US,6.1,47.53028,-122.30083,2014-06-28 14:53,FM-15,SCT:04 60,10.00,,70,21.1,61,16.0,54,12.2,57,10,190,16,29.94,,,29.97,0.00,29.97,,,,,,,,,,0414,2011,,,,,,,,,,,,,,,,,,,,,,,,,,,,,,,,,,,,,,,,,,,-9999,-9999,,-9999,-9999,,,,,,,6/28/14 22:43,False
WBAN:24234,SEATTLE BOEING FIELD WA US,6.1,47.53028,-122.30083,2016-02-08 16:53,FM-15,SCT:04 250,10.00,,55,12.8,50,9.7,44,6.7,67,6,310,,30.31,,,30.34,0.00,30.34,,,,,,,,,,0725,1723,,,,,,,,,,,,,,,,,,,,,,,,,,,,,,,,,,,,,,,,,,,-9999,-9999,,-9999,-9999,,,,,,,2/9/16 1:23,True
WBAN:24234,SEATTLE BOEING FIELD WA US,6.1,47.53028,-122.30083,2014-12-19 10:53,FM-15,FEW:02 39,10.00,,52,11.1,47,8.4,42,5.6,69,11,170,,29.91,,,29.94,0.00,29.94,,,,,,,,,,0753,1620,,,,,,,,,,,,,,,,,,,,,,,,,,,,,,,,,,,,,,,,,,,-9999,-9999,,-9999,-9999,,,,,,,12/19/14 18:30,False
WBAN:24234,SEATTLE BOEING FIELD WA US,6.1,47.53028,-122.30083,2016-11-26 09:53,FM-15,SCT:04 20 OVC:08 55,8.00,-RA:02 |RA:61 |,50,10.0,49,9.7,49,9.4,96,6,120,,29.50,8,,29.53,0.04,29.53,,,,,,,,,,0731,1622,,,,,,,,,,,,,,,,,,,,,,,,,,,,,,,,,,,,,,,,,,,-9999,-9999,,-9999,-9999,,,,,,,11/26/16 17:26,True
WBAN:24234,SEATTLE BOEING FIELD WA US,6.1,47.53028,-122.30083,2014-12-23 10:53,FM-15,BKN:07 12 OVC:08 36,10.00,,48,8.9,45,7.3,42,5.6,80,10,140,,30.17,,,30.20,T,30.20,,,,,,,,,,0755,1621,,,,,,,,,,,,,,,,,,,,,,,,,,,,,,,,,,,,,,,,,,,-9999,-9999,,-9999,-9999,,,,,,,12/23/14 20:04,False
WBAN:24234,SEATTLE BOEING FIELD WA US,6.1,47.53028,-122.30083,2014-07-16 08:53,FM-15,CLR:00,10.00,,73,22.8,62,16.6,54,12.2,51,5,340,,29.99,,,30.02,0.00,30.02,,,,,,,,,,0428,2002,,,,,,,,,,,,,,,,,,,,,,,,,,,,,,,,,,,,,,,,,,,-9999,-9999,,-9999,-9999,,,,,,,7/16/14 16:51,True
WBAN:24234,SEATTLE BOEING FIELD WA US,6.1,47.53028,-122.30083,2014-12-25 12:53,FM-15,FEW:02 25,10.00,,48,8.9,43,6.4,38,3.3,68,6,240,,30.18,8,,30.21,0.00,30.21,,,,,,,,,,0756,1623,,,,,,,,,,,,,,,,,,,,,,,,,,,,,,,,,,,,,,,,,,,-9999,-9999,,-9999,-9999,,,,,,,12/25/14 20:57,False
WBAN:24234,SEATTLE BOEING FIELD WA US,6.1,47.53028,-122.30083,2014-08-19 14:53,FM-15,SCT:04 110 SCT:04 250,10.00,,83,28.3,67,19.7,58,14.4,43,7,230,,29.75,,,29.78,0.00,29.78,,,,,,,,,,0510,1914,,,,,,,,,,,,,,,,,,,,,,,,,,,,,,,,,,,,,,,,,,,-9999,-9999,,-9999,-9999,,,,,,,8/19/14 22:30,False
WBAN:24234,SEATTLE BOEING FIELD WA US,6.1,47.53028,-122.30083,2016-03-19 11:53,FM-15,BKN:07 60,10.00,,59,15.0,49,9.2,37,2.8,44,0,000,,30.01,,,30.04,0.00,30.04,,,,,,,,,,0612,1822,,,,,,,,,,,,,,,,,,,,,,,,,,,,,,,,,,,,,,,,,,,-9999,-9999,,-9999,-9999,,,,,,,3/19/16 20:02,False
WBAN:24234,SEATTLE BOEING FIELD WA US,6.1,47.53028,-122.30083,2014-06-27 13:53,FM-15,SCT:04 30 BKN:07 60,10.00,,72,22.2,61,16.1,53,11.7,52,9,210,22,29.77,,,29.80,0.00,29.80,,,,,,,,,,0414,2011,,,,,,,,,,,,,,,,,,,,,,,,,,,,,,,,,,,,,,,,,,,-9999,-9999,,-9999,-9999,,,,,,,6/27/14 22:08,False
WBAN:24234,SEATTLE BOEING FIELD WA US,6.1,47.53028,-122.30083,2016-01-03 13:53,FM-15,OVC:08 25,3.00,-SN:03 |SN:71 |,37,2.8,35,1.7,32,0.0,82,0,000,,29.92,,,29.96,T,29.95,,,,,,,,,,0757,1631,,,,,,,,,,,,,,,,,,,,,,,,,,,,,,,,,,,,,,,,,,,-9999,-9999,,-9999,-9999,,,,,,,1/3/16 22:00,False
WBAN:24234,SEATTLE BOEING FIELD WA US,6.1,47.53028,-122.30083,2015-03-09 14:53,FM-15,CLR:00,10.00,,55,12.8,49,9.5,43,6.1,64,10,320,,30.06,,,30.09,0.00,30.09,,,,,,,,,,0635,1806,,,,,,,,,,,,,,,,,,,,,,,,,,,,,,,,,,,,,,,,,,,-9999,-9999,,-9999,-9999,,,,,,,3/9/15 22:25,True
WBAN:24234,SEATTLE BOEING FIELD WA US,6.1,47.53028,-122.30083,2017-01-14 14:53,FM-15,SCT:04 200,10.00,,42,5.6,36,2.5,28,-2.2,58,6,310,,30.29,,,30.32,0.00,30.32,,,,,,,,,,0753,1644,,,,,,,,,,,,,,,,,,,,,,,,,,,,,,,,,,,,,,,,,,,-9999,-9999,,-9999,-9999,,,,,,,1/14/17 23:08,True
WBAN:24234,SEATTLE BOEING FIELD WA US,6.1,47.53028,-122.30083,2014-05-25 07:53,FM-15,OVC:08 100,10.00,,57,13.9,52,11.3,48,8.9,72,0,000,,30.06,,,30.09,0.00,30.09,,,,,,,,,,0421,1951,,,,,,,,,,,,,,,,,,,,,,,,,,,,,,,,,,,,,,,,,,,-9999,-9999,,-9999,-9999,,,,,,,5/25/14 16:07,False
WBAN:24234,SEATTLE BOEING FIELD WA US,6.1,47.53028,-122.30083,2016-08-03 19:53,FM-15,CLR:00,10.00,,69,20.6,59,15.2,52,11.1,55,7,310,,30.14,,,30.17,0.00,30.17,,,,,,,,,,0452,1938,,,,,,,,,,,,,,,,,,,,,,,,,,,,,,,,,,,,,,,,,,,-9999,-9999,,-9999,-9999,,,,,,,8/4/16 4:05,True
WBAN:24234,SEATTLE BOEING FIELD WA US,6.1,47.53028,-122.30083,2016-01-18 10:53,FM-15,FEW:02 40 BKN:07 200,10.00,,47,8.3,45,7.0,42,5.6,83,6,150,,29.96,,,29.99,0.00,29.99,,,,,,,,,,0751,1650,,,,,,,,,,,,,,,,,,,,,,,,,,,,,,,,,,,,,,,,,,,-9999,-9999,,-9999,-9999,,,,,,,1/18/16 18:51,True
WBAN:24234,SEATTLE BOEING FIELD WA US,6.1,47.53028,-122.30083,2014-11-27 14:53,FM-15,SCT:04 21 BKN:07 27 OVC:08 39,10.00,,59,15.0,54,12.3,50,10.0,72,11,180,22,29.75,,,29.78,0.00,29.78,,,,,,,,,,0731,1622,,,,,,,,,,,,,,,,,,,,,,,,,,,,,,,,,,,,,,,,,,,-9999,-9999,,-9999,-9999,,,,,,,11/27/14 23:17,False
WBAN:24234,SEATTLE BOEING FIELD WA US,6.1,47.53028,-122.30083,2016-03-17 10:53,FM-15,FEW:02 200,10.00,,50,10.0,43,6.1,34,1.1,54,6,020,,30.29,,,30.32,0.00,30.32,,,,,,,,,,0617,1819,,,,,,,,,,,,,,,,,,,,,,,,,,,,,,,,,,,,,,,,,,,-9999,-9999,,-9999,-9999,,,,,,,3/17/16 18:00,True
WBAN:24234,SEATTLE BOEING FIELD WA US,6.1,47.53028,-122.30083,2017-03-15 08:24,FM-16,FEW:02 7 OVC:08 47,6.00,-RA:02 BR:1 |RA:61 |,50,10.0,50,10.0,50,10.0,100,0,000,,29.86,,,,0.04,29.89,,,,,,,,,,0623,1815,,,,,,,,,,,,,,,,,,,,,,,,,,,,,,,,,,,,,,,,,,,-9999,-9999,,-9999,-9999,,,,,,,3/15/17 16:38,False
WBAN:24234,SEATTLE BOEING FIELD WA US,6.1,47.53028,-122.30083,2017-12-23 08:53,FM-15,FEW:02 20,10.00,,32,0.0,29,-1.6,24,-4.4,73,6,360,,30.43,,,30.46,0.00,30.46,,,,,,,,,,0755,1621,,,,,,,,,,,,,,,,,,,,,,,,,,,,,,,,,,,,,,,,,,,-9999,-9999,,-9999,-9999,,,,,,,12/23/17 17:06,True
WBAN:24234,SEATTLE BOEING FIELD WA US,6.1,47.53028,-122.30083,2016-05-03 14:53,FM-15,FEW:02 40 SCT:04 150 OVC:08 250,10.00,,73,22.8,61,16.3,53,11.7,50,0,000,,29.99,,,30.02,0.00,30.02,,,,,,,,,,0448,1925,,,,,,,,,,,,,,,,,,,,,,,,,,,,,,,,,,,,,,,,,,,-9999,-9999,,-9999,-9999,,,,,,,5/3/16 22:57,False
WBAN:24234,SEATTLE BOEING FIELD WA US,6.1,47.53028,-122.30083,2017-01-27 09:53,FM-15,SCT:04 200,10.00,,42,5.6,39,4.1,36,2.2,79,3,150,,30.65,3,,30.68,0.00,30.68,,,,,,,,,,0742,1703,,,,,,,,,,,,,,,,,,,,,,,,,,,,,,,,,,,,,,,,,,,-9999,-9999,,-9999,-9999,,,,,,,1/27/17 17:31,True
WBAN:24234,SEATTLE BOEING FIELD WA US,6.1,47.53028,-122.30083,2016-09-10 11:53,FM-15,CLR:00,10.00,,74,23.3,60,15.5,49,9.4,41,0,000,,30.07,,,30.10,0.00,30.10,,,,,,,,,,0541,1830,,,,,,,,,,,,,,,,,,,,,,,,,,,,,,,,,,,,,,,,,,,-9999,-9999,,-9999,-9999,,,,,,,9/10/16 20:20,True
WBAN:24234,SEATTLE BOEING FIELD WA US,6.1,47.53028,-122.30083,2017-02-01 08:53,FM-15,CLR:00,10.00,,33,0.6,28,-2.1,19,-7.2,56,5,350,,30.30,,,30.33,0.00,30.33,,,,,,,,,,0736,1711,,,,,,,,,,,,,,,,,,,,,,,,,,,,,,,,,,,,,,,,,,,-9999,-9999,,-9999,-9999,,,,,,,2/1/17 17:38,True
WBAN:24234,SEATTLE BOEING FIELD WA US,6.1,47.53028,-122.30083,2014-05-18 15:53,FM-15,SCT:04 55 BKN:07 70 OVC:08 80,10.00,-RA:02 |RA:61 |,59,15.0,55,12.9,52,11.1,78,0,000,,29.82,3,,29.85,0.04,29.85,,,,,,,,,,0429,1943,,,,,,,,,,,,,,,,,,,,,,,,,,,,,,,,,,,,,,,,,,,-9999,-9999,,-9999,-9999,,,,,,,5/18/14 22:06,False
WBAN:24234,SEATTLE BOEING FIELD WA US,6.1,47.53028,-122.30083,2014-06-12 14:53,FM-15,SCT:04 80,10.00,,71,21.7,58,14.6,48,8.9,44,7,220,,29.78,,,29.81,0.00,29.81,,,,,,,,,,0411,2007,,,,,,,,,,,,,,,,,,,,,,,,,,,,,,,,,,,,,,,,,,,-9999,-9999,,-9999,-9999,,,,,,,6/12/14 22:39,False
WBAN:24234,SEATTLE BOEING FIELD WA US,6.1,47.53028,-122.30083,2016-01-21 13:53,FM-15,FEW:02 12 BKN:07 24 OVC:08 55,10.00,-RA:02 |RA:61 |,51,10.6,49,9.4,47,8.3,86,3,190,,29.77,,,29.81,0.01,29.80,,,,,,,,,,0748,1654,,,,,,,,,,,,,,,,,,,,,,,,,,,,,,,,,,,,,,,,,,,-9999,-9999,,-9999,-9999,,,,,,,1/21/16 22:18,False
WBAN:24234,SEATTLE BOEING FIELD WA US,6.1,47.53028,-122.30083,2014-12-10 14:53,FM-15,OVC:08 70,8.00,-RA:02 |RA:61 |,60,15.6,54,12.3,49,9.4,67,17,160,28,29.27,,,29.30,0.05,29.30,,,,,,,,,,0746,1618,,,,,,,,,,,,,,,,,,,,,,,,,,,,,,,,,,,,,,,,,,,-9999,-9999,,-9999,-9999,,,,,,,12/10/14 22:30,False
WBAN:24234,SEATTLE BOEING FIELD WA US,6.1,47.53028,-122.30083,2014-12-07 13:53,FM-15,SCT:04 170 OVC:08 250,10.00,,55,12.8,50,9.7,44,6.7,67,0,000,,30.05,,,30.08,0.00,30.08,,,,,,,,,,0743,1618,,,,,,,,,,,,,,,,,,,,,,,,,,,,,,,,,,,,,,,,,,,-9999,-9999,,-9999,-9999,,,,,,,12/7/14 22:05,True
WBAN:24234,SEATTLE BOEING FIELD WA US,6.1,47.53028,-122.30083,2015-03-03 09:53,FM-15,CLR:00,10.00,,45,7.2,40,4.2,32,0.0,61,0,000,,30.24,3,,30.27,0.00,30.27,,,,,,,,,,0646,1757,,,,,,,,,,,,,,,,,,,,,,,,,,,,,,,,,,,,,,,,,,,-9999,-9999,,-9999,-9999,,,,,,,3/3/15 17:49,True
WBAN:24234,SEATTLE BOEING FIELD WA US,6.1,47.53028,-122.30083,2014-06-03 14:53,FM-15,OVC:08 32,10.00,,65,18.3,57,13.8,50,10.0,59,8,200,,30.03,,,30.06,0.00,30.06,,,,,,,,,,0415,2000,,,,,,,,,,,,,,,,,,,,,,,,,,,,,,,,,,,,,,,,,,,-9999,-9999,,-9999,-9999,,,,,,,6/3/14 23:21,False
WBAN:24234,SEATTLE BOEING FIELD WA US,6.1,47.53028,-122.30083,2014-06-15 07:53,FM-15,BKN:07 12 OVC:08 17,10.00,,57,13.9,53,11.5,49,9.4,74,6,200,,29.87,,,29.91,,29.90,,,,,,,,,,0411,2008,,,,,,,,,,,,,,,,,,,,,,,,,,,,,,,,,,,,,,,,,,,-9999,-9999,,-9999,-9999,,,,,,,6/15/14 16:06,False
WBAN:24234,SEATTLE BOEING FIELD WA US,6.1,47.53028,-122.30083,2014-05-23 07:53,FM-15,OVC:08 90,10.00,-RA:02 |RA:61 |,60,15.6,56,13.4,53,11.7,78,11,180,,30.02,,,30.05,0.04,30.05,,,,,,,,,,0423,1949,,,,,,,,,,,,,,,,,,,,,,,,,,,,,,,,,,,,,,,,,,,-9999,-9999,,-9999,-9999,,,,,,,5/23/14 16:05,False
WBAN:24234,SEATTLE BOEING FIELD WA US,6.1,47.53028,-122.30083,2017-06-11 20:53,FM-15,CLR:00,10.00,,62,16.7,55,12.5,48,8.9,60,6,300,,29.96,,,29.99,0.00,29.99,,,,,,,,,,0411,2007,,,,,,,,,,,,,,,,,,,,,,,,,,,,,,,,,,,,,,,,,,,-9999,-9999,,-9999,-9999,,,,,,,6/12/17 4:49,False
WBAN:24234,SEATTLE BOEING FIELD WA US,6.1,47.53028,-122.30083,2014-12-15 10:53,FM-15,FEW:02 60 OVC:08 85,10.00,,50,10.0,43,6.1,34,1.1,54,10,320,,29.89,,,29.92,0.00,29.92,,,,,,,,,,0750,1618,,,,,,,,,,,,,,,,,,,,,,,,,,,,,,,,,,,,,,,,,,,-9999,-9999,,-9999,-9999,,,,,,,12/15/14 18:28,True
WBAN:24234,SEATTLE BOEING FIELD WA US,6.1,47.53028,-122.30083,2016-05-02 09:53,FM-15,CLR:00,10.00,,75,23.9,59,15.2,47,8.3,37,5,290,,29.92,8,,29.96,0.00,29.95,,,,,,,,,,0449,1924,,,,,,,,,,,,,,,,,,,,,,,,,,,,,,,,,,,,,,,,,,,-9999,-9999,,-9999,-9999,,,,,,,5/2/16 18:14,True
WBAN:24234,SEATTLE BOEING FIELD WA US,6.1,47.53028,-122.30083,2014-07-16 10:53,FM-15,CLR:00,10.00,,80,26.7,65,18.6,56,13.3,44,10,290,,29.97,,,30.00,0.00,30.00,,,,,,,,,,0428,2002,,,,,,,,,,,,,,,,,,,,,,,,,,,,,,,,,,,,,,,,,,,-9999,-9999,,-9999,-9999,,,,,,,7/16/14 19:05,True
WBAN:24234,SEATTLE BOEING FIELD WA US,6.1,47.53028,-122.30083,2014-10-06 08:00,FM-16,SCT:04 5,10.00,,63,17.0,60,15.3,57,14.0,83,0,000,,30.03,,,,,30.06,,,,,,,,,,0615,1739,,,,,,,,,,,,,,,,,,,,,,,,,,,,,,,,,,,,,,,,,,,-9999,-9999,,-9999,-9999,,,,,,,10/6/14 16:18,True
WBAN:24234,SEATTLE BOEING FIELD WA US,6.1,47.53028,-122.30083,2015-02-05 13:53,FM-15,FEW:02 10 BKN:07 34 OVC:08 75,8.00,-RA:02 |RA:61 |,58,14.4,55,12.9,53,11.7,84,10,140,,29.52,,,29.55,0.02,29.55,,,,,,,,,,0730,1717,,,,,,,,,,,,,,,,,,,,,,,,,,,,,,,,,,,,,,,,,,,-9999,-9999,,-9999,-9999,,,,,,,2/5/15 21:32,False
WBAN:24234,SEATTLE BOEING FIELD WA US,6.1,47.53028,-122.30083,2014-08-18 11:53,FM-15,CLR:00,10.00,,78,25.6,66,19.0,59,15.0,52,6,270,,29.92,,,29.95,0.00,29.95,,,,,,,,,,0509,1916,,,,,,,,,,,,,,,,,,,,,,,,,,,,,,,,,,,,,,,,,,,-9999,-9999,,-9999,-9999,,,,,,,8/18/14 20:18,False
WBAN:24234,SEATTLE BOEING FIELD WA US,6.1,47.53028,-122.30083,2016-06-05 19:53,FM-15,CLR:00,10.00,,85,29.4,67,19.2,55,12.8,36,3,310,,29.81,,,29.84,0.00,29.84,,,,,,,,,,0413,2004,,,,,,,,,,,,,,,,,,,,,,,,,,,,,,,,,,,,,,,,,,,-9999,-9999,,-9999,-9999,,,,,,,6/6/16 3:40,True
WBAN:24234,SEATTLE BOEING FIELD WA US,6.1,47.53028,-122.30083,2014-05-13 13:53,FM-15,CLR:00,10.00,,79,26.1,61,15.9,46,7.8,31,8,310,,30.30,,,30.33,0.00,30.33,,,,,,,,,,0435,1937,,,,,,,,,,,,,,,,,,,,,,,,,,,,,,,,,,,,,,,,,,,-9999,-9999,,-9999,-9999,,,,,,,5/13/14 22:05,True
WBAN:24234,SEATTLE BOEING FIELD WA US,6.1,47.53028,-122.30083,2016-05-01 10:53,FM-15,CLR:00,10.00,,68,20.0,57,13.7,47,8.3,47,8,320,16,30.08,,,30.11,0.00,30.11,,,,,,,,,,0451,1922,,,,,,,,,,,,,,,,,,,,,,,,,,,,,,,,,,,,,,,,,,,-9999,-9999,,-9999,-9999,,,,,,,5/1/16 18:52,True
WBAN:24234,SEATTLE BOEING FIELD WA US,6.1,47.53028,-122.30083,2014-04-29 12:53,FM-15,BKN:07 250,10.00,,73,22.8,55,12.9,38,3.3,28,6,330,,30.42,8,,30.45,0.00,30.45,,,,,,,,,,0456,1918,,,,,,,,,,,,,,,,,,,,,,,,,,,,,,,,,,,,,,,,,,,-9999,-9999,,-9999,-9999,,,,,,,4/29/14 20:51,True
WBAN:24234,SEATTLE BOEING FIELD WA US,6.1,47.53028,-122.30083,2015-02-26 11:51,FM-16,BKN:07 14 OVC:08 20,10.00,,54,12.0,49,9.7,45,7.0,72,5,070,,30.09,,,,,30.12,,,,,,,,,,0656,1749,,,,,,,,,,,,,,,,,,,,,,,,,,,,,,,,,,,,,,,,,,,-9999,-9999,,-9999,-9999,,,,,,,2/26/15 19:26,False
WBAN:24234,SEATTLE BOEING FIELD WA US,6.1,47.53028,-122.30083,2014-06-30 08:36,FM-16,SCT:04 16,10.00,,63,17.0,57,13.9,52,11.0,68,6,060,,30.18,,,,,30.21,,,,,,,,,,0415,2010,,,,,,,,,,,,,,,,,,,,,,,,,,,,,,,,,,,,,,,,,,,-9999,-9999,,-9999,-9999,,,,,,,6/30/14 16:05,False
WBAN:24234,SEATTLE BOEING FIELD WA US,6.1,47.53028,-122.30083,2015-03-03 15:53,FM-15,SCT:04 230,10.00,,52,11.1,37,3.0,10,-12.2,18,5,300,,30.20,6,,30.23,0.00,30.23,,,,,,,,,,0646,1757,,,,,,,,,,,,,,,,,,,,,,,,,,,,,,,,,,,,,,,,,,,-9999,-9999,,-9999,-9999,,,,,,,3/3/15 23:30,True
WBAN:24234,SEATTLE BOEING FIELD WA US,6.1,47.53028,-122.30083,2015-01-24 15:53,FM-15,SCT:04 12 BKN:07 25,10.00,,62,16.7,58,14.2,54,12.2,75,8,180,,30.21,6,,30.24,0.00,30.24,,,,,,,,,,0745,1658,,,,,,,,,,,,,,,,,,,,,,,,,,,,,,,,,,,,,,,,,,,-9999,-9999,,-9999,-9999,,,,,,,1/24/15 23:56,False
WBAN:24234,SEATTLE BOEING FIELD WA US,6.1,47.53028,-122.30083,2017-07-28 13:53,FM-15,CLR:00,10.00,,76,24.4,63,17.2,54,12.2,47,10,270,,30.05,,,30.08,0.00,30.08,,,,,,,,,,0442,1949,,,,,,,,,,,,,,,,,,,,,,,,,,,,,,,,,,,,,,,,,,,-9999,-9999,,-9999,-9999,,,,,,,7/28/17 22:05,True
WBAN:24234,SEATTLE BOEING FIELD WA US,6.1,47.53028,-122.30083,2014-10-22 12:02,FM-16,BKN:07 8 OVC:08 17,3.00,RA:02 BR:1 |RA:62 |,59,15.0,57,13.8,55,13.0,88,3,160,,29.67,,,,0.02,29.70,,,,,,,,,,0638,1709,,,,,,,,,,,,,,,,,,,,,,,,,,,,,,,,,,,,,,,,,,,-9999,-9999,,-9999,-9999,,,,,,,10/22/14 20:18,False
WBAN:24234,SEATTLE BOEING FIELD WA US,6.1,47.53028,-122.30083,2016-01-11 14:53,FM-15,BKN:07 70 BKN:07 85,10.00,,44,6.7,43,5.9,41,5.0,89,9,150,,30.10,,,30.13,T,30.13,,,,,,,,,,0755,1640,,,,,,,,,,,,,,,,,,,,,,,,,,,,,,,,,,,,,,,,,,,-9999,-9999,,-9999,-9999,,,,,,,1/11/16 23:14,False
WBAN:24234,SEATTLE BOEING FIELD WA US,6.1,47.53028,-122.30083,2017-10-01 13:53,FM-15,SCT:04 40 BKN:07 70,10.00,,62,16.7,53,11.5,44,6.7,52,8,330,,30.10,,,30.13,0.00,30.13,,,,,,,,,,0608,1749,,,,,,,,,,,,,,,,,,,,,,,,,,,,,,,,,,,,,,,,,,,-9999,-9999,,-9999,-9999,,,,,,,10/1/17 21:54,False
WBAN:24234,SEATTLE BOEING FIELD WA US,6.1,47.53028,-122.30083,2017-10-13 08:53,FM-15,FEW:02 27 SCT:04 48 OVC:08 65,10.00,,47,8.3,45,7.0,42,5.6,83,3,110,,30.11,,,30.14,0.00,30.14,,,,,,,,,,0625,1725,,,,,,,,,,,,,,,,,,,,,,,,,,,,,,,,,,,,,,,,,,,-9999,-9999,,-9999,-9999,,,,,,,10/13/17 17:27,False
WBAN:24234,SEATTLE BOEING FIELD WA US,6.1,47.53028,-122.30083,2014-06-16 07:53,FM-15,BKN:07 15 OVC:08 20,10.00,,54,12.2,50,10.0,46,7.8,75,6,160,,29.87,,,29.90,T,29.90,,,,,,,,,,0411,2009,,,,,,,,,,,,,,,,,,,,,,,,,,,,,,,,,,,,,,,,,,,-9999,-9999,,-9999,-9999,,,,,,,6/16/14 16:09,False
WBAN:24234,SEATTLE BOEING FIELD WA US,6.1,47.53028,-122.30083,2015-02-02 15:51,FM-16,SCT:04 25 BKN:07 200,10.00,,55,13.0,50,10.0,45,7.0,67,16,200,31,29.87,,,,,29.90,,,,,,,,,,0735,1712,,,,,,,,,,,,,,,,,,,,,,,,,,,,,,,,,,,,,,,,,,,-9999,-9999,,-9999,-9999,,,,,,,2/2/15 23:26,False
WBAN:24234,SEATTLE BOEING FIELD WA US,6.1,47.53028,-122.30083,2014-10-17 11:53,FM-15,BKN:07 70 OVC:08 80,10.00,,63,17.2,56,13.6,51,10.6,65,0,000,,29.70,,,29.73,0.01,29.73,,,,,,,,,,0631,1718,,,,,,,,,,,,,,,,,,,,,,,,,,,,,,,,,,,,,,,,,,,-9999,-9999,,-9999,-9999,,,,,,,10/17/14 19:36,False
WBAN:24234,SEATTLE BOEING FIELD WA US,6.1,47.53028,-122.30083,2015-01-19 13:53,FM-15,BKN:07 22,10.00,,52,11.1,47,8.2,41,5.0,66,7,280,,30.39,,,30.42,0.00,30.42,,,,,,,,,,0750,1651,,,,,,,,,,,,,,,,,,,,,,,,,,,,,,,,,,,,,,,,,,,-9999,-9999,,-9999,-9999,,,,,,,1/19/15 21:29,False
WBAN:24234,SEATTLE BOEING FIELD WA US,6.1,47.53028,-122.30083,2014-07-31 11:53,FM-15,CLR:00,10.00,,80,26.7,64,18.0,54,12.2,41,8,290,,30.04,,,30.07,0.00,30.07,,,,,,,,,,0445,1945,,,,,,,,,,,,,,,,,,,,,,,,,,,,,,,,,,,,,,,,,,,-9999,-9999,,-9999,-9999,,,,,,,7/31/14 19:43,True
WBAN:24234,SEATTLE BOEING FIELD WA US,6.1,47.53028,-122.30083,2014-09-19 14:53,FM-15,FEW:02 40 SCT:04 200,10.00,,77,25.0,64,17.7,55,12.8,47,5,160,,30.03,,,30.06,0.00,30.06,,,,,,,,,,0552,1813,,,,,,,,,,,,,,,,,,,,,,,,,,,,,,,,,,,,,,,,,,,-9999,-9999,,-9999,-9999,,,,,,,9/19/14 22:28,True
WBAN:24234,SEATTLE BOEING FIELD WA US,6.1,47.53028,-122.30083,2017-02-17 12:53,FM-15,FEW:02 30 SCT:04 250,10.00,,54,12.2,47,8.5,40,4.4,59,6,050,,29.60,8,,29.63,0.00,29.63,,,,,,,,,,0712,1736,,,,,,,,,,,,,,,,,,,,,,,,,,,,,,,,,,,,,,,,,,,-9999,-9999,,-9999,-9999,,,,,,,2/17/17 20:28,True
WBAN:24234,SEATTLE BOEING FIELD WA US,6.1,47.53028,-122.30083,2016-02-19 12:53,FM-15,SCT:04 49 OVC:08 60,9.00,-RA:02 |RA:61 |,51,10.6,48,8.6,44,6.7,77,7,210,,29.59,3,,29.62,0.04s,29.62,,,,,,,,,,0708,1739,,,,,,,,,,,,,,,,,,,,,,,,,,,,,,,,,,,,,,,,,,,-9999,-9999,,-9999,-9999,,,,,,,2/19/16 20:42,False
WBAN:24234,SEATTLE BOEING FIELD WA US,6.1,47.53028,-122.30083,2014-10-07 13:51,FM-16,BKN:07 16,10.00,,66,19.0,61,16.0,57,14.0,73,3,310,,29.91,,,,,29.94,,,,,,,,,,0616,1737,,,,,,,,,,,,,,,,,,,,,,,,,,,,,,,,,,,,,,,,,,,-9999,-9999,,-9999,-9999,,,,,,,10/7/14 22:08,False
WBAN:24234,SEATTLE BOEING FIELD WA US,6.1,47.53028,-122.30083,2015-02-22 15:53,FM-15,BKN:07 210,10.00,,54,12.2,42,5.4,24,-4.4,31,6,350,,30.35,8,,30.38,0.00,30.38,,,,,,,,,,0703,1743,,,,,,,,,,,,,,,,,,,,,,,,,,,,,,,,,,,,,,,,,,,-9999,-9999,,-9999,-9999,,,,,,,2/22/15 23:54,True
WBAN:24234,SEATTLE BOEING FIELD WA US,6.1,47.53028,-122.30083,2016-08-11 17:53,FM-15,CLR:00,10.00,,78,25.6,65,18.5,57,13.9,48,8,310,,30.03,,,30.06,0.00,30.06,,,,,,,,,,0502,1925,,,,,,,,,,,,,,,,,,,,,,,,,,,,,,,,,,,,,,,,,,,-9999,-9999,,-9999,-9999,,,,,,,8/12/16 2:00,True
WBAN:24234,SEATTLE BOEING FIELD WA US,6.1,47.53028,-122.30083,2016-09-22 07:53,FM-15,CLR:00,10.00,,55,12.8,50,10.2,46,7.8,72,6,130,,30.00,,,30.03,0.00,30.03,,,,,,,,,,0557,1805,,,,,,,,,,,,,,,,,,,,,,,,,,,,,,,,,,,,,,,,,,,-9999,-9999,,-9999,-9999,,,,,,,9/22/16 16:16,True
WBAN:24234,SEATTLE BOEING FIELD WA US,6.1,47.53028,-122.30083,2017-11-03 12:14,FM-16,OVC:08 11,2.50,-SN:03 BR:1 |SN:71 |,35,1.7,34,1.2,33,0.6,93,5,360,,29.97,,,,,30.00,,,,,,,,,,0656,1649,,,,,,,,,,,,,,,,,,,,,,,,,,,,,,,,,,,,,,,,,,,-9999,-9999,,-9999,-9999,,,,,,,11/3/17 20:13,False
WBAN:24234,SEATTLE BOEING FIELD WA US,6.1,47.53028,-122.30083,2014-09-07 10:53,FM-15,CLR:00,10.00,,75,23.9,63,17.0,54,12.2,48,5,310,,29.85,,,29.88,0.00,29.88,,,,,,,,,,0536,1838,,,,,,,,,,,,,,,,,,,,,,,,,,,,,,,,,,,,,,,,,,,-9999,-9999,,-9999,-9999,,,,,,,9/7/14 19:03,True
WBAN:24234,SEATTLE BOEING FIELD WA US,6.1,47.53028,-122.30083,2017-04-16 10:53,FM-15,BKN:07 200,10.00,,56,13.3,48,9.0,40,4.4,55,9,320,,29.86,,,29.88,0.00,29.89,,,,,,,,,,0519,1900,,,,,,,,,,,,,,,,,,,,,,,,,,,,,,,,,,,,,,,,,,,-9999,-9999,,-9999,-9999,,,,,,,4/16/17 19:16,True
WBAN:24234,SEATTLE BOEING FIELD WA US,6.1,47.53028,-122.30083,2014-08-11 15:53,FM-15,SCT:04 150,10.00,,93,33.9,69,20.4,54,12.2,27,5,320,,29.77,8,,29.80,0.00,29.80,,,,,,,,,,0500,1928,,,,,,,,,,,,,,,,,,,,,,,,,,,,,,,,,,,,,,,,,,,-9999,-9999,,-9999,-9999,,,,,,,8/11/14 23:47,False
WBAN:24234,SEATTLE BOEING FIELD WA US,6.1,47.53028,-122.30083,2014-09-05 07:53,FM-15,CLR:00,10.00,,66,18.9,59,14.8,53,11.7,63,8,350,,30.12,,,30.15,0.00,30.15,,,,,,,,,,0533,1842,,,,,,,,,,,,,,,,,,,,,,,,,,,,,,,,,,,,,,,,,,,-9999,-9999,,-9999,-9999,,,,,,,9/5/14 16:26,True
WBAN:24234,SEATTLE BOEING FIELD WA US,6.1,47.53028,-122.30083,2017-07-04 07:53,FM-15,CLR:00,10.00,,62,16.7,56,13.6,52,11.1,70,7,050,,30.06,,,30.09,0.00,30.09,,,,,,,,,,0418,2009,,,,,,,,,,,,,,,,,,,,,,,,,,,,,,,,,,,,,,,,,,,-9999,-9999,,-9999,-9999,,,,,,,7/4/17 15:57,True
WBAN:24234,SEATTLE BOEING FIELD WA US,6.1,47.53028,-122.30083,2015-02-12 14:53,FM-15,BKN:07 36,10.00,,63,17.0,53,11.5,43,6.1,49,3,160,,30.20,,,30.23,0.00,30.23,,,,,,,,,,0720,1728,,,,,,,,,,,,,,,,,,,,,,,,,,,,,,,,,,,,,,,,,,,-9999,-9999,,-9999,-9999,,,,,,,2/12/15 22:37,False
WBAN:24234,SEATTLE BOEING FIELD WA US,6.1,47.53028,-122.30083,2014-07-05 12:53,FM-15,OVC:08 75,10.00,,75,23.9,61,16.2,51,10.6,43,7,190,,30.10,3,,30.13,T,30.13,,,,,,,,,,0418,2009,,,,,,,,,,,,,,,,,,,,,,,,,,,,,,,,,,,,,,,,,,,-9999,-9999,,-9999,-9999,,,,,,,7/5/14 20:34,True
WBAN:24234,SEATTLE BOEING FIELD WA US,6.1,47.53028,-122.30083,2017-10-16 13:53,FM-15,FEW:02 30 BKN:07 110,10.00,,63,17.2,55,12.8,48,8.9,58,14,180,22,30.14,,,30.17,0.00,30.17,,,,,,,,,,0629,1720,,,,,,,,,,,,,,,,,,,,,,,,,,,,,,,,,,,,,,,,,,,-9999,-9999,,-9999,-9999,,,,,,,10/16/17 21:55,True
WBAN:24234,SEATTLE BOEING FIELD WA US,6.1,47.53028,-122.30083,2017-01-06 17:53,FM-15,FEW:02 150,10.00,,34,1.1,29,-1.4,21,-6.1,59,0,000,,29.98,,,30.01,0.00,30.01,,,,,,,,,,0756,1635,,,,,,,,,,,,,,,,,,,,,,,,,,,,,,,,,,,,,,,,,,,-9999,-9999,,-9999,-9999,,,,,,,1/7/17 1:32,True
WBAN:24234,SEATTLE BOEING FIELD WA US,6.1,47.53028,-122.30083,2017-11-07 09:53,FM-15,OVC:08 140,10.00,,44,6.7,38,3.3,29,-1.7,55,0,000,,30.18,8,,30.21,,30.21,,,,,,,,,,0702,1643,,,,,,,,,,,,,,,,,,,,,,,,,,,,,,,,,,,,,,,,,,,-9999,-9999,,-9999,-9999,,,,,,,11/7/17 17:48,True
WBAN:24234,SEATTLE BOEING FIELD WA US,6.1,47.53028,-122.30083,2014-07-06 07:53,FM-15,BKN:07 65,10.00,,68,20.0,61,15.8,55,12.8,63,5,180,,30.13,,,30.16,0.00,30.16,,,,,,,,,,0419,2008,,,,,,,,,,,,,,,,,,,,,,,,,,,,,,,,,,,,,,,,,,,-9999,-9999,,-9999,-9999,,,,,,,7/6/14 16:08,True
WBAN:24234,SEATTLE BOEING FIELD WA US,6.1,47.53028,-122.30083,2014-07-18 07:53,FM-15,BKN:07 16,10.00,,61,16.1,56,13.1,51,10.6,70,8,220,,30.08,,,30.11,0.00,30.11,,,,,,,,,,0430,2000,,,,,,,,,,,,,,,,,,,,,,,,,,,,,,,,,,,,,,,,,,,-9999,-9999,,-9999,-9999,,,,,,,7/18/14 16:13,False
WBAN:24234,SEATTLE BOEING FIELD WA US,6.1,47.53028,-122.30083,2014-08-05 15:53,FM-15,FEW:02 200,10.00,,78,25.6,65,18.2,56,13.3,47,8,290,,30.01,8,,30.04,0.00,30.04,,,,,,,,,,0452,1938,,,,,,,,,,,,,,,,,,,,,,,,,,,,,,,,,,,,,,,,,,,-9999,-9999,,-9999,-9999,,,,,,,8/5/14 23:52,True
WBAN:24234,SEATTLE BOEING FIELD WA US,6.1,47.53028,-122.30083,2017-09-03 13:53,FM-15,FEW:02 150 SCT:04 200,10.00,,85,29.4,69,20.3,59,15.0,42,8,310,,29.97,,,30.01,0.00,30.00,,,,,,,,,,0530,1846,,,,,,,,,,,,,,,,,,,,,,,,,,,,,,,,,,,,,,,,,,,-9999,-9999,,-9999,-9999,,,,,,,9/3/17 22:01,False
WBAN:24234,SEATTLE BOEING FIELD WA US,6.1,47.53028,-122.30083,2014-12-02 11:53,FM-15,CLR:00,10.00,,42,5.6,36,2.5,28,-2.2,58,7,020,,30.11,,,30.14,0.00,30.14,,,,,,,,,,0737,1620,,,,,,,,,,,,,,,,,,,,,,,,,,,,,,,,,,,,,,,,,,,-9999,-9999,,-9999,-9999,,,,,,,12/2/14 20:20,True
WBAN:24234,SEATTLE BOEING FIELD WA US,6.1,47.53028,-122.30083,2016-02-22 17:53,FM-15,CLR:00,10.00,,48,8.9,43,6.4,38,3.3,68,0,000,,30.39,,,30.43,0.00,30.42,,,,,,,,,,0701,1745,,,,,,,,,,,,,,,,,,,,,,,,,,,,,,,,,,,,,,,,,,,-9999,-9999,,-9999,-9999,,,,,,,2/23/16 1:34,False
WBAN:24234,SEATTLE BOEING FIELD WA US,6.1,47.53028,-122.30083,2016-02-13 15:53,FM-15,SCT:04 10 BKN:07 15 OVC:08 27,8.00,-RA:02 |RA:61 |,48,8.9,47,8.3,46,7.8,93,15,170,22,30.13,8,,30.16,0.04,30.16,,,,,,,,,,0718,1729,,,,,,,,,,,,,,,,,,,,,,,,,,,,,,,,,,,,,,,,,,,-9999,-9999,,-9999,-9999,,,,,,,2/14/16 0:16,False
WBAN:24234,SEATTLE BOEING FIELD WA US,6.1,47.53028,-122.30083,2014-05-19 07:53,FM-15,SCT:04 38,10.00,,60,15.6,54,12.3,49,9.4,67,3,190,,29.96,,,29.99,0.00,29.99,,,,,,,,,,0427,1945,,,,,,,,,,,,,,,,,,,,,,,,,,,,,,,,,,,,,,,,,,,-9999,-9999,,-9999,-9999,,,,,,,5/19/14 16:05,False
WBAN:24234,SEATTLE BOEING FIELD WA US,6.1,47.53028,-122.30083,2014-07-21 14:53,FM-15,FEW:02 50,10.00,,74,23.3,59,15.0,47,8.3,38,3,270,,29.97,,,30.00,0.00,30.00,,,,,,,,,,0433,1957,,,,,,,,,,,,,,,,,,,,,,,,,,,,,,,,,,,,,,,,,,,-9999,-9999,,-9999,-9999,,,,,,,7/22/14 0:32,False
WBAN:24234,SEATTLE BOEING FIELD WA US,6.1,47.53028,-122.30083,2016-01-20 14:53,FM-15,FEW:02 20 OVC:08 200,10.00,,52,11.1,46,8.0,40,4.4,64,7,120,,30.11,,,30.14,0.00,30.14,,,,,,,,,,0749,1652,,,,,,,,,,,,,,,,,,,,,,,,,,,,,,,,,,,,,,,,,,,-9999,-9999,,-9999,-9999,,,,,,,1/20/16 22:54,True
WBAN:24234,SEATTLE BOEING FIELD WA US,6.1,47.53028,-122.30083,2014-12-05 10:53,FM-15,BKN:07 45 OVC:08 55,7.00,-RA:02 |RA:61 |,50,10.0,48,8.6,45,7.2,83,8,140,,29.92,,,29.96,0.04,29.95,,,,,,,,,,0741,1619,,,,,,,,,,,,,,,,,,,,,,,,,,,,,,,,,,,,,,,,,,,-9999,-9999,,-9999,-9999,,,,,,,12/5/14 18:51,False
WBAN:24234,SEATTLE BOEING FIELD WA US,6.1,47.53028,-122.30083,2016-11-06 15:53,FM-15,BKN:07 60 BKN:07 150,10.00,,59,15.0,53,11.5,47,8.3,64,7,190,,30.01,1,,30.04,0.00,30.04,,,,,,,,,,0702,1643,,,,,,,,,,,,,,,,,,,,,,,,,,,,,,,,,,,,,,,,,,,-9999,-9999,,-9999,-9999,,,,,,,11/7/16 0:09,False
WBAN:24234,SEATTLE BOEING FIELD WA US,6.1,47.53028,-122.30083,2014-05-05 10:53,FM-15,BKN:07 32 OVC:08 65,10.00,,56,13.3,51,10.5,46,7.8,70,10,210,17,29.96,,,29.99,0.00,29.99,,,,,,,,,,0446,1926,,,,,,,,,,,,,,,,,,,,,,,,,,,,,,,,,,,,,,,,,,,-9999,-9999,,-9999,-9999,,,,,,,5/5/14 19:21,False
WBAN:24234,SEATTLE BOEING FIELD WA US,6.1,47.53028,-122.30083,2015-01-29 08:53,FM-15,SCT:04 200,10.00,,46,7.8,43,6.0,39,3.9,77,0,000,,30.33,,,30.36,0.00,30.36,,,,,,,,,,0740,1706,,,,,,,,,,,,,,,,,,,,,,,,,,,,,,,,,,,,,,,,,,,-9999,-9999,,-9999,-9999,,,,,,,1/29/15 17:01,True
WBAN:24234,SEATTLE BOEING FIELD WA US,6.1,47.53028,-122.30083,2014-06-14 14:53,FM-15,OVC:08 33,10.00,,64,17.8,55,12.8,47,8.3,54,6,120,,30.05,,,30.08,0.00,30.08,,,,,,,,,,0411,2008,,,,,,,,,,,,,,,,,,,,,,,,,,,,,,,,,,,,,,,,,,,-9999,-9999,,-9999,-9999,,,,,,,6/14/14 22:05,False
WBAN:24234,SEATTLE BOEING FIELD WA US,6.1,47.53028,-122.30083,2014-06-11 11:53,FM-15,FEW:02 30 SCT:04 50 BKN:07 250,10.00,,70,21.1,58,14.4,48,8.9,46,5,340,,29.94,,,29.97,0.00,29.97,,,,,,,,,,0412,2006,,,,,,,,,,,,,,,,,,,,,,,,,,,,,,,,,,,,,,,,,,,-9999,-9999,,-9999,-9999,,,,,,,6/11/14 19:29,True
WBAN:24234,SEATTLE BOEING FIELD WA US,6.1,47.53028,-122.30083,2015-02-08 11:53,FM-15,BKN:07 170,10.00,,59,15.0,53,11.5,47,8.3,64,0,000,,29.88,,,29.91,0.00,29.91,,,,,,,,,,0726,1722,,,,,,,,,,,,,,,,,,,,,,,,,,,,,,,,,,,,,,,,,,,-9999,-9999,,-9999,-9999,,,,,,,2/8/15 19:59,True
WBAN:24234,SEATTLE BOEING FIELD WA US,6.1,47.53028,-122.30083,2014-07-11 17:53,FM-15,FEW:02 250,10.00,,88,31.1,65,18.5,50,10.0,27,0,000,,29.90,,,29.94,0.00,29.93,,,,,,,,,,0424,2005,,,,,,,,,,,,,,,,,,,,,,,,,,,,,,,,,,,,,,,,,,,-9999,-9999,,-9999,-9999,,,,,,,7/12/14 1:47,True
WBAN:24234,SEATTLE BOEING FIELD WA US,6.1,47.53028,-122.30083,2014-06-08 11:53,FM-15,FEW:02 20,10.00,,67,19.4,60,15.6,55,12.8,66,6,180,,30.17,,,30.20,0.00,30.20,,,,,,,,,,0412,2004,,,,,,,,,,,,,,,,,,,,,,,,,,,,,,,,,,,,,,,,,,,-9999,-9999,,-9999,-9999,,,,,,,6/8/14 19:56,False
WBAN:24234,SEATTLE BOEING FIELD WA US,6.1,47.53028,-122.30083,2016-04-04 13:53,FM-15,BKN:07 28 BKN:07 45,10.00,,59,15.0,50,10.1,41,5.0,51,14,230,24,30.22,,,30.25,0.00,30.25,,,,,,,,,,0540,1845,,,,,,,,,,,,,,,,,,,,,,,,,,,,,,,,,,,,,,,,,,,-9999,-9999,,-9999,-9999,,,,,,,4/4/16 22:03,False
WBAN:24234,SEATTLE BOEING FIELD WA US,6.1,47.53028,-122.30083,2016-01-13 17:53,FM-15,OVC:08 33,10.00,,45,7.2,43,6.2,41,5.0,86,5,130,,29.88,,,29.91,T,29.91,,,,,,,,,,0753,1644,,,,,,,,,,,,,,,,,,,,,,,,,,,,,,,,,,,,,,,,,,,-9999,-9999,,-9999,-9999,,,,,,,1/14/16 1:55,False
WBAN:24234,SEATTLE BOEING FIELD WA US,6.1,47.53028,-122.30083,2016-01-14 14:53,FM-15,BKN:07 250,10.00,,48,8.9,44,6.8,40,4.4,74,3,320,,29.80,,,29.83,0.00,29.83,,,,,,,,,,0753,1644,,,,,,,,,,,,,,,,,,,,,,,,,,,,,,,,,,,,,,,,,,,-9999,-9999,,-9999,-9999,,,,,,,1/14/16 23:01,True
WBAN:24234,SEATTLE BOEING FIELD WA US,6.1,47.53028,-122.30083,2014-06-08 10:51,FM-16,BKN:07 16,10.00,,64,18.0,59,14.9,55,13.0,73,6,180,,30.18,,,,,30.21,,,,,,,,,,0412,2004,,,,,,,,,,,,,,,,,,,,,,,,,,,,,,,,,,,,,,,,,,,-9999,-9999,,-9999,-9999,,,,,,,6/8/14 18:32,False
WBAN:24234,SEATTLE BOEING FIELD WA US,6.1,47.53028,-122.30083,2015-03-10 14:53,FM-15,OVC:08 220,10.00,,57,13.9,49,9.5,41,5.0,55,7,330,,29.75,,,29.78,0.00,29.78,,,,,,,,,,0633,1807,,,,,,,,,,,,,,,,,,,,,,,,,,,,,,,,,,,,,,,,,,,-9999,-9999,,-9999,-9999,,,,,,,3/10/15 23:14,True
WBAN:24234,SEATTLE BOEING FIELD WA US,6.1,47.53028,-122.30083,2017-05-21 10:53,FM-15,CLR:00,10.00,,68,20.0,59,15.3,53,11.7,59,7,320,,30.20,,,30.23,0.00,30.23,,,,,,,,,,0425,1947,,,,,,,,,,,,,,,,,,,,,,,,,,,,,,,,,,,,,,,,,,,-9999,-9999,,-9999,-9999,,,,,,,5/21/17 18:45,True
